{
  "type": "FeatureCollection",
  "properties": {
    "group": "all",
    "generator": "dashgps 0.1.0",
    "time_is_naive": false
  },
  "features": [
    {
      "type": "Feature",
      "properties": {
        "run": 0,
        "points": 50,
        "distance_km": 0.885,
        "outlier": false,
        "start": "2026-05-01T10:00:00",
        "end": "2026-05-01T10:00:49"
      },
      "geometry": {
        "type": "LineString",
        "coordinates": [
          [-122.300237, 47.599970, -10.0],
          [-122.300473, 47.599940, -9.0],
          [-122.300710, 47.599912, -8.0],
          [-122.300947, 47.599883, -7.0],
          [-122.301185, 47.599855, -6.0],
          [-122.301422, 47.599828, -10.0],
          [-122.301660, 47.599803, -9.0],
          [-122.301898, 47.599777, -8.0],
          [-122.302135, 47.599753, -7.0],
          [-122.302373, 47.599728, -6.0],
          [-122.302612, 47.599705, -10.0],
          [-122.302850, 47.599683, -9.0],
          [-122.303090, 47.599660, -8.0],
          [-122.303328, 47.599640, -7.0],
          [-122.303567, 47.599618, -6.0],
          [-122.303807, 47.599600, -10.0],
          [-122.304045, 47.599580, -9.0],
          [-122.304285, 47.599562, -8.0],
          [-122.304523, 47.599543, -7.0],
          [-122.304763, 47.599527, -6.0],
          [-122.305003, 47.599512, -10.0],
          [-122.305243, 47.599495, -9.0],
          [-122.305482, 47.599480, -8.0],
          [-122.305722, 47.599467, -7.0],
          [-122.305962, 47.599453, -6.0],
          [-122.306202, 47.599440, -10.0],
          [-122.306442, 47.599428, -9.0],
          [-122.306683, 47.599417, -8.0],
          [-122.306923, 47.599407, -7.0],
          [-122.307163, 47.599397, -6.0],
          [-122.307403, 47.599387, -10.0],
          [-122.307645, 47.599378, -9.0],
          [-122.307885, 47.599370, -8.0],
          [-122.308125, 47.599363, -7.0],
          [-122.308367, 47.599357, -6.0],
          [-122.308607, 47.599352, -10.0],
          [-122.308847, 47.599347, -9.0],
          [-122.309088, 47.599342, -8.0],
          [-122.309328, 47.599338, -7.0],
          [-122.309570, 47.599337, -6.0],
          [-122.309810, 47.599333, -10.0],
          [-122.310052, 47.599332, -9.0],
          [-122.310292, 47.599332, -8.0],
          [-122.310533, 47.599332, -7.0],
          [-122.310773, 47.599332, -6.0],
          [-122.311015, 47.599333, -10.0],
          [-122.311255, 47.599337, -9.0],
          [-122.311497, 47.599338, -8.0],
          [-122.311737, 47.599342, -7.0],
          [-122.311977, 47.599347, -6.0]
        ]
      }
    },
    {
      "type": "Feature",
      "properties": {
        "timestamp": "2026-05-01T10:00:00",
        "speed_kmh": 65.01,
        "heading_deg": 259.3,
        "accel": [null, null, null],
        "run": 0,
        "outlier": false
      },
      "geometry": { "type": "Point", "coordinates": [-122.300237, 47.599970, -10.0] }
    },
    {
      "type": "Feature",
      "properties": {
        "timestamp": "2026-05-01T10:00:01",
        "speed_kmh": 65.01,
        "heading_deg": 259.5,
        "accel": [null, null, null],
        "run": 0,
        "outlier": false
      },
      "geometry": { "type": "Point", "coordinates": [-122.300473, 47.599940, -9.0] }
    },
    {
      "type": "Feature",
      "properties": {
        "timestamp": "2026-05-01T10:00:02",
        "speed_kmh": 65.01,
        "heading_deg": 259.8,
        "accel": [null, null, null],
        "run": 0,
        "outlier": false
      },
      "geometry": { "type": "Point", "coordinates": [-122.300710, 47.599912, -8.0] }
    },
    {
      "type": "Feature",
      "properties": {
        "timestamp": "2026-05-01T10:00:03",
        "speed_kmh": 65.01,
        "heading_deg": 260.0,
        "accel": [null, null, null],
        "run": 0,
        "outlier": false
      },
      "geometry": { "type": "Point", "coordinates": [-122.300947, 47.599883, -7.0] }
    },
    {
      "type": "Feature",
      "properties": {
        "timestamp": "2026-05-01T10:00:04",
        "speed_kmh": 65.01,
        "heading_deg": 260.3,
        "accel": [null, null, null],
        "run": 0,
        "outlier": false
      },
      "geometry": { "type": "Point", "coordinates": [-122.301185, 47.599855, -6.0] }
    },
    {
      "type": "Feature",
      "properties": {
        "timestamp": "2026-05-01T10:00:05",
        "speed_kmh": 65.01,
        "heading_deg": 260.5,
        "accel": [null, null, null],
        "run": 0,
        "outlier": false
      },
      "geometry": { "type": "Point", "coordinates": [-122.301422, 47.599828, -10.0] }
    },
    {
      "type": "Feature",
      "properties": {
        "timestamp": "2026-05-01T10:00:06",
        "speed_kmh": 65.01,
        "heading_deg": 260.8,
        "accel": [null, null, null],
        "run": 0,
        "outlier": false
      },
      "geometry": { "type": "Point", "coordinates": [-122.301660, 47.599803, -9.0] }
    },
    {
      "type": "Feature",
      "properties": {
        "timestamp": "2026-05-01T10:00:07",
        "speed_kmh": 65.01,
        "heading_deg": 261.0,
        "accel": [null, null, null],
        "run": 0,
        "outlier": false
      },
      "geometry": { "type": "Point", "coordinates": [-122.301898, 47.599777, -8.0] }
    },
    {
      "type": "Feature",
      "properties": {
        "timestamp": "2026-05-01T10:00:08",
        "speed_kmh": 65.01,
        "heading_deg": 261.3,
        "accel": [null, null, null],
        "run": 0,
        "outlier": false
      },
      "geometry": { "type": "Point", "coordinates": [-122.302135, 47.599753, -7.0] }
    },
    {
      "type": "Feature",
      "properties": {
        "timestamp": "2026-05-01T10:00:09",
        "speed_kmh": 65.01,
        "heading_deg": 261.5,
        "accel": [null, null, null],
        "run": 0,
        "outlier": false
      },
      "geometry": { "type": "Point", "coordinates": [-122.302373, 47.599728, -6.0] }
    },
    {
      "type": "Feature",
      "properties": {
        "timestamp": "2026-05-01T10:00:10",
        "speed_kmh": 65.01,
        "heading_deg": 261.8,
        "accel": [null, null, null],
        "run": 0,
        "outlier": false
      },
      "geometry": { "type": "Point", "coordinates": [-122.302612, 47.599705, -10.0] }
    },
    {
      "type": "Feature",
      "properties": {
        "timestamp": "2026-05-01T10:00:11",
        "speed_kmh": 65.01,
        "heading_deg": 262.0,
        "accel": [null, null, null],
        "run": 0,
        "outlier": false
      },
      "geometry": { "type": "Point", "coordinates": [-122.302850, 47.599683, -9.0] }
    },
    {
      "type": "Feature",
      "properties": {
        "timestamp": "2026-05-01T10:00:12",
        "speed_kmh": 65.01,
        "heading_deg": 262.3,
        "accel": [null, null, null],
        "run": 0,
        "outlier": false
      },
      "geometry": { "type": "Point", "coordinates": [-122.303090, 47.599660, -8.0] }
    },
    {
      "type": "Feature",
      "properties": {
        "timestamp": "2026-05-01T10:00:13",
        "speed_kmh": 65.01,
        "heading_deg": 262.5,
        "accel": [null, null, null],
        "run": 0,
        "outlier": false
      },
      "geometry": { "type": "Point", "coordinates": [-122.303328, 47.599640, -7.0] }
    },
    {
      "type": "Feature",
      "properties": {
        "timestamp": "2026-05-01T10:00:14",
        "speed_kmh": 65.01,
        "heading_deg": 262.8,
        "accel": [null, null, null],
        "run": 0,
        "outlier": false
      },
      "geometry": { "type": "Point", "coordinates": [-122.303567, 47.599618, -6.0] }
    },
    {
      "type": "Feature",
      "properties": {
        "timestamp": "2026-05-01T10:00:15",
        "speed_kmh": 65.01,
        "heading_deg": 263.0,
        "accel": [null, null, null],
        "run": 0,
        "outlier": false
      },
      "geometry": { "type": "Point", "coordinates": [-122.303807, 47.599600, -10.0] }
    },
    {
      "type": "Feature",
      "properties": {
        "timestamp": "2026-05-01T10:00:16",
        "speed_kmh": 65.01,
        "heading_deg": 263.3,
        "accel": [null, null, null],
        "run": 0,
        "outlier": false
      },
      "geometry": { "type": "Point", "coordinates": [-122.304045, 47.599580, -9.0] }
    },
    {
      "type": "Feature",
      "properties": {
        "timestamp": "2026-05-01T10:00:17",
        "speed_kmh": 65.01,
        "heading_deg": 263.5,
        "accel": [null, null, null],
        "run": 0,
        "outlier": false
      },
      "geometry": { "type": "Point", "coordinates": [-122.304285, 47.599562, -8.0] }
    },
    {
      "type": "Feature",
      "properties": {
        "timestamp": "2026-05-01T10:00:18",
        "speed_kmh": 65.01,
        "heading_deg": 263.8,
        "accel": [null, null, null],
        "run": 0,
        "outlier": false
      },
      "geometry": { "type": "Point", "coordinates": [-122.304523, 47.599543, -7.0] }
    },
    {
      "type": "Feature",
      "properties": {
        "timestamp": "2026-05-01T10:00:19",
        "speed_kmh": 65.01,
        "heading_deg": 264.0,
        "accel": [null, null, null],
        "run": 0,
        "outlier": false
      },
      "geometry": { "type": "Point", "coordinates": [-122.304763, 47.599527, -6.0] }
    },
    {
      "type": "Feature",
      "properties": {
        "timestamp": "2026-05-01T10:00:20",
        "speed_kmh": 65.01,
        "heading_deg": 264.3,
        "accel": [null, null, null],
        "run": 0,
        "outlier": false
      },
      "geometry": { "type": "Point", "coordinates": [-122.305003, 47.599512, -10.0] }
    },
    {
      "type": "Feature",
      "properties": {
        "timestamp": "2026-05-01T10:00:21",
        "speed_kmh": 65.01,
        "heading_deg": 264.5,
        "accel": [null, null, null],
        "run": 0,
        "outlier": false
      },
      "geometry": { "type": "Point", "coordinates": [-122.305243, 47.599495, -9.0] }
    },
    {
      "type": "Feature",
      "properties": {
        "timestamp": "2026-05-01T10:00:22",
        "speed_kmh": 65.01,
        "heading_deg": 264.8,
        "accel": [null, null, null],
        "run": 0,
        "outlier": false
      },
      "geometry": { "type": "Point", "coordinates": [-122.305482, 47.599480, -8.0] }
    },
    {
      "type": "Feature",
      "properties": {
        "timestamp": "2026-05-01T10:00:23",
        "speed_kmh": 65.01,
        "heading_deg": 265.0,
        "accel": [null, null, null],
        "run": 0,
        "outlier": false
      },
      "geometry": { "type": "Point", "coordinates": [-122.305722, 47.599467, -7.0] }
    },
    {
      "type": "Feature",
      "properties": {
        "timestamp": "2026-05-01T10:00:24",
        "speed_kmh": 65.01,
        "heading_deg": 265.3,
        "accel": [null, null, null],
        "run": 0,
        "outlier": false
      },
      "geometry": { "type": "Point", "coordinates": [-122.305962, 47.599453, -6.0] }
    },
    {
      "type": "Feature",
      "properties": {
        "timestamp": "2026-05-01T10:00:25",
        "speed_kmh": 65.01,
        "heading_deg": 265.5,
        "accel": [null, null, null],
        "run": 0,
        "outlier": false
      },
      "geometry": { "type": "Point", "coordinates": [-122.306202, 47.599440, -10.0] }
    },
    {
      "type": "Feature",
      "properties": {
        "timestamp": "2026-05-01T10:00:26",
        "speed_kmh": 65.01,
        "heading_deg": 265.8,
        "accel": [null, null, null],
        "run": 0,
        "outlier": false
      },
      "geometry": { "type": "Point", "coordinates": [-122.306442, 47.599428, -9.0] }
    },
    {
      "type": "Feature",
      "properties": {
        "timestamp": "2026-05-01T10:00:27",
        "speed_kmh": 65.01,
        "heading_deg": 266.0,
        "accel": [null, null, null],
        "run": 0,
        "outlier": false
      },
      "geometry": { "type": "Point", "coordinates": [-122.306683, 47.599417, -8.0] }
    },
    {
      "type": "Feature",
      "properties": {
        "timestamp": "2026-05-01T10:00:28",
        "speed_kmh": 65.01,
        "heading_deg": 266.3,
        "accel": [null, null, null],
        "run": 0,
        "outlier": false
      },
      "geometry": { "type": "Point", "coordinates": [-122.306923, 47.599407, -7.0] }
    },
    {
      "type": "Feature",
      "properties": {
        "timestamp": "2026-05-01T10:00:29",
        "speed_kmh": 65.01,
        "heading_deg": 266.5,
        "accel": [null, null, null],
        "run": 0,
        "outlier": false
      },
      "geometry": { "type": "Point", "coordinates": [-122.307163, 47.599397, -6.0] }
    },
    {
      "type": "Feature",
      "properties": {
        "timestamp": "2026-05-01T10:00:30",
        "speed_kmh": 65.01,
        "heading_deg": 266.8,
        "accel": [null, null, null],
        "run": 0,
        "outlier": false
      },
      "geometry": { "type": "Point", "coordinates": [-122.307403, 47.599387, -10.0] }
    },
    {
      "type": "Feature",
      "properties": {
        "timestamp": "2026-05-01T10:00:31",
        "speed_kmh": 65.01,
        "heading_deg": 267.0,
        "accel": [null, null, null],
        "run": 0,
        "outlier": false
      },
      "geometry": { "type": "Point", "coordinates": [-122.307645, 47.599378, -9.0] }
    },
    {
      "type": "Feature",
      "properties": {
        "timestamp": "2026-05-01T10:00:32",
        "speed_kmh": 65.01,
        "heading_deg": 267.3,
        "accel": [null, null, null],
        "run": 0,
        "outlier": false
      },
      "geometry": { "type": "Point", "coordinates": [-122.307885, 47.599370, -8.0] }
    },
    {
      "type": "Feature",
      "properties": {
        "timestamp": "2026-05-01T10:00:33",
        "speed_kmh": 65.01,
        "heading_deg": 267.5,
        "accel": [null, null, null],
        "run": 0,
        "outlier": false
      },
      "geometry": { "type": "Point", "coordinates": [-122.308125, 47.599363, -7.0] }
    },
    {
      "type": "Feature",
      "properties": {
        "timestamp": "2026-05-01T10:00:34",
        "speed_kmh": 65.01,
        "heading_deg": 267.8,
        "accel": [null, null, null],
        "run": 0,
        "outlier": false
      },
      "geometry": { "type": "Point", "coordinates": [-122.308367, 47.599357, -6.0] }
    },
    {
      "type": "Feature",
      "properties": {
        "timestamp": "2026-05-01T10:00:35",
        "speed_kmh": 65.01,
        "heading_deg": 268.0,
        "accel": [null, null, null],
        "run": 0,
        "outlier": false
      },
      "geometry": { "type": "Point", "coordinates": [-122.308607, 47.599352, -10.0] }
    },
    {
      "type": "Feature",
      "properties": {
        "timestamp": "2026-05-01T10:00:36",
        "speed_kmh": 65.01,
        "heading_deg": 268.3,
        "accel": [null, null, null],
        "run": 0,
        "outlier": false
      },
      "geometry": { "type": "Point", "coordinates": [-122.308847, 47.599347, -9.0] }
    },
    {
      "type": "Feature",
      "properties": {
        "timestamp": "2026-05-01T10:00:37",
        "speed_kmh": 65.01,
        "heading_deg": 268.5,
        "accel": [null, null, null],
        "run": 0,
        "outlier": false
      },
      "geometry": { "type": "Point", "coordinates": [-122.309088, 47.599342, -8.0] }
    },
    {
      "type": "Feature",
      "properties": {
        "timestamp": "2026-05-01T10:00:38",
        "speed_kmh": 65.01,
        "heading_deg": 268.8,
        "accel": [null, null, null],
        "run": 0,
        "outlier": false
      },
      "geometry": { "type": "Point", "coordinates": [-122.309328, 47.599338, -7.0] }
    },
    {
      "type": "Feature",
      "properties": {
        "timestamp": "2026-05-01T10:00:39",
        "speed_kmh": 65.01,
        "heading_deg": 269.0,
        "accel": [null, null, null],
        "run": 0,
        "outlier": false
      },
      "geometry": { "type": "Point", "coordinates": [-122.309570, 47.599337, -6.0] }
    },
    {
      "type": "Feature",
      "properties": {
        "timestamp": "2026-05-01T10:00:40",
        "speed_kmh": 65.01,
        "heading_deg": 269.3,
        "accel": [null, null, null],
        "run": 0,
        "outlier": false
      },
      "geometry": { "type": "Point", "coordinates": [-122.309810, 47.599333, -10.0] }
    },
    {
      "type": "Feature",
      "properties": {
        "timestamp": "2026-05-01T10:00:41",
        "speed_kmh": 65.01,
        "heading_deg": 269.5,
        "accel": [null, null, null],
        "run": 0,
        "outlier": false
      },
      "geometry": { "type": "Point", "coordinates": [-122.310052, 47.599332, -9.0] }
    },
    {
      "type": "Feature",
      "properties": {
        "timestamp": "2026-05-01T10:00:42",
        "speed_kmh": 65.01,
        "heading_deg": 269.8,
        "accel": [null, null, null],
        "run": 0,
        "outlier": false
      },
      "geometry": { "type": "Point", "coordinates": [-122.310292, 47.599332, -8.0] }
    },
    {
      "type": "Feature",
      "properties": {
        "timestamp": "2026-05-01T10:00:43",
        "speed_kmh": 65.01,
        "heading_deg": 270.0,
        "accel": [null, null, null],
        "run": 0,
        "outlier": false
      },
      "geometry": { "type": "Point", "coordinates": [-122.310533, 47.599332, -7.0] }
    },
    {
      "type": "Feature",
      "properties": {
        "timestamp": "2026-05-01T10:00:44",
        "speed_kmh": 65.01,
        "heading_deg": 270.3,
        "accel": [null, null, null],
        "run": 0,
        "outlier": false
      },
      "geometry": { "type": "Point", "coordinates": [-122.310773, 47.599332, -6.0] }
    },
    {
      "type": "Feature",
      "properties": {
        "timestamp": "2026-05-01T10:00:45",
        "speed_kmh": 65.01,
        "heading_deg": 270.5,
        "accel": [null, null, null],
        "run": 0,
        "outlier": false
      },
      "geometry": { "type": "Point", "coordinates": [-122.311015, 47.599333, -10.0] }
    },
    {
      "type": "Feature",
      "properties": {
        "timestamp": "2026-05-01T10:00:46",
        "speed_kmh": 65.01,
        "heading_deg": 270.8,
        "accel": [null, null, null],
        "run": 0,
        "outlier": false
      },
      "geometry": { "type": "Point", "coordinates": [-122.311255, 47.599337, -9.0] }
    },
    {
      "type": "Feature",
      "properties": {
        "timestamp": "2026-05-01T10:00:47",
        "speed_kmh": 65.01,
        "heading_deg": 271.0,
        "accel": [null, null, null],
        "run": 0,
        "outlier": false
      },
      "geometry": { "type": "Point", "coordinates": [-122.311497, 47.599338, -8.0] }
    },
    {
      "type": "Feature",
      "properties": {
        "timestamp": "2026-05-01T10:00:48",
        "speed_kmh": 65.01,
        "heading_deg": 271.3,
        "accel": [null, null, null],
        "run": 0,
        "outlier": false
      },
      "geometry": { "type": "Point", "coordinates": [-122.311737, 47.599342, -7.0] }
    },
    {
      "type": "Feature",
      "properties": {
        "timestamp": "2026-05-01T10:00:49",
        "speed_kmh": 65.01,
        "heading_deg": 271.5,
        "accel": [null, null, null],
        "run": 0,
        "outlier": false
      },
      "geometry": { "type": "Point", "coordinates": [-122.311977, 47.599347, -6.0] }
    }
  ]
}
