{
  "type": "FeatureCollection",
  "properties": {
    "group": "all",
    "generator": "dashgps 0.1.0",
    "time_is_naive": true
  },
  "features": [
    {
      "type": "Feature",
      "properties": {
        "run": 0,
        "points": 40,
        "distance_km": 0.520,
        "outlier": false,
        "start": "2026-08-11T04:00:00",
        "end": "2026-08-11T04:00:39"
      },
      "geometry": {
        "type": "LineString",
        "coordinates": [
          [-80.137971, 25.774408],
          [-80.138102, 25.774386],
          [-80.138233, 25.774364],
          [-80.138364, 25.774344],
          [-80.138495, 25.774323],
          [-80.138626, 25.774304],
          [-80.138758, 25.774284],
          [-80.138889, 25.774265],
          [-80.139021, 25.774247],
          [-80.139153, 25.774230],
          [-80.139284, 25.774212],
          [-80.139416, 25.774196],
          [-80.139548, 25.774179],
          [-80.139680, 25.774164],
          [-80.139812, 25.774149],
          [-80.139945, 25.774134],
          [-80.140077, 25.774120],
          [-80.140209, 25.774106],
          [-80.140341, 25.774093],
          [-80.140474, 25.774081],
          [-80.140606, 25.774069],
          [-80.140739, 25.774057],
          [-80.140872, 25.774046],
          [-80.141004, 25.774036],
          [-80.141137, 25.774026],
          [-80.141270, 25.774017],
          [-80.141402, 25.774008],
          [-80.141535, 25.773999],
          [-80.141668, 25.773991],
          [-80.141801, 25.773984],
          [-80.141934, 25.773977],
          [-80.142067, 25.773971],
          [-80.142200, 25.773965],
          [-80.142333, 25.773960],
          [-80.142466, 25.773955],
          [-80.142599, 25.773951],
          [-80.142732, 25.773948],
          [-80.142865, 25.773944],
          [-80.142998, 25.773942],
          [-80.143132, 25.773940]
        ]
      }
    },
    {
      "type": "Feature",
      "properties": {
        "timestamp": "2026-08-11T04:00:00",
        "speed_kmh": 48.00,
        "heading_deg": null,
        "accel": [0.000, 0.000, 0.010],
        "run": 0,
        "outlier": false
      },
      "geometry": { "type": "Point", "coordinates": [-80.137971, 25.774408] }
    },
    {
      "type": "Feature",
      "properties": {
        "timestamp": "2026-08-11T04:00:01",
        "speed_kmh": 48.00,
        "heading_deg": null,
        "accel": [0.010, 0.000, 0.000],
        "run": 0,
        "outlier": false
      },
      "geometry": { "type": "Point", "coordinates": [-80.138102, 25.774386] }
    },
    {
      "type": "Feature",
      "properties": {
        "timestamp": "2026-08-11T04:00:02",
        "speed_kmh": 48.00,
        "heading_deg": null,
        "accel": [0.020, 0.000, 0.010],
        "run": 0,
        "outlier": false
      },
      "geometry": { "type": "Point", "coordinates": [-80.138233, 25.774364] }
    },
    {
      "type": "Feature",
      "properties": {
        "timestamp": "2026-08-11T04:00:03",
        "speed_kmh": 48.00,
        "heading_deg": null,
        "accel": [0.000, 0.000, 0.000],
        "run": 0,
        "outlier": false
      },
      "geometry": { "type": "Point", "coordinates": [-80.138364, 25.774344] }
    },
    {
      "type": "Feature",
      "properties": {
        "timestamp": "2026-08-11T04:00:04",
        "speed_kmh": 48.00,
        "heading_deg": null,
        "accel": [0.010, 0.000, 0.010],
        "run": 0,
        "outlier": false
      },
      "geometry": { "type": "Point", "coordinates": [-80.138495, 25.774323] }
    },
    {
      "type": "Feature",
      "properties": {
        "timestamp": "2026-08-11T04:00:05",
        "speed_kmh": 48.00,
        "heading_deg": null,
        "accel": [0.020, 0.000, 0.000],
        "run": 0,
        "outlier": false
      },
      "geometry": { "type": "Point", "coordinates": [-80.138626, 25.774304] }
    },
    {
      "type": "Feature",
      "properties": {
        "timestamp": "2026-08-11T04:00:06",
        "speed_kmh": 48.00,
        "heading_deg": null,
        "accel": [0.000, 0.000, 0.010],
        "run": 0,
        "outlier": false
      },
      "geometry": { "type": "Point", "coordinates": [-80.138758, 25.774284] }
    },
    {
      "type": "Feature",
      "properties": {
        "timestamp": "2026-08-11T04:00:07",
        "speed_kmh": 48.00,
        "heading_deg": null,
        "accel": [0.010, 0.000, 0.000],
        "run": 0,
        "outlier": false
      },
      "geometry": { "type": "Point", "coordinates": [-80.138889, 25.774265] }
    },
    {
      "type": "Feature",
      "properties": {
        "timestamp": "2026-08-11T04:00:08",
        "speed_kmh": 48.00,
        "heading_deg": null,
        "accel": [0.020, 0.000, 0.010],
        "run": 0,
        "outlier": false
      },
      "geometry": { "type": "Point", "coordinates": [-80.139021, 25.774247] }
    },
    {
      "type": "Feature",
      "properties": {
        "timestamp": "2026-08-11T04:00:09",
        "speed_kmh": 48.00,
        "heading_deg": null,
        "accel": [0.000, 0.000, 0.000],
        "run": 0,
        "outlier": false
      },
      "geometry": { "type": "Point", "coordinates": [-80.139153, 25.774230] }
    },
    {
      "type": "Feature",
      "properties": {
        "timestamp": "2026-08-11T04:00:10",
        "speed_kmh": 48.00,
        "heading_deg": null,
        "accel": [0.010, 0.000, 0.010],
        "run": 0,
        "outlier": false
      },
      "geometry": { "type": "Point", "coordinates": [-80.139284, 25.774212] }
    },
    {
      "type": "Feature",
      "properties": {
        "timestamp": "2026-08-11T04:00:11",
        "speed_kmh": 48.00,
        "heading_deg": null,
        "accel": [0.020, 0.000, 0.000],
        "run": 0,
        "outlier": false
      },
      "geometry": { "type": "Point", "coordinates": [-80.139416, 25.774196] }
    },
    {
      "type": "Feature",
      "properties": {
        "timestamp": "2026-08-11T04:00:12",
        "speed_kmh": 48.00,
        "heading_deg": null,
        "accel": [0.000, 0.000, 0.010],
        "run": 0,
        "outlier": false
      },
      "geometry": { "type": "Point", "coordinates": [-80.139548, 25.774179] }
    },
    {
      "type": "Feature",
      "properties": {
        "timestamp": "2026-08-11T04:00:13",
        "speed_kmh": 48.00,
        "heading_deg": null,
        "accel": [0.010, 0.000, 0.000],
        "run": 0,
        "outlier": false
      },
      "geometry": { "type": "Point", "coordinates": [-80.139680, 25.774164] }
    },
    {
      "type": "Feature",
      "properties": {
        "timestamp": "2026-08-11T04:00:14",
        "speed_kmh": 48.00,
        "heading_deg": null,
        "accel": [0.020, 0.000, 0.010],
        "run": 0,
        "outlier": false
      },
      "geometry": { "type": "Point", "coordinates": [-80.139812, 25.774149] }
    },
    {
      "type": "Feature",
      "properties": {
        "timestamp": "2026-08-11T04:00:15",
        "speed_kmh": 48.00,
        "heading_deg": null,
        "accel": [0.000, 0.000, 0.000],
        "run": 0,
        "outlier": false
      },
      "geometry": { "type": "Point", "coordinates": [-80.139945, 25.774134] }
    },
    {
      "type": "Feature",
      "properties": {
        "timestamp": "2026-08-11T04:00:16",
        "speed_kmh": 48.00,
        "heading_deg": null,
        "accel": [0.010, 0.000, 0.010],
        "run": 0,
        "outlier": false
      },
      "geometry": { "type": "Point", "coordinates": [-80.140077, 25.774120] }
    },
    {
      "type": "Feature",
      "properties": {
        "timestamp": "2026-08-11T04:00:17",
        "speed_kmh": 48.00,
        "heading_deg": null,
        "accel": [0.020, 0.000, 0.000],
        "run": 0,
        "outlier": false
      },
      "geometry": { "type": "Point", "coordinates": [-80.140209, 25.774106] }
    },
    {
      "type": "Feature",
      "properties": {
        "timestamp": "2026-08-11T04:00:18",
        "speed_kmh": 48.00,
        "heading_deg": null,
        "accel": [0.000, 0.000, 0.010],
        "run": 0,
        "outlier": false
      },
      "geometry": { "type": "Point", "coordinates": [-80.140341, 25.774093] }
    },
    {
      "type": "Feature",
      "properties": {
        "timestamp": "2026-08-11T04:00:19",
        "speed_kmh": 48.00,
        "heading_deg": null,
        "accel": [0.010, 0.000, 0.000],
        "run": 0,
        "outlier": false
      },
      "geometry": { "type": "Point", "coordinates": [-80.140474, 25.774081] }
    },
    {
      "type": "Feature",
      "properties": {
        "timestamp": "2026-08-11T04:00:20",
        "speed_kmh": 48.00,
        "heading_deg": null,
        "accel": [0.020, 0.000, 0.010],
        "run": 0,
        "outlier": false
      },
      "geometry": { "type": "Point", "coordinates": [-80.140606, 25.774069] }
    },
    {
      "type": "Feature",
      "properties": {
        "timestamp": "2026-08-11T04:00:21",
        "speed_kmh": 48.00,
        "heading_deg": null,
        "accel": [0.000, 0.000, 0.000],
        "run": 0,
        "outlier": false
      },
      "geometry": { "type": "Point", "coordinates": [-80.140739, 25.774057] }
    },
    {
      "type": "Feature",
      "properties": {
        "timestamp": "2026-08-11T04:00:22",
        "speed_kmh": 48.00,
        "heading_deg": null,
        "accel": [0.010, 0.000, 0.010],
        "run": 0,
        "outlier": false
      },
      "geometry": { "type": "Point", "coordinates": [-80.140872, 25.774046] }
    },
    {
      "type": "Feature",
      "properties": {
        "timestamp": "2026-08-11T04:00:23",
        "speed_kmh": 48.00,
        "heading_deg": null,
        "accel": [0.020, 0.000, 0.000],
        "run": 0,
        "outlier": false
      },
      "geometry": { "type": "Point", "coordinates": [-80.141004, 25.774036] }
    },
    {
      "type": "Feature",
      "properties": {
        "timestamp": "2026-08-11T04:00:24",
        "speed_kmh": 48.00,
        "heading_deg": null,
        "accel": [0.000, 0.000, 0.010],
        "run": 0,
        "outlier": false
      },
      "geometry": { "type": "Point", "coordinates": [-80.141137, 25.774026] }
    },
    {
      "type": "Feature",
      "properties": {
        "timestamp": "2026-08-11T04:00:25",
        "speed_kmh": 48.00,
        "heading_deg": null,
        "accel": [0.010, 0.000, 0.000],
        "run": 0,
        "outlier": false
      },
      "geometry": { "type": "Point", "coordinates": [-80.141270, 25.774017] }
    },
    {
      "type": "Feature",
      "properties": {
        "timestamp": "2026-08-11T04:00:26",
        "speed_kmh": 48.00,
        "heading_deg": null,
        "accel": [0.020, 0.000, 0.010],
        "run": 0,
        "outlier": false
      },
      "geometry": { "type": "Point", "coordinates": [-80.141402, 25.774008] }
    },
    {
      "type": "Feature",
      "properties": {
        "timestamp": "2026-08-11T04:00:27",
        "speed_kmh": 48.00,
        "heading_deg": null,
        "accel": [0.000, 0.000, 0.000],
        "run": 0,
        "outlier": false
      },
      "geometry": { "type": "Point", "coordinates": [-80.141535, 25.773999] }
    },
    {
      "type": "Feature",
      "properties": {
        "timestamp": "2026-08-11T04:00:28",
        "speed_kmh": 48.00,
        "heading_deg": null,
        "accel": [0.010, 0.000, 0.010],
        "run": 0,
        "outlier": false
      },
      "geometry": { "type": "Point", "coordinates": [-80.141668, 25.773991] }
    },
    {
      "type": "Feature",
      "properties": {
        "timestamp": "2026-08-11T04:00:29",
        "speed_kmh": 48.00,
        "heading_deg": null,
        "accel": [0.020, 0.000, 0.000],
        "run": 0,
        "outlier": false
      },
      "geometry": { "type": "Point", "coordinates": [-80.141801, 25.773984] }
    },
    {
      "type": "Feature",
      "properties": {
        "timestamp": "2026-08-11T04:00:30",
        "speed_kmh": 48.00,
        "heading_deg": null,
        "accel": [0.000, 0.000, 0.010],
        "run": 0,
        "outlier": false
      },
      "geometry": { "type": "Point", "coordinates": [-80.141934, 25.773977] }
    },
    {
      "type": "Feature",
      "properties": {
        "timestamp": "2026-08-11T04:00:31",
        "speed_kmh": 48.00,
        "heading_deg": null,
        "accel": [0.010, 0.000, 0.000],
        "run": 0,
        "outlier": false
      },
      "geometry": { "type": "Point", "coordinates": [-80.142067, 25.773971] }
    },
    {
      "type": "Feature",
      "properties": {
        "timestamp": "2026-08-11T04:00:32",
        "speed_kmh": 48.00,
        "heading_deg": null,
        "accel": [0.020, 0.000, 0.010],
        "run": 0,
        "outlier": false
      },
      "geometry": { "type": "Point", "coordinates": [-80.142200, 25.773965] }
    },
    {
      "type": "Feature",
      "properties": {
        "timestamp": "2026-08-11T04:00:33",
        "speed_kmh": 48.00,
        "heading_deg": null,
        "accel": [0.000, 0.000, 0.000],
        "run": 0,
        "outlier": false
      },
      "geometry": { "type": "Point", "coordinates": [-80.142333, 25.773960] }
    },
    {
      "type": "Feature",
      "properties": {
        "timestamp": "2026-08-11T04:00:34",
        "speed_kmh": 48.00,
        "heading_deg": null,
        "accel": [0.010, 0.000, 0.010],
        "run": 0,
        "outlier": false
      },
      "geometry": { "type": "Point", "coordinates": [-80.142466, 25.773955] }
    },
    {
      "type": "Feature",
      "properties": {
        "timestamp": "2026-08-11T04:00:35",
        "speed_kmh": 48.00,
        "heading_deg": null,
        "accel": [0.020, 0.000, 0.000],
        "run": 0,
        "outlier": false
      },
      "geometry": { "type": "Point", "coordinates": [-80.142599, 25.773951] }
    },
    {
      "type": "Feature",
      "properties": {
        "timestamp": "2026-08-11T04:00:36",
        "speed_kmh": 48.00,
        "heading_deg": null,
        "accel": [0.000, 0.000, 0.010],
        "run": 0,
        "outlier": false
      },
      "geometry": { "type": "Point", "coordinates": [-80.142732, 25.773948] }
    },
    {
      "type": "Feature",
      "properties": {
        "timestamp": "2026-08-11T04:00:37",
        "speed_kmh": 48.00,
        "heading_deg": null,
        "accel": [0.010, 0.000, 0.000],
        "run": 0,
        "outlier": false
      },
      "geometry": { "type": "Point", "coordinates": [-80.142865, 25.773944] }
    },
    {
      "type": "Feature",
      "properties": {
        "timestamp": "2026-08-11T04:00:38",
        "speed_kmh": 48.00,
        "heading_deg": null,
        "accel": [0.020, 0.000, 0.010],
        "run": 0,
        "outlier": false
      },
      "geometry": { "type": "Point", "coordinates": [-80.142998, 25.773942] }
    },
    {
      "type": "Feature",
      "properties": {
        "timestamp": "2026-08-11T04:00:39",
        "speed_kmh": 48.00,
        "heading_deg": null,
        "accel": [0.000, 0.000, 0.000],
        "run": 0,
        "outlier": false
      },
      "geometry": { "type": "Point", "coordinates": [-80.143132, 25.773940] }
    }
  ]
}
