{
  "type": "FeatureCollection",
  "properties": {
    "group": "all",
    "generator": "dashgps 0.1.0",
    "time_is_naive": true
  },
  "features": [
    {
      "type": "Feature",
      "properties": {
        "run": 0,
        "points": 120,
        "distance_km": 0.000,
        "outlier": false,
        "start": "2026-08-21T11:00:00",
        "end": "2026-08-21T11:01:59"
      },
      "geometry": {
        "type": "LineString",
        "coordinates": [
          [-80.137840, 25.774430, -10.0],
          [-80.137840, 25.774430, -9.0],
          [-80.137840, 25.774430, -8.0],
          [-80.137840, 25.774430, -7.0],
          [-80.137840, 25.774430, -6.0],
          [-80.137840, 25.774430, -10.0],
          [-80.137840, 25.774430, -9.0],
          [-80.137840, 25.774430, -8.0],
          [-80.137840, 25.774430, -7.0],
          [-80.137840, 25.774430, -6.0],
          [-80.137840, 25.774430, -10.0],
          [-80.137840, 25.774430, -9.0],
          [-80.137840, 25.774430, -8.0],
          [-80.137840, 25.774430, -7.0],
          [-80.137840, 25.774430, -6.0],
          [-80.137840, 25.774430, -10.0],
          [-80.137840, 25.774430, -9.0],
          [-80.137840, 25.774430, -8.0],
          [-80.137840, 25.774430, -7.0],
          [-80.137840, 25.774430, -6.0],
          [-80.137840, 25.774430, -10.0],
          [-80.137840, 25.774430, -9.0],
          [-80.137840, 25.774430, -8.0],
          [-80.137840, 25.774430, -7.0],
          [-80.137840, 25.774430, -6.0],
          [-80.137840, 25.774430, -10.0],
          [-80.137840, 25.774430, -9.0],
          [-80.137840, 25.774430, -8.0],
          [-80.137840, 25.774430, -7.0],
          [-80.137840, 25.774430, -6.0],
          [-80.137840, 25.774430, -10.0],
          [-80.137840, 25.774430, -9.0],
          [-80.137840, 25.774430, -8.0],
          [-80.137840, 25.774430, -7.0],
          [-80.137840, 25.774430, -6.0],
          [-80.137840, 25.774430, -10.0],
          [-80.137840, 25.774430, -9.0],
          [-80.137840, 25.774430, -8.0],
          [-80.137840, 25.774430, -7.0],
          [-80.137840, 25.774430, -6.0],
          [-80.137840, 25.774430, -10.0],
          [-80.137840, 25.774430, -9.0],
          [-80.137840, 25.774430, -8.0],
          [-80.137840, 25.774430, -7.0],
          [-80.137840, 25.774430, -6.0],
          [-80.137840, 25.774430, -10.0],
          [-80.137840, 25.774430, -9.0],
          [-80.137840, 25.774430, -8.0],
          [-80.137840, 25.774430, -7.0],
          [-80.137840, 25.774430, -6.0],
          [-80.137840, 25.774430, -10.0],
          [-80.137840, 25.774430, -9.0],
          [-80.137840, 25.774430, -8.0],
          [-80.137840, 25.774430, -7.0],
          [-80.137840, 25.774430, -6.0],
          [-80.137840, 25.774430, -10.0],
          [-80.137840, 25.774430, -9.0],
          [-80.137840, 25.774430, -8.0],
          [-80.137840, 25.774430, -7.0],
          [-80.137840, 25.774430, -6.0],
          [-80.137840, 25.774430, -10.0],
          [-80.137840, 25.774430, -9.0],
          [-80.137840, 25.774430, -8.0],
          [-80.137840, 25.774430, -7.0],
          [-80.137840, 25.774430, -6.0],
          [-80.137840, 25.774430, -10.0],
          [-80.137840, 25.774430, -9.0],
          [-80.137840, 25.774430, -8.0],
          [-80.137840, 25.774430, -7.0],
          [-80.137840, 25.774430, -6.0],
          [-80.137840, 25.774430, -10.0],
          [-80.137840, 25.774430, -9.0],
          [-80.137840, 25.774430, -8.0],
          [-80.137840, 25.774430, -7.0],
          [-80.137840, 25.774430, -6.0],
          [-80.137840, 25.774430, -10.0],
          [-80.137840, 25.774430, -9.0],
          [-80.137840, 25.774430, -8.0],
          [-80.137840, 25.774430, -7.0],
          [-80.137840, 25.774430, -6.0],
          [-80.137840, 25.774430, -10.0],
          [-80.137840, 25.774430, -9.0],
          [-80.137840, 25.774430, -8.0],
          [-80.137840, 25.774430, -7.0],
          [-80.137840, 25.774430, -6.0],
          [-80.137840, 25.774430, -10.0],
          [-80.137840, 25.774430, -9.0],
          [-80.137840, 25.774430, -8.0],
          [-80.137840, 25.774430, -7.0],
          [-80.137840, 25.774430, -6.0],
          [-80.137840, 25.774430, -10.0],
          [-80.137840, 25.774430, -9.0],
          [-80.137840, 25.774430, -8.0],
          [-80.137840, 25.774430, -7.0],
          [-80.137840, 25.774430, -6.0],
          [-80.137840, 25.774430, -10.0],
          [-80.137840, 25.774430, -9.0],
          [-80.137840, 25.774430, -8.0],
          [-80.137840, 25.774430, -7.0],
          [-80.137840, 25.774430, -6.0],
          [-80.137840, 25.774430, -10.0],
          [-80.137840, 25.774430, -9.0],
          [-80.137840, 25.774430, -8.0],
          [-80.137840, 25.774430, -7.0],
          [-80.137840, 25.774430, -6.0],
          [-80.137840, 25.774430, -10.0],
          [-80.137840, 25.774430, -9.0],
          [-80.137840, 25.774430, -8.0],
          [-80.137840, 25.774430, -7.0],
          [-80.137840, 25.774430, -6.0],
          [-80.137840, 25.774430, -10.0],
          [-80.137840, 25.774430, -9.0],
          [-80.137840, 25.774430, -8.0],
          [-80.137840, 25.774430, -7.0],
          [-80.137840, 25.774430, -6.0],
          [-80.137840, 25.774430, -10.0],
          [-80.137840, 25.774430, -9.0],
          [-80.137840, 25.774430, -8.0],
          [-80.137840, 25.774430, -7.0],
          [-80.137840, 25.774430, -6.0]
        ]
      }
    },
    {
      "type": "Feature",
      "properties": {
        "timestamp": "2026-08-21T11:00:00",
        "speed_kmh": 0.00,
        "heading_deg": 259.0,
        "accel": [0.000, 0.000, 0.010],
        "run": 0,
        "outlier": false
      },
      "geometry": { "type": "Point", "coordinates": [-80.137840, 25.774430, -10.0] }
    },
    {
      "type": "Feature",
      "properties": {
        "timestamp": "2026-08-21T11:00:01",
        "speed_kmh": 0.00,
        "heading_deg": 259.0,
        "accel": [0.010, 0.000, 0.000],
        "run": 0,
        "outlier": false
      },
      "geometry": { "type": "Point", "coordinates": [-80.137840, 25.774430, -9.0] }
    },
    {
      "type": "Feature",
      "properties": {
        "timestamp": "2026-08-21T11:00:02",
        "speed_kmh": 0.00,
        "heading_deg": 259.0,
        "accel": [0.020, 0.000, 0.010],
        "run": 0,
        "outlier": false
      },
      "geometry": { "type": "Point", "coordinates": [-80.137840, 25.774430, -8.0] }
    },
    {
      "type": "Feature",
      "properties": {
        "timestamp": "2026-08-21T11:00:03",
        "speed_kmh": 0.00,
        "heading_deg": 259.0,
        "accel": [0.000, 0.000, 0.000],
        "run": 0,
        "outlier": false
      },
      "geometry": { "type": "Point", "coordinates": [-80.137840, 25.774430, -7.0] }
    },
    {
      "type": "Feature",
      "properties": {
        "timestamp": "2026-08-21T11:00:04",
        "speed_kmh": 0.00,
        "heading_deg": 259.0,
        "accel": [0.010, 0.000, 0.010],
        "run": 0,
        "outlier": false
      },
      "geometry": { "type": "Point", "coordinates": [-80.137840, 25.774430, -6.0] }
    },
    {
      "type": "Feature",
      "properties": {
        "timestamp": "2026-08-21T11:00:05",
        "speed_kmh": 0.00,
        "heading_deg": 259.0,
        "accel": [0.020, 0.000, 0.000],
        "run": 0,
        "outlier": false
      },
      "geometry": { "type": "Point", "coordinates": [-80.137840, 25.774430, -10.0] }
    },
    {
      "type": "Feature",
      "properties": {
        "timestamp": "2026-08-21T11:00:06",
        "speed_kmh": 0.00,
        "heading_deg": 259.0,
        "accel": [0.000, 0.000, 0.010],
        "run": 0,
        "outlier": false
      },
      "geometry": { "type": "Point", "coordinates": [-80.137840, 25.774430, -9.0] }
    },
    {
      "type": "Feature",
      "properties": {
        "timestamp": "2026-08-21T11:00:07",
        "speed_kmh": 0.00,
        "heading_deg": 259.0,
        "accel": [0.010, 0.000, 0.000],
        "run": 0,
        "outlier": false
      },
      "geometry": { "type": "Point", "coordinates": [-80.137840, 25.774430, -8.0] }
    },
    {
      "type": "Feature",
      "properties": {
        "timestamp": "2026-08-21T11:00:08",
        "speed_kmh": 0.00,
        "heading_deg": 259.0,
        "accel": [0.020, 0.000, 0.010],
        "run": 0,
        "outlier": false
      },
      "geometry": { "type": "Point", "coordinates": [-80.137840, 25.774430, -7.0] }
    },
    {
      "type": "Feature",
      "properties": {
        "timestamp": "2026-08-21T11:00:09",
        "speed_kmh": 0.00,
        "heading_deg": 259.0,
        "accel": [0.000, 0.000, 0.000],
        "run": 0,
        "outlier": false
      },
      "geometry": { "type": "Point", "coordinates": [-80.137840, 25.774430, -6.0] }
    },
    {
      "type": "Feature",
      "properties": {
        "timestamp": "2026-08-21T11:00:10",
        "speed_kmh": 0.00,
        "heading_deg": 259.0,
        "accel": [0.010, 0.000, 0.010],
        "run": 0,
        "outlier": false
      },
      "geometry": { "type": "Point", "coordinates": [-80.137840, 25.774430, -10.0] }
    },
    {
      "type": "Feature",
      "properties": {
        "timestamp": "2026-08-21T11:00:11",
        "speed_kmh": 0.00,
        "heading_deg": 259.0,
        "accel": [0.020, 0.000, 0.000],
        "run": 0,
        "outlier": false
      },
      "geometry": { "type": "Point", "coordinates": [-80.137840, 25.774430, -9.0] }
    },
    {
      "type": "Feature",
      "properties": {
        "timestamp": "2026-08-21T11:00:12",
        "speed_kmh": 0.00,
        "heading_deg": 259.0,
        "accel": [0.000, 0.000, 0.010],
        "run": 0,
        "outlier": false
      },
      "geometry": { "type": "Point", "coordinates": [-80.137840, 25.774430, -8.0] }
    },
    {
      "type": "Feature",
      "properties": {
        "timestamp": "2026-08-21T11:00:13",
        "speed_kmh": 0.00,
        "heading_deg": 259.0,
        "accel": [0.010, 0.000, 0.000],
        "run": 0,
        "outlier": false
      },
      "geometry": { "type": "Point", "coordinates": [-80.137840, 25.774430, -7.0] }
    },
    {
      "type": "Feature",
      "properties": {
        "timestamp": "2026-08-21T11:00:14",
        "speed_kmh": 0.00,
        "heading_deg": 259.0,
        "accel": [0.020, 0.000, 0.010],
        "run": 0,
        "outlier": false
      },
      "geometry": { "type": "Point", "coordinates": [-80.137840, 25.774430, -6.0] }
    },
    {
      "type": "Feature",
      "properties": {
        "timestamp": "2026-08-21T11:00:15",
        "speed_kmh": 0.00,
        "heading_deg": 259.0,
        "accel": [0.000, 0.000, 0.000],
        "run": 0,
        "outlier": false
      },
      "geometry": { "type": "Point", "coordinates": [-80.137840, 25.774430, -10.0] }
    },
    {
      "type": "Feature",
      "properties": {
        "timestamp": "2026-08-21T11:00:16",
        "speed_kmh": 0.00,
        "heading_deg": 259.0,
        "accel": [0.010, 0.000, 0.010],
        "run": 0,
        "outlier": false
      },
      "geometry": { "type": "Point", "coordinates": [-80.137840, 25.774430, -9.0] }
    },
    {
      "type": "Feature",
      "properties": {
        "timestamp": "2026-08-21T11:00:17",
        "speed_kmh": 0.00,
        "heading_deg": 259.0,
        "accel": [0.020, 0.000, 0.000],
        "run": 0,
        "outlier": false
      },
      "geometry": { "type": "Point", "coordinates": [-80.137840, 25.774430, -8.0] }
    },
    {
      "type": "Feature",
      "properties": {
        "timestamp": "2026-08-21T11:00:18",
        "speed_kmh": 0.00,
        "heading_deg": 259.0,
        "accel": [0.000, 0.000, 0.010],
        "run": 0,
        "outlier": false
      },
      "geometry": { "type": "Point", "coordinates": [-80.137840, 25.774430, -7.0] }
    },
    {
      "type": "Feature",
      "properties": {
        "timestamp": "2026-08-21T11:00:19",
        "speed_kmh": 0.00,
        "heading_deg": 259.0,
        "accel": [0.010, 0.000, 0.000],
        "run": 0,
        "outlier": false
      },
      "geometry": { "type": "Point", "coordinates": [-80.137840, 25.774430, -6.0] }
    },
    {
      "type": "Feature",
      "properties": {
        "timestamp": "2026-08-21T11:00:20",
        "speed_kmh": 0.00,
        "heading_deg": 259.0,
        "accel": [0.020, 0.000, 0.010],
        "run": 0,
        "outlier": false
      },
      "geometry": { "type": "Point", "coordinates": [-80.137840, 25.774430, -10.0] }
    },
    {
      "type": "Feature",
      "properties": {
        "timestamp": "2026-08-21T11:00:21",
        "speed_kmh": 0.00,
        "heading_deg": 259.0,
        "accel": [0.000, 0.000, 0.000],
        "run": 0,
        "outlier": false
      },
      "geometry": { "type": "Point", "coordinates": [-80.137840, 25.774430, -9.0] }
    },
    {
      "type": "Feature",
      "properties": {
        "timestamp": "2026-08-21T11:00:22",
        "speed_kmh": 0.00,
        "heading_deg": 259.0,
        "accel": [0.010, 0.000, 0.010],
        "run": 0,
        "outlier": false
      },
      "geometry": { "type": "Point", "coordinates": [-80.137840, 25.774430, -8.0] }
    },
    {
      "type": "Feature",
      "properties": {
        "timestamp": "2026-08-21T11:00:23",
        "speed_kmh": 0.00,
        "heading_deg": 259.0,
        "accel": [0.020, 0.000, 0.000],
        "run": 0,
        "outlier": false
      },
      "geometry": { "type": "Point", "coordinates": [-80.137840, 25.774430, -7.0] }
    },
    {
      "type": "Feature",
      "properties": {
        "timestamp": "2026-08-21T11:00:24",
        "speed_kmh": 0.00,
        "heading_deg": 259.0,
        "accel": [0.000, 0.000, 0.010],
        "run": 0,
        "outlier": false
      },
      "geometry": { "type": "Point", "coordinates": [-80.137840, 25.774430, -6.0] }
    },
    {
      "type": "Feature",
      "properties": {
        "timestamp": "2026-08-21T11:00:25",
        "speed_kmh": 0.00,
        "heading_deg": 259.0,
        "accel": [0.010, 0.000, 0.000],
        "run": 0,
        "outlier": false
      },
      "geometry": { "type": "Point", "coordinates": [-80.137840, 25.774430, -10.0] }
    },
    {
      "type": "Feature",
      "properties": {
        "timestamp": "2026-08-21T11:00:26",
        "speed_kmh": 0.00,
        "heading_deg": 259.0,
        "accel": [0.020, 0.000, 0.010],
        "run": 0,
        "outlier": false
      },
      "geometry": { "type": "Point", "coordinates": [-80.137840, 25.774430, -9.0] }
    },
    {
      "type": "Feature",
      "properties": {
        "timestamp": "2026-08-21T11:00:27",
        "speed_kmh": 0.00,
        "heading_deg": 259.0,
        "accel": [0.000, 0.000, 0.000],
        "run": 0,
        "outlier": false
      },
      "geometry": { "type": "Point", "coordinates": [-80.137840, 25.774430, -8.0] }
    },
    {
      "type": "Feature",
      "properties": {
        "timestamp": "2026-08-21T11:00:28",
        "speed_kmh": 0.00,
        "heading_deg": 259.0,
        "accel": [0.010, 0.000, 0.010],
        "run": 0,
        "outlier": false
      },
      "geometry": { "type": "Point", "coordinates": [-80.137840, 25.774430, -7.0] }
    },
    {
      "type": "Feature",
      "properties": {
        "timestamp": "2026-08-21T11:00:29",
        "speed_kmh": 0.00,
        "heading_deg": 259.0,
        "accel": [0.020, 0.000, 0.000],
        "run": 0,
        "outlier": false
      },
      "geometry": { "type": "Point", "coordinates": [-80.137840, 25.774430, -6.0] }
    },
    {
      "type": "Feature",
      "properties": {
        "timestamp": "2026-08-21T11:00:30",
        "speed_kmh": 0.00,
        "heading_deg": 259.0,
        "accel": [0.000, 0.000, 0.010],
        "run": 0,
        "outlier": false
      },
      "geometry": { "type": "Point", "coordinates": [-80.137840, 25.774430, -10.0] }
    },
    {
      "type": "Feature",
      "properties": {
        "timestamp": "2026-08-21T11:00:31",
        "speed_kmh": 0.00,
        "heading_deg": 259.0,
        "accel": [0.010, 0.000, 0.000],
        "run": 0,
        "outlier": false
      },
      "geometry": { "type": "Point", "coordinates": [-80.137840, 25.774430, -9.0] }
    },
    {
      "type": "Feature",
      "properties": {
        "timestamp": "2026-08-21T11:00:32",
        "speed_kmh": 0.00,
        "heading_deg": 259.0,
        "accel": [0.020, 0.000, 0.010],
        "run": 0,
        "outlier": false
      },
      "geometry": { "type": "Point", "coordinates": [-80.137840, 25.774430, -8.0] }
    },
    {
      "type": "Feature",
      "properties": {
        "timestamp": "2026-08-21T11:00:33",
        "speed_kmh": 0.00,
        "heading_deg": 259.0,
        "accel": [0.000, 0.000, 0.000],
        "run": 0,
        "outlier": false
      },
      "geometry": { "type": "Point", "coordinates": [-80.137840, 25.774430, -7.0] }
    },
    {
      "type": "Feature",
      "properties": {
        "timestamp": "2026-08-21T11:00:34",
        "speed_kmh": 0.00,
        "heading_deg": 259.0,
        "accel": [0.010, 0.000, 0.010],
        "run": 0,
        "outlier": false
      },
      "geometry": { "type": "Point", "coordinates": [-80.137840, 25.774430, -6.0] }
    },
    {
      "type": "Feature",
      "properties": {
        "timestamp": "2026-08-21T11:00:35",
        "speed_kmh": 0.00,
        "heading_deg": 259.0,
        "accel": [0.020, 0.000, 0.000],
        "run": 0,
        "outlier": false
      },
      "geometry": { "type": "Point", "coordinates": [-80.137840, 25.774430, -10.0] }
    },
    {
      "type": "Feature",
      "properties": {
        "timestamp": "2026-08-21T11:00:36",
        "speed_kmh": 0.00,
        "heading_deg": 259.0,
        "accel": [0.000, 0.000, 0.010],
        "run": 0,
        "outlier": false
      },
      "geometry": { "type": "Point", "coordinates": [-80.137840, 25.774430, -9.0] }
    },
    {
      "type": "Feature",
      "properties": {
        "timestamp": "2026-08-21T11:00:37",
        "speed_kmh": 0.00,
        "heading_deg": 259.0,
        "accel": [0.010, 0.000, 0.000],
        "run": 0,
        "outlier": false
      },
      "geometry": { "type": "Point", "coordinates": [-80.137840, 25.774430, -8.0] }
    },
    {
      "type": "Feature",
      "properties": {
        "timestamp": "2026-08-21T11:00:38",
        "speed_kmh": 0.00,
        "heading_deg": 259.0,
        "accel": [0.020, 0.000, 0.010],
        "run": 0,
        "outlier": false
      },
      "geometry": { "type": "Point", "coordinates": [-80.137840, 25.774430, -7.0] }
    },
    {
      "type": "Feature",
      "properties": {
        "timestamp": "2026-08-21T11:00:39",
        "speed_kmh": 0.00,
        "heading_deg": 259.0,
        "accel": [0.000, 0.000, 0.000],
        "run": 0,
        "outlier": false
      },
      "geometry": { "type": "Point", "coordinates": [-80.137840, 25.774430, -6.0] }
    },
    {
      "type": "Feature",
      "properties": {
        "timestamp": "2026-08-21T11:00:40",
        "speed_kmh": 0.00,
        "heading_deg": 259.0,
        "accel": [0.010, 0.000, 0.010],
        "run": 0,
        "outlier": false
      },
      "geometry": { "type": "Point", "coordinates": [-80.137840, 25.774430, -10.0] }
    },
    {
      "type": "Feature",
      "properties": {
        "timestamp": "2026-08-21T11:00:41",
        "speed_kmh": 0.00,
        "heading_deg": 259.0,
        "accel": [0.020, 0.000, 0.000],
        "run": 0,
        "outlier": false
      },
      "geometry": { "type": "Point", "coordinates": [-80.137840, 25.774430, -9.0] }
    },
    {
      "type": "Feature",
      "properties": {
        "timestamp": "2026-08-21T11:00:42",
        "speed_kmh": 0.00,
        "heading_deg": 259.0,
        "accel": [0.000, 0.000, 0.010],
        "run": 0,
        "outlier": false
      },
      "geometry": { "type": "Point", "coordinates": [-80.137840, 25.774430, -8.0] }
    },
    {
      "type": "Feature",
      "properties": {
        "timestamp": "2026-08-21T11:00:43",
        "speed_kmh": 0.00,
        "heading_deg": 259.0,
        "accel": [0.010, 0.000, 0.000],
        "run": 0,
        "outlier": false
      },
      "geometry": { "type": "Point", "coordinates": [-80.137840, 25.774430, -7.0] }
    },
    {
      "type": "Feature",
      "properties": {
        "timestamp": "2026-08-21T11:00:44",
        "speed_kmh": 0.00,
        "heading_deg": 259.0,
        "accel": [0.020, 0.000, 0.010],
        "run": 0,
        "outlier": false
      },
      "geometry": { "type": "Point", "coordinates": [-80.137840, 25.774430, -6.0] }
    },
    {
      "type": "Feature",
      "properties": {
        "timestamp": "2026-08-21T11:00:45",
        "speed_kmh": 0.00,
        "heading_deg": 259.0,
        "accel": [0.000, 0.000, 0.000],
        "run": 0,
        "outlier": false
      },
      "geometry": { "type": "Point", "coordinates": [-80.137840, 25.774430, -10.0] }
    },
    {
      "type": "Feature",
      "properties": {
        "timestamp": "2026-08-21T11:00:46",
        "speed_kmh": 0.00,
        "heading_deg": 259.0,
        "accel": [0.010, 0.000, 0.010],
        "run": 0,
        "outlier": false
      },
      "geometry": { "type": "Point", "coordinates": [-80.137840, 25.774430, -9.0] }
    },
    {
      "type": "Feature",
      "properties": {
        "timestamp": "2026-08-21T11:00:47",
        "speed_kmh": 0.00,
        "heading_deg": 259.0,
        "accel": [0.020, 0.000, 0.000],
        "run": 0,
        "outlier": false
      },
      "geometry": { "type": "Point", "coordinates": [-80.137840, 25.774430, -8.0] }
    },
    {
      "type": "Feature",
      "properties": {
        "timestamp": "2026-08-21T11:00:48",
        "speed_kmh": 0.00,
        "heading_deg": 259.0,
        "accel": [0.000, 0.000, 0.010],
        "run": 0,
        "outlier": false
      },
      "geometry": { "type": "Point", "coordinates": [-80.137840, 25.774430, -7.0] }
    },
    {
      "type": "Feature",
      "properties": {
        "timestamp": "2026-08-21T11:00:49",
        "speed_kmh": 0.00,
        "heading_deg": 259.0,
        "accel": [0.010, 0.000, 0.000],
        "run": 0,
        "outlier": false
      },
      "geometry": { "type": "Point", "coordinates": [-80.137840, 25.774430, -6.0] }
    },
    {
      "type": "Feature",
      "properties": {
        "timestamp": "2026-08-21T11:00:50",
        "speed_kmh": 0.00,
        "heading_deg": 259.0,
        "accel": [0.020, 0.000, 0.010],
        "run": 0,
        "outlier": false
      },
      "geometry": { "type": "Point", "coordinates": [-80.137840, 25.774430, -10.0] }
    },
    {
      "type": "Feature",
      "properties": {
        "timestamp": "2026-08-21T11:00:51",
        "speed_kmh": 0.00,
        "heading_deg": 259.0,
        "accel": [0.000, 0.000, 0.000],
        "run": 0,
        "outlier": false
      },
      "geometry": { "type": "Point", "coordinates": [-80.137840, 25.774430, -9.0] }
    },
    {
      "type": "Feature",
      "properties": {
        "timestamp": "2026-08-21T11:00:52",
        "speed_kmh": 0.00,
        "heading_deg": 259.0,
        "accel": [0.010, 0.000, 0.010],
        "run": 0,
        "outlier": false
      },
      "geometry": { "type": "Point", "coordinates": [-80.137840, 25.774430, -8.0] }
    },
    {
      "type": "Feature",
      "properties": {
        "timestamp": "2026-08-21T11:00:53",
        "speed_kmh": 0.00,
        "heading_deg": 259.0,
        "accel": [0.020, 0.000, 0.000],
        "run": 0,
        "outlier": false
      },
      "geometry": { "type": "Point", "coordinates": [-80.137840, 25.774430, -7.0] }
    },
    {
      "type": "Feature",
      "properties": {
        "timestamp": "2026-08-21T11:00:54",
        "speed_kmh": 0.00,
        "heading_deg": 259.0,
        "accel": [0.000, 0.000, 0.010],
        "run": 0,
        "outlier": false
      },
      "geometry": { "type": "Point", "coordinates": [-80.137840, 25.774430, -6.0] }
    },
    {
      "type": "Feature",
      "properties": {
        "timestamp": "2026-08-21T11:00:55",
        "speed_kmh": 0.00,
        "heading_deg": 259.0,
        "accel": [0.010, 0.000, 0.000],
        "run": 0,
        "outlier": false
      },
      "geometry": { "type": "Point", "coordinates": [-80.137840, 25.774430, -10.0] }
    },
    {
      "type": "Feature",
      "properties": {
        "timestamp": "2026-08-21T11:00:56",
        "speed_kmh": 0.00,
        "heading_deg": 259.0,
        "accel": [0.020, 0.000, 0.010],
        "run": 0,
        "outlier": false
      },
      "geometry": { "type": "Point", "coordinates": [-80.137840, 25.774430, -9.0] }
    },
    {
      "type": "Feature",
      "properties": {
        "timestamp": "2026-08-21T11:00:57",
        "speed_kmh": 0.00,
        "heading_deg": 259.0,
        "accel": [0.000, 0.000, 0.000],
        "run": 0,
        "outlier": false
      },
      "geometry": { "type": "Point", "coordinates": [-80.137840, 25.774430, -8.0] }
    },
    {
      "type": "Feature",
      "properties": {
        "timestamp": "2026-08-21T11:00:58",
        "speed_kmh": 0.00,
        "heading_deg": 259.0,
        "accel": [0.010, 0.000, 0.010],
        "run": 0,
        "outlier": false
      },
      "geometry": { "type": "Point", "coordinates": [-80.137840, 25.774430, -7.0] }
    },
    {
      "type": "Feature",
      "properties": {
        "timestamp": "2026-08-21T11:00:59",
        "speed_kmh": 0.00,
        "heading_deg": 259.0,
        "accel": [0.020, 0.000, 0.000],
        "run": 0,
        "outlier": false
      },
      "geometry": { "type": "Point", "coordinates": [-80.137840, 25.774430, -6.0] }
    },
    {
      "type": "Feature",
      "properties": {
        "timestamp": "2026-08-21T11:01:00",
        "speed_kmh": 0.00,
        "heading_deg": 259.0,
        "accel": [0.000, 0.000, 0.010],
        "run": 0,
        "outlier": false
      },
      "geometry": { "type": "Point", "coordinates": [-80.137840, 25.774430, -10.0] }
    },
    {
      "type": "Feature",
      "properties": {
        "timestamp": "2026-08-21T11:01:01",
        "speed_kmh": 0.00,
        "heading_deg": 259.0,
        "accel": [0.010, 0.000, 0.000],
        "run": 0,
        "outlier": false
      },
      "geometry": { "type": "Point", "coordinates": [-80.137840, 25.774430, -9.0] }
    },
    {
      "type": "Feature",
      "properties": {
        "timestamp": "2026-08-21T11:01:02",
        "speed_kmh": 0.00,
        "heading_deg": 259.0,
        "accel": [0.020, 0.000, 0.010],
        "run": 0,
        "outlier": false
      },
      "geometry": { "type": "Point", "coordinates": [-80.137840, 25.774430, -8.0] }
    },
    {
      "type": "Feature",
      "properties": {
        "timestamp": "2026-08-21T11:01:03",
        "speed_kmh": 0.00,
        "heading_deg": 259.0,
        "accel": [0.000, 0.000, 0.000],
        "run": 0,
        "outlier": false
      },
      "geometry": { "type": "Point", "coordinates": [-80.137840, 25.774430, -7.0] }
    },
    {
      "type": "Feature",
      "properties": {
        "timestamp": "2026-08-21T11:01:04",
        "speed_kmh": 0.00,
        "heading_deg": 259.0,
        "accel": [0.010, 0.000, 0.010],
        "run": 0,
        "outlier": false
      },
      "geometry": { "type": "Point", "coordinates": [-80.137840, 25.774430, -6.0] }
    },
    {
      "type": "Feature",
      "properties": {
        "timestamp": "2026-08-21T11:01:05",
        "speed_kmh": 0.00,
        "heading_deg": 259.0,
        "accel": [0.020, 0.000, 0.000],
        "run": 0,
        "outlier": false
      },
      "geometry": { "type": "Point", "coordinates": [-80.137840, 25.774430, -10.0] }
    },
    {
      "type": "Feature",
      "properties": {
        "timestamp": "2026-08-21T11:01:06",
        "speed_kmh": 0.00,
        "heading_deg": 259.0,
        "accel": [0.000, 0.000, 0.010],
        "run": 0,
        "outlier": false
      },
      "geometry": { "type": "Point", "coordinates": [-80.137840, 25.774430, -9.0] }
    },
    {
      "type": "Feature",
      "properties": {
        "timestamp": "2026-08-21T11:01:07",
        "speed_kmh": 0.00,
        "heading_deg": 259.0,
        "accel": [0.010, 0.000, 0.000],
        "run": 0,
        "outlier": false
      },
      "geometry": { "type": "Point", "coordinates": [-80.137840, 25.774430, -8.0] }
    },
    {
      "type": "Feature",
      "properties": {
        "timestamp": "2026-08-21T11:01:08",
        "speed_kmh": 0.00,
        "heading_deg": 259.0,
        "accel": [0.020, 0.000, 0.010],
        "run": 0,
        "outlier": false
      },
      "geometry": { "type": "Point", "coordinates": [-80.137840, 25.774430, -7.0] }
    },
    {
      "type": "Feature",
      "properties": {
        "timestamp": "2026-08-21T11:01:09",
        "speed_kmh": 0.00,
        "heading_deg": 259.0,
        "accel": [0.000, 0.000, 0.000],
        "run": 0,
        "outlier": false
      },
      "geometry": { "type": "Point", "coordinates": [-80.137840, 25.774430, -6.0] }
    },
    {
      "type": "Feature",
      "properties": {
        "timestamp": "2026-08-21T11:01:10",
        "speed_kmh": 0.00,
        "heading_deg": 259.0,
        "accel": [0.010, 0.000, 0.010],
        "run": 0,
        "outlier": false
      },
      "geometry": { "type": "Point", "coordinates": [-80.137840, 25.774430, -10.0] }
    },
    {
      "type": "Feature",
      "properties": {
        "timestamp": "2026-08-21T11:01:11",
        "speed_kmh": 0.00,
        "heading_deg": 259.0,
        "accel": [0.020, 0.000, 0.000],
        "run": 0,
        "outlier": false
      },
      "geometry": { "type": "Point", "coordinates": [-80.137840, 25.774430, -9.0] }
    },
    {
      "type": "Feature",
      "properties": {
        "timestamp": "2026-08-21T11:01:12",
        "speed_kmh": 0.00,
        "heading_deg": 259.0,
        "accel": [0.000, 0.000, 0.010],
        "run": 0,
        "outlier": false
      },
      "geometry": { "type": "Point", "coordinates": [-80.137840, 25.774430, -8.0] }
    },
    {
      "type": "Feature",
      "properties": {
        "timestamp": "2026-08-21T11:01:13",
        "speed_kmh": 0.00,
        "heading_deg": 259.0,
        "accel": [0.010, 0.000, 0.000],
        "run": 0,
        "outlier": false
      },
      "geometry": { "type": "Point", "coordinates": [-80.137840, 25.774430, -7.0] }
    },
    {
      "type": "Feature",
      "properties": {
        "timestamp": "2026-08-21T11:01:14",
        "speed_kmh": 0.00,
        "heading_deg": 259.0,
        "accel": [0.020, 0.000, 0.010],
        "run": 0,
        "outlier": false
      },
      "geometry": { "type": "Point", "coordinates": [-80.137840, 25.774430, -6.0] }
    },
    {
      "type": "Feature",
      "properties": {
        "timestamp": "2026-08-21T11:01:15",
        "speed_kmh": 0.00,
        "heading_deg": 259.0,
        "accel": [0.000, 0.000, 0.000],
        "run": 0,
        "outlier": false
      },
      "geometry": { "type": "Point", "coordinates": [-80.137840, 25.774430, -10.0] }
    },
    {
      "type": "Feature",
      "properties": {
        "timestamp": "2026-08-21T11:01:16",
        "speed_kmh": 0.00,
        "heading_deg": 259.0,
        "accel": [0.010, 0.000, 0.010],
        "run": 0,
        "outlier": false
      },
      "geometry": { "type": "Point", "coordinates": [-80.137840, 25.774430, -9.0] }
    },
    {
      "type": "Feature",
      "properties": {
        "timestamp": "2026-08-21T11:01:17",
        "speed_kmh": 0.00,
        "heading_deg": 259.0,
        "accel": [0.020, 0.000, 0.000],
        "run": 0,
        "outlier": false
      },
      "geometry": { "type": "Point", "coordinates": [-80.137840, 25.774430, -8.0] }
    },
    {
      "type": "Feature",
      "properties": {
        "timestamp": "2026-08-21T11:01:18",
        "speed_kmh": 0.00,
        "heading_deg": 259.0,
        "accel": [0.000, 0.000, 0.010],
        "run": 0,
        "outlier": false
      },
      "geometry": { "type": "Point", "coordinates": [-80.137840, 25.774430, -7.0] }
    },
    {
      "type": "Feature",
      "properties": {
        "timestamp": "2026-08-21T11:01:19",
        "speed_kmh": 0.00,
        "heading_deg": 259.0,
        "accel": [0.010, 0.000, 0.000],
        "run": 0,
        "outlier": false
      },
      "geometry": { "type": "Point", "coordinates": [-80.137840, 25.774430, -6.0] }
    },
    {
      "type": "Feature",
      "properties": {
        "timestamp": "2026-08-21T11:01:20",
        "speed_kmh": 0.00,
        "heading_deg": 259.0,
        "accel": [0.020, 0.000, 0.010],
        "run": 0,
        "outlier": false
      },
      "geometry": { "type": "Point", "coordinates": [-80.137840, 25.774430, -10.0] }
    },
    {
      "type": "Feature",
      "properties": {
        "timestamp": "2026-08-21T11:01:21",
        "speed_kmh": 0.00,
        "heading_deg": 259.0,
        "accel": [0.000, 0.000, 0.000],
        "run": 0,
        "outlier": false
      },
      "geometry": { "type": "Point", "coordinates": [-80.137840, 25.774430, -9.0] }
    },
    {
      "type": "Feature",
      "properties": {
        "timestamp": "2026-08-21T11:01:22",
        "speed_kmh": 0.00,
        "heading_deg": 259.0,
        "accel": [0.010, 0.000, 0.010],
        "run": 0,
        "outlier": false
      },
      "geometry": { "type": "Point", "coordinates": [-80.137840, 25.774430, -8.0] }
    },
    {
      "type": "Feature",
      "properties": {
        "timestamp": "2026-08-21T11:01:23",
        "speed_kmh": 0.00,
        "heading_deg": 259.0,
        "accel": [0.020, 0.000, 0.000],
        "run": 0,
        "outlier": false
      },
      "geometry": { "type": "Point", "coordinates": [-80.137840, 25.774430, -7.0] }
    },
    {
      "type": "Feature",
      "properties": {
        "timestamp": "2026-08-21T11:01:24",
        "speed_kmh": 0.00,
        "heading_deg": 259.0,
        "accel": [0.000, 0.000, 0.010],
        "run": 0,
        "outlier": false
      },
      "geometry": { "type": "Point", "coordinates": [-80.137840, 25.774430, -6.0] }
    },
    {
      "type": "Feature",
      "properties": {
        "timestamp": "2026-08-21T11:01:25",
        "speed_kmh": 0.00,
        "heading_deg": 259.0,
        "accel": [0.010, 0.000, 0.000],
        "run": 0,
        "outlier": false
      },
      "geometry": { "type": "Point", "coordinates": [-80.137840, 25.774430, -10.0] }
    },
    {
      "type": "Feature",
      "properties": {
        "timestamp": "2026-08-21T11:01:26",
        "speed_kmh": 0.00,
        "heading_deg": 259.0,
        "accel": [0.020, 0.000, 0.010],
        "run": 0,
        "outlier": false
      },
      "geometry": { "type": "Point", "coordinates": [-80.137840, 25.774430, -9.0] }
    },
    {
      "type": "Feature",
      "properties": {
        "timestamp": "2026-08-21T11:01:27",
        "speed_kmh": 0.00,
        "heading_deg": 259.0,
        "accel": [0.000, 0.000, 0.000],
        "run": 0,
        "outlier": false
      },
      "geometry": { "type": "Point", "coordinates": [-80.137840, 25.774430, -8.0] }
    },
    {
      "type": "Feature",
      "properties": {
        "timestamp": "2026-08-21T11:01:28",
        "speed_kmh": 0.00,
        "heading_deg": 259.0,
        "accel": [0.010, 0.000, 0.010],
        "run": 0,
        "outlier": false
      },
      "geometry": { "type": "Point", "coordinates": [-80.137840, 25.774430, -7.0] }
    },
    {
      "type": "Feature",
      "properties": {
        "timestamp": "2026-08-21T11:01:29",
        "speed_kmh": 0.00,
        "heading_deg": 259.0,
        "accel": [0.020, 0.000, 0.000],
        "run": 0,
        "outlier": false
      },
      "geometry": { "type": "Point", "coordinates": [-80.137840, 25.774430, -6.0] }
    },
    {
      "type": "Feature",
      "properties": {
        "timestamp": "2026-08-21T11:01:30",
        "speed_kmh": 0.00,
        "heading_deg": 259.0,
        "accel": [0.000, 0.000, 0.010],
        "run": 0,
        "outlier": false
      },
      "geometry": { "type": "Point", "coordinates": [-80.137840, 25.774430, -10.0] }
    },
    {
      "type": "Feature",
      "properties": {
        "timestamp": "2026-08-21T11:01:31",
        "speed_kmh": 0.00,
        "heading_deg": 259.0,
        "accel": [0.010, 0.000, 0.000],
        "run": 0,
        "outlier": false
      },
      "geometry": { "type": "Point", "coordinates": [-80.137840, 25.774430, -9.0] }
    },
    {
      "type": "Feature",
      "properties": {
        "timestamp": "2026-08-21T11:01:32",
        "speed_kmh": 0.00,
        "heading_deg": 259.0,
        "accel": [0.020, 0.000, 0.010],
        "run": 0,
        "outlier": false
      },
      "geometry": { "type": "Point", "coordinates": [-80.137840, 25.774430, -8.0] }
    },
    {
      "type": "Feature",
      "properties": {
        "timestamp": "2026-08-21T11:01:33",
        "speed_kmh": 0.00,
        "heading_deg": 259.0,
        "accel": [0.000, 0.000, 0.000],
        "run": 0,
        "outlier": false
      },
      "geometry": { "type": "Point", "coordinates": [-80.137840, 25.774430, -7.0] }
    },
    {
      "type": "Feature",
      "properties": {
        "timestamp": "2026-08-21T11:01:34",
        "speed_kmh": 0.00,
        "heading_deg": 259.0,
        "accel": [0.010, 0.000, 0.010],
        "run": 0,
        "outlier": false
      },
      "geometry": { "type": "Point", "coordinates": [-80.137840, 25.774430, -6.0] }
    },
    {
      "type": "Feature",
      "properties": {
        "timestamp": "2026-08-21T11:01:35",
        "speed_kmh": 0.00,
        "heading_deg": 259.0,
        "accel": [0.020, 0.000, 0.000],
        "run": 0,
        "outlier": false
      },
      "geometry": { "type": "Point", "coordinates": [-80.137840, 25.774430, -10.0] }
    },
    {
      "type": "Feature",
      "properties": {
        "timestamp": "2026-08-21T11:01:36",
        "speed_kmh": 0.00,
        "heading_deg": 259.0,
        "accel": [0.000, 0.000, 0.010],
        "run": 0,
        "outlier": false
      },
      "geometry": { "type": "Point", "coordinates": [-80.137840, 25.774430, -9.0] }
    },
    {
      "type": "Feature",
      "properties": {
        "timestamp": "2026-08-21T11:01:37",
        "speed_kmh": 0.00,
        "heading_deg": 259.0,
        "accel": [0.010, 0.000, 0.000],
        "run": 0,
        "outlier": false
      },
      "geometry": { "type": "Point", "coordinates": [-80.137840, 25.774430, -8.0] }
    },
    {
      "type": "Feature",
      "properties": {
        "timestamp": "2026-08-21T11:01:38",
        "speed_kmh": 0.00,
        "heading_deg": 259.0,
        "accel": [0.020, 0.000, 0.010],
        "run": 0,
        "outlier": false
      },
      "geometry": { "type": "Point", "coordinates": [-80.137840, 25.774430, -7.0] }
    },
    {
      "type": "Feature",
      "properties": {
        "timestamp": "2026-08-21T11:01:39",
        "speed_kmh": 0.00,
        "heading_deg": 259.0,
        "accel": [0.000, 0.000, 0.000],
        "run": 0,
        "outlier": false
      },
      "geometry": { "type": "Point", "coordinates": [-80.137840, 25.774430, -6.0] }
    },
    {
      "type": "Feature",
      "properties": {
        "timestamp": "2026-08-21T11:01:40",
        "speed_kmh": 0.00,
        "heading_deg": 259.0,
        "accel": [0.010, 0.000, 0.010],
        "run": 0,
        "outlier": false
      },
      "geometry": { "type": "Point", "coordinates": [-80.137840, 25.774430, -10.0] }
    },
    {
      "type": "Feature",
      "properties": {
        "timestamp": "2026-08-21T11:01:41",
        "speed_kmh": 0.00,
        "heading_deg": 259.0,
        "accel": [0.020, 0.000, 0.000],
        "run": 0,
        "outlier": false
      },
      "geometry": { "type": "Point", "coordinates": [-80.137840, 25.774430, -9.0] }
    },
    {
      "type": "Feature",
      "properties": {
        "timestamp": "2026-08-21T11:01:42",
        "speed_kmh": 0.00,
        "heading_deg": 259.0,
        "accel": [0.000, 0.000, 0.010],
        "run": 0,
        "outlier": false
      },
      "geometry": { "type": "Point", "coordinates": [-80.137840, 25.774430, -8.0] }
    },
    {
      "type": "Feature",
      "properties": {
        "timestamp": "2026-08-21T11:01:43",
        "speed_kmh": 0.00,
        "heading_deg": 259.0,
        "accel": [0.010, 0.000, 0.000],
        "run": 0,
        "outlier": false
      },
      "geometry": { "type": "Point", "coordinates": [-80.137840, 25.774430, -7.0] }
    },
    {
      "type": "Feature",
      "properties": {
        "timestamp": "2026-08-21T11:01:44",
        "speed_kmh": 0.00,
        "heading_deg": 259.0,
        "accel": [0.020, 0.000, 0.010],
        "run": 0,
        "outlier": false
      },
      "geometry": { "type": "Point", "coordinates": [-80.137840, 25.774430, -6.0] }
    },
    {
      "type": "Feature",
      "properties": {
        "timestamp": "2026-08-21T11:01:45",
        "speed_kmh": 0.00,
        "heading_deg": 259.0,
        "accel": [0.000, 0.000, 0.000],
        "run": 0,
        "outlier": false
      },
      "geometry": { "type": "Point", "coordinates": [-80.137840, 25.774430, -10.0] }
    },
    {
      "type": "Feature",
      "properties": {
        "timestamp": "2026-08-21T11:01:46",
        "speed_kmh": 0.00,
        "heading_deg": 259.0,
        "accel": [0.010, 0.000, 0.010],
        "run": 0,
        "outlier": false
      },
      "geometry": { "type": "Point", "coordinates": [-80.137840, 25.774430, -9.0] }
    },
    {
      "type": "Feature",
      "properties": {
        "timestamp": "2026-08-21T11:01:47",
        "speed_kmh": 0.00,
        "heading_deg": 259.0,
        "accel": [0.020, 0.000, 0.000],
        "run": 0,
        "outlier": false
      },
      "geometry": { "type": "Point", "coordinates": [-80.137840, 25.774430, -8.0] }
    },
    {
      "type": "Feature",
      "properties": {
        "timestamp": "2026-08-21T11:01:48",
        "speed_kmh": 0.00,
        "heading_deg": 259.0,
        "accel": [0.000, 0.000, 0.010],
        "run": 0,
        "outlier": false
      },
      "geometry": { "type": "Point", "coordinates": [-80.137840, 25.774430, -7.0] }
    },
    {
      "type": "Feature",
      "properties": {
        "timestamp": "2026-08-21T11:01:49",
        "speed_kmh": 0.00,
        "heading_deg": 259.0,
        "accel": [0.010, 0.000, 0.000],
        "run": 0,
        "outlier": false
      },
      "geometry": { "type": "Point", "coordinates": [-80.137840, 25.774430, -6.0] }
    },
    {
      "type": "Feature",
      "properties": {
        "timestamp": "2026-08-21T11:01:50",
        "speed_kmh": 0.00,
        "heading_deg": 259.0,
        "accel": [0.020, 0.000, 0.010],
        "run": 0,
        "outlier": false
      },
      "geometry": { "type": "Point", "coordinates": [-80.137840, 25.774430, -10.0] }
    },
    {
      "type": "Feature",
      "properties": {
        "timestamp": "2026-08-21T11:01:51",
        "speed_kmh": 0.00,
        "heading_deg": 259.0,
        "accel": [0.000, 0.000, 0.000],
        "run": 0,
        "outlier": false
      },
      "geometry": { "type": "Point", "coordinates": [-80.137840, 25.774430, -9.0] }
    },
    {
      "type": "Feature",
      "properties": {
        "timestamp": "2026-08-21T11:01:52",
        "speed_kmh": 0.00,
        "heading_deg": 259.0,
        "accel": [0.010, 0.000, 0.010],
        "run": 0,
        "outlier": false
      },
      "geometry": { "type": "Point", "coordinates": [-80.137840, 25.774430, -8.0] }
    },
    {
      "type": "Feature",
      "properties": {
        "timestamp": "2026-08-21T11:01:53",
        "speed_kmh": 0.00,
        "heading_deg": 259.0,
        "accel": [0.020, 0.000, 0.000],
        "run": 0,
        "outlier": false
      },
      "geometry": { "type": "Point", "coordinates": [-80.137840, 25.774430, -7.0] }
    },
    {
      "type": "Feature",
      "properties": {
        "timestamp": "2026-08-21T11:01:54",
        "speed_kmh": 0.00,
        "heading_deg": 259.0,
        "accel": [0.000, 0.000, 0.010],
        "run": 0,
        "outlier": false
      },
      "geometry": { "type": "Point", "coordinates": [-80.137840, 25.774430, -6.0] }
    },
    {
      "type": "Feature",
      "properties": {
        "timestamp": "2026-08-21T11:01:55",
        "speed_kmh": 0.00,
        "heading_deg": 259.0,
        "accel": [0.010, 0.000, 0.000],
        "run": 0,
        "outlier": false
      },
      "geometry": { "type": "Point", "coordinates": [-80.137840, 25.774430, -10.0] }
    },
    {
      "type": "Feature",
      "properties": {
        "timestamp": "2026-08-21T11:01:56",
        "speed_kmh": 0.00,
        "heading_deg": 259.0,
        "accel": [0.020, 0.000, 0.010],
        "run": 0,
        "outlier": false
      },
      "geometry": { "type": "Point", "coordinates": [-80.137840, 25.774430, -9.0] }
    },
    {
      "type": "Feature",
      "properties": {
        "timestamp": "2026-08-21T11:01:57",
        "speed_kmh": 0.00,
        "heading_deg": 259.0,
        "accel": [0.000, 0.000, 0.000],
        "run": 0,
        "outlier": false
      },
      "geometry": { "type": "Point", "coordinates": [-80.137840, 25.774430, -8.0] }
    },
    {
      "type": "Feature",
      "properties": {
        "timestamp": "2026-08-21T11:01:58",
        "speed_kmh": 0.00,
        "heading_deg": 259.0,
        "accel": [0.010, 0.000, 0.010],
        "run": 0,
        "outlier": false
      },
      "geometry": { "type": "Point", "coordinates": [-80.137840, 25.774430, -7.0] }
    },
    {
      "type": "Feature",
      "properties": {
        "timestamp": "2026-08-21T11:01:59",
        "speed_kmh": 0.00,
        "heading_deg": 259.0,
        "accel": [0.020, 0.000, 0.000],
        "run": 0,
        "outlier": false
      },
      "geometry": { "type": "Point", "coordinates": [-80.137840, 25.774430, -6.0] }
    }
  ]
}
