{
  "type": "FeatureCollection",
  "properties": {
    "group": "all",
    "generator": "dashgps 0.1.0",
    "time_is_naive": true
  },
  "features": [
    {
      "type": "Feature",
      "properties": {
        "run": 0,
        "points": 10,
        "distance_km": 0.120,
        "outlier": false,
        "start": "2026-08-13T04:00:00",
        "end": "2026-08-13T04:00:09"
      },
      "geometry": {
        "type": "LineString",
        "coordinates": [
          [-80.137971, 25.774408, -10.0],
          [-80.138102, 25.774386, -9.0],
          [-80.138233, 25.774364, -8.0],
          [-80.138364, 25.774344, -7.0],
          [-80.138495, 25.774323, -6.0],
          [-80.138626, 25.774304, -10.0],
          [-80.138758, 25.774284, -9.0],
          [-80.138889, 25.774265, -8.0],
          [-80.139021, 25.774247, -7.0],
          [-80.139153, 25.774230, -6.0]
        ]
      }
    },
    {
      "type": "Feature",
      "properties": {
        "timestamp": "2026-08-13T04:00:00",
        "speed_kmh": 48.00,
        "heading_deg": 259.2,
        "accel": [0.000, 0.000, 0.010],
        "run": 0,
        "outlier": false
      },
      "geometry": { "type": "Point", "coordinates": [-80.137971, 25.774408, -10.0] }
    },
    {
      "type": "Feature",
      "properties": {
        "timestamp": "2026-08-13T04:00:01",
        "speed_kmh": 48.00,
        "heading_deg": 259.5,
        "accel": [0.010, 0.000, 0.000],
        "run": 0,
        "outlier": false
      },
      "geometry": { "type": "Point", "coordinates": [-80.138102, 25.774386, -9.0] }
    },
    {
      "type": "Feature",
      "properties": {
        "timestamp": "2026-08-13T04:00:02",
        "speed_kmh": 48.00,
        "heading_deg": 259.8,
        "accel": [0.020, 0.000, 0.010],
        "run": 0,
        "outlier": false
      },
      "geometry": { "type": "Point", "coordinates": [-80.138233, 25.774364, -8.0] }
    },
    {
      "type": "Feature",
      "properties": {
        "timestamp": "2026-08-13T04:00:03",
        "speed_kmh": 48.00,
        "heading_deg": 260.0,
        "accel": [0.000, 0.000, 0.000],
        "run": 0,
        "outlier": false
      },
      "geometry": { "type": "Point", "coordinates": [-80.138364, 25.774344, -7.0] }
    },
    {
      "type": "Feature",
      "properties": {
        "timestamp": "2026-08-13T04:00:04",
        "speed_kmh": 48.00,
        "heading_deg": 260.2,
        "accel": [0.010, 0.000, 0.010],
        "run": 0,
        "outlier": false
      },
      "geometry": { "type": "Point", "coordinates": [-80.138495, 25.774323, -6.0] }
    },
    {
      "type": "Feature",
      "properties": {
        "timestamp": "2026-08-13T04:00:05",
        "speed_kmh": 48.00,
        "heading_deg": 260.5,
        "accel": [0.020, 0.000, 0.000],
        "run": 0,
        "outlier": false
      },
      "geometry": { "type": "Point", "coordinates": [-80.138626, 25.774304, -10.0] }
    },
    {
      "type": "Feature",
      "properties": {
        "timestamp": "2026-08-13T04:00:06",
        "speed_kmh": 48.00,
        "heading_deg": 260.8,
        "accel": [0.000, 0.000, 0.010],
        "run": 0,
        "outlier": false
      },
      "geometry": { "type": "Point", "coordinates": [-80.138758, 25.774284, -9.0] }
    },
    {
      "type": "Feature",
      "properties": {
        "timestamp": "2026-08-13T04:00:07",
        "speed_kmh": 48.00,
        "heading_deg": 261.0,
        "accel": [0.010, 0.000, 0.000],
        "run": 0,
        "outlier": false
      },
      "geometry": { "type": "Point", "coordinates": [-80.138889, 25.774265, -8.0] }
    },
    {
      "type": "Feature",
      "properties": {
        "timestamp": "2026-08-13T04:00:08",
        "speed_kmh": 48.00,
        "heading_deg": 261.2,
        "accel": [0.020, 0.000, 0.010],
        "run": 0,
        "outlier": false
      },
      "geometry": { "type": "Point", "coordinates": [-80.139021, 25.774247, -7.0] }
    },
    {
      "type": "Feature",
      "properties": {
        "timestamp": "2026-08-13T04:00:09",
        "speed_kmh": 48.00,
        "heading_deg": 261.5,
        "accel": [0.000, 0.000, 0.000],
        "run": 0,
        "outlier": false
      },
      "geometry": { "type": "Point", "coordinates": [-80.139153, 25.774230, -6.0] }
    }
  ]
}
