<?xml version="1.0" encoding="UTF-8"?>
<gpx version="1.1" creator="dashgps 0.1.0" xmlns="http://www.topografix.com/GPX/1/1" xmlns:dashgps="urn:dashgps:gpx:1">
  <!-- Times are the camera's own clock, which carries no timezone. They are
       written with a Z suffix because GPX requires one, but they are NOT UTC
       unless dashgps was run with --tz-offset. -->
  <metadata>
    <name>all</name>
    <time>2026-08-13T04:00:00Z</time>
  </metadata>
  <trk>
    <name>all</name>
    <trkseg>
      <trkpt lat="25.774408" lon="-80.137971">
        <ele>-10.0</ele>
        <time>2026-08-13T04:00:00Z</time>
        <extensions>
          <dashgps:speed_kmh>48.00</dashgps:speed_kmh>
          <dashgps:heading_deg>259.2</dashgps:heading_deg>
        </extensions>
      </trkpt>
      <trkpt lat="25.774386" lon="-80.138102">
        <ele>-9.0</ele>
        <time>2026-08-13T04:00:01Z</time>
        <extensions>
          <dashgps:speed_kmh>48.00</dashgps:speed_kmh>
          <dashgps:heading_deg>259.5</dashgps:heading_deg>
        </extensions>
      </trkpt>
      <trkpt lat="25.774364" lon="-80.138233">
        <ele>-8.0</ele>
        <time>2026-08-13T04:00:02Z</time>
        <extensions>
          <dashgps:speed_kmh>48.00</dashgps:speed_kmh>
          <dashgps:heading_deg>259.8</dashgps:heading_deg>
        </extensions>
      </trkpt>
      <trkpt lat="25.774344" lon="-80.138364">
        <ele>-7.0</ele>
        <time>2026-08-13T04:00:03Z</time>
        <extensions>
          <dashgps:speed_kmh>48.00</dashgps:speed_kmh>
          <dashgps:heading_deg>260.0</dashgps:heading_deg>
        </extensions>
      </trkpt>
      <trkpt lat="25.774323" lon="-80.138495">
        <ele>-6.0</ele>
        <time>2026-08-13T04:00:04Z</time>
        <extensions>
          <dashgps:speed_kmh>48.00</dashgps:speed_kmh>
          <dashgps:heading_deg>260.2</dashgps:heading_deg>
        </extensions>
      </trkpt>
      <trkpt lat="25.774304" lon="-80.138626">
        <ele>-10.0</ele>
        <time>2026-08-13T04:00:05Z</time>
        <extensions>
          <dashgps:speed_kmh>48.00</dashgps:speed_kmh>
          <dashgps:heading_deg>260.5</dashgps:heading_deg>
        </extensions>
      </trkpt>
      <trkpt lat="25.774284" lon="-80.138758">
        <ele>-9.0</ele>
        <time>2026-08-13T04:00:06Z</time>
        <extensions>
          <dashgps:speed_kmh>48.00</dashgps:speed_kmh>
          <dashgps:heading_deg>260.8</dashgps:heading_deg>
        </extensions>
      </trkpt>
      <trkpt lat="25.774265" lon="-80.138889">
        <ele>-8.0</ele>
        <time>2026-08-13T04:00:07Z</time>
        <extensions>
          <dashgps:speed_kmh>48.00</dashgps:speed_kmh>
          <dashgps:heading_deg>261.0</dashgps:heading_deg>
        </extensions>
      </trkpt>
      <trkpt lat="25.774247" lon="-80.139021">
        <ele>-7.0</ele>
        <time>2026-08-13T04:00:08Z</time>
        <extensions>
          <dashgps:speed_kmh>48.00</dashgps:speed_kmh>
          <dashgps:heading_deg>261.2</dashgps:heading_deg>
        </extensions>
      </trkpt>
      <trkpt lat="25.774230" lon="-80.139153">
        <ele>-6.0</ele>
        <time>2026-08-13T04:00:09Z</time>
        <extensions>
          <dashgps:speed_kmh>48.00</dashgps:speed_kmh>
          <dashgps:heading_deg>261.5</dashgps:heading_deg>
        </extensions>
      </trkpt>
    </trkseg>
  </trk>
</gpx>
