<?xml version="1.0" encoding="UTF-8"?>
<gpx version="1.1" creator="dashgps 0.1.0" xmlns="http://www.topografix.com/GPX/1/1" xmlns:dashgps="https://github.com/dashgps/dashgps/ns/1">
  <!-- Times are the camera's own clock, which carries no timezone. They are
       written with a Z suffix because GPX requires one, but they are NOT UTC
       unless dashgps was run with --tz-offset. -->
  <metadata>
    <name>all</name>
    <time>2026-04-17T01:01:02Z</time>
  </metadata>
  <trk>
    <name>all</name>
    <trkseg>
      <trkpt lat="42.499967" lon="-88.100233">
        <ele>-10.0</ele>
        <time>2026-04-17T01:01:02Z</time>
        <extensions>
          <dashgps:speed_kmh>70.00</dashgps:speed_kmh>
          <dashgps:heading_deg>259.3</dashgps:heading_deg>
        </extensions>
      </trkpt>
      <trkpt lat="42.499936" lon="-88.100466">
        <ele>-9.0</ele>
        <time>2026-04-17T01:01:03Z</time>
        <extensions>
          <dashgps:speed_kmh>70.00</dashgps:speed_kmh>
          <dashgps:heading_deg>259.5</dashgps:heading_deg>
        </extensions>
      </trkpt>
      <trkpt lat="42.499904" lon="-88.100700">
        <ele>-8.0</ele>
        <time>2026-04-17T01:01:04Z</time>
        <extensions>
          <dashgps:speed_kmh>70.00</dashgps:speed_kmh>
          <dashgps:heading_deg>259.8</dashgps:heading_deg>
        </extensions>
      </trkpt>
      <trkpt lat="42.499874" lon="-88.100933">
        <ele>-7.0</ele>
        <time>2026-04-17T01:01:05Z</time>
        <extensions>
          <dashgps:speed_kmh>70.00</dashgps:speed_kmh>
          <dashgps:heading_deg>260.0</dashgps:heading_deg>
        </extensions>
      </trkpt>
      <trkpt lat="42.499844" lon="-88.101167">
        <ele>-6.0</ele>
        <time>2026-04-17T01:01:06Z</time>
        <extensions>
          <dashgps:speed_kmh>70.00</dashgps:speed_kmh>
          <dashgps:heading_deg>260.3</dashgps:heading_deg>
        </extensions>
      </trkpt>
      <trkpt lat="42.499816" lon="-88.101401">
        <ele>-10.0</ele>
        <time>2026-04-17T01:01:07Z</time>
        <extensions>
          <dashgps:speed_kmh>70.00</dashgps:speed_kmh>
          <dashgps:heading_deg>260.5</dashgps:heading_deg>
        </extensions>
      </trkpt>
      <trkpt lat="42.499787" lon="-88.101635">
        <ele>-9.0</ele>
        <time>2026-04-17T01:01:08Z</time>
        <extensions>
          <dashgps:speed_kmh>70.00</dashgps:speed_kmh>
          <dashgps:heading_deg>260.8</dashgps:heading_deg>
        </extensions>
      </trkpt>
      <trkpt lat="42.499760" lon="-88.101869">
        <ele>-8.0</ele>
        <time>2026-04-17T01:01:09Z</time>
        <extensions>
          <dashgps:speed_kmh>70.00</dashgps:speed_kmh>
          <dashgps:heading_deg>261.0</dashgps:heading_deg>
        </extensions>
      </trkpt>
      <trkpt lat="42.499733" lon="-88.102104">
        <ele>-7.0</ele>
        <time>2026-04-17T01:01:10Z</time>
        <extensions>
          <dashgps:speed_kmh>70.00</dashgps:speed_kmh>
          <dashgps:heading_deg>261.3</dashgps:heading_deg>
        </extensions>
      </trkpt>
      <trkpt lat="42.499708" lon="-88.102338">
        <ele>-6.0</ele>
        <time>2026-04-17T01:01:11Z</time>
        <extensions>
          <dashgps:speed_kmh>70.00</dashgps:speed_kmh>
          <dashgps:heading_deg>261.5</dashgps:heading_deg>
        </extensions>
      </trkpt>
      <trkpt lat="42.499683" lon="-88.102573">
        <ele>-10.0</ele>
        <time>2026-04-17T01:01:12Z</time>
        <extensions>
          <dashgps:speed_kmh>70.00</dashgps:speed_kmh>
          <dashgps:heading_deg>261.8</dashgps:heading_deg>
        </extensions>
      </trkpt>
      <trkpt lat="42.499658" lon="-88.102808">
        <ele>-9.0</ele>
        <time>2026-04-17T01:01:13Z</time>
        <extensions>
          <dashgps:speed_kmh>70.00</dashgps:speed_kmh>
          <dashgps:heading_deg>262.0</dashgps:heading_deg>
        </extensions>
      </trkpt>
      <trkpt lat="42.499635" lon="-88.103043">
        <ele>-8.0</ele>
        <time>2026-04-17T01:01:14Z</time>
        <extensions>
          <dashgps:speed_kmh>70.00</dashgps:speed_kmh>
          <dashgps:heading_deg>262.3</dashgps:heading_deg>
        </extensions>
      </trkpt>
      <trkpt lat="42.499612" lon="-88.103278">
        <ele>-7.0</ele>
        <time>2026-04-17T01:01:15Z</time>
        <extensions>
          <dashgps:speed_kmh>70.00</dashgps:speed_kmh>
          <dashgps:heading_deg>262.5</dashgps:heading_deg>
        </extensions>
      </trkpt>
      <trkpt lat="42.499590" lon="-88.103513">
        <ele>-6.0</ele>
        <time>2026-04-17T01:01:16Z</time>
        <extensions>
          <dashgps:speed_kmh>70.00</dashgps:speed_kmh>
          <dashgps:heading_deg>262.8</dashgps:heading_deg>
        </extensions>
      </trkpt>
      <trkpt lat="42.499568" lon="-88.103749">
        <ele>-10.0</ele>
        <time>2026-04-17T01:01:17Z</time>
        <extensions>
          <dashgps:speed_kmh>70.00</dashgps:speed_kmh>
          <dashgps:heading_deg>263.0</dashgps:heading_deg>
        </extensions>
      </trkpt>
      <trkpt lat="42.499548" lon="-88.103984">
        <ele>-9.0</ele>
        <time>2026-04-17T01:01:18Z</time>
        <extensions>
          <dashgps:speed_kmh>70.00</dashgps:speed_kmh>
          <dashgps:heading_deg>263.3</dashgps:heading_deg>
        </extensions>
      </trkpt>
      <trkpt lat="42.499528" lon="-88.104220">
        <ele>-8.0</ele>
        <time>2026-04-17T01:01:19Z</time>
        <extensions>
          <dashgps:speed_kmh>70.00</dashgps:speed_kmh>
          <dashgps:heading_deg>263.5</dashgps:heading_deg>
        </extensions>
      </trkpt>
      <trkpt lat="42.499509" lon="-88.104456">
        <ele>-7.0</ele>
        <time>2026-04-17T01:01:20Z</time>
        <extensions>
          <dashgps:speed_kmh>70.00</dashgps:speed_kmh>
          <dashgps:heading_deg>263.8</dashgps:heading_deg>
        </extensions>
      </trkpt>
      <trkpt lat="42.499491" lon="-88.104692">
        <ele>-6.0</ele>
        <time>2026-04-17T01:01:21Z</time>
        <extensions>
          <dashgps:speed_kmh>70.00</dashgps:speed_kmh>
          <dashgps:heading_deg>264.0</dashgps:heading_deg>
        </extensions>
      </trkpt>
      <trkpt lat="42.499473" lon="-88.104928">
        <ele>-10.0</ele>
        <time>2026-04-17T01:01:22Z</time>
        <extensions>
          <dashgps:speed_kmh>70.00</dashgps:speed_kmh>
          <dashgps:heading_deg>264.3</dashgps:heading_deg>
        </extensions>
      </trkpt>
      <trkpt lat="42.499456" lon="-88.105164">
        <ele>-9.0</ele>
        <time>2026-04-17T01:01:23Z</time>
        <extensions>
          <dashgps:speed_kmh>70.00</dashgps:speed_kmh>
          <dashgps:heading_deg>264.5</dashgps:heading_deg>
        </extensions>
      </trkpt>
      <trkpt lat="42.499440" lon="-88.105400">
        <ele>-8.0</ele>
        <time>2026-04-17T01:01:24Z</time>
        <extensions>
          <dashgps:speed_kmh>70.00</dashgps:speed_kmh>
          <dashgps:heading_deg>264.8</dashgps:heading_deg>
        </extensions>
      </trkpt>
      <trkpt lat="42.499425" lon="-88.105636">
        <ele>-7.0</ele>
        <time>2026-04-17T01:01:25Z</time>
        <extensions>
          <dashgps:speed_kmh>70.00</dashgps:speed_kmh>
          <dashgps:heading_deg>265.0</dashgps:heading_deg>
        </extensions>
      </trkpt>
      <trkpt lat="42.499411" lon="-88.105872">
        <ele>-6.0</ele>
        <time>2026-04-17T01:01:26Z</time>
        <extensions>
          <dashgps:speed_kmh>70.00</dashgps:speed_kmh>
          <dashgps:heading_deg>265.3</dashgps:heading_deg>
        </extensions>
      </trkpt>
      <trkpt lat="42.499397" lon="-88.106109">
        <ele>-10.0</ele>
        <time>2026-04-17T01:01:27Z</time>
        <extensions>
          <dashgps:speed_kmh>70.00</dashgps:speed_kmh>
          <dashgps:heading_deg>265.5</dashgps:heading_deg>
        </extensions>
      </trkpt>
      <trkpt lat="42.499384" lon="-88.106345">
        <ele>-9.0</ele>
        <time>2026-04-17T01:01:28Z</time>
        <extensions>
          <dashgps:speed_kmh>70.00</dashgps:speed_kmh>
          <dashgps:heading_deg>265.8</dashgps:heading_deg>
        </extensions>
      </trkpt>
      <trkpt lat="42.499372" lon="-88.106582">
        <ele>-8.0</ele>
        <time>2026-04-17T01:01:29Z</time>
        <extensions>
          <dashgps:speed_kmh>70.00</dashgps:speed_kmh>
          <dashgps:heading_deg>266.0</dashgps:heading_deg>
        </extensions>
      </trkpt>
      <trkpt lat="42.499360" lon="-88.106819">
        <ele>-7.0</ele>
        <time>2026-04-17T01:01:30Z</time>
        <extensions>
          <dashgps:speed_kmh>70.00</dashgps:speed_kmh>
          <dashgps:heading_deg>266.3</dashgps:heading_deg>
        </extensions>
      </trkpt>
      <trkpt lat="42.499350" lon="-88.107055">
        <ele>-6.0</ele>
        <time>2026-04-17T01:01:31Z</time>
        <extensions>
          <dashgps:speed_kmh>70.00</dashgps:speed_kmh>
          <dashgps:heading_deg>266.5</dashgps:heading_deg>
        </extensions>
      </trkpt>
      <trkpt lat="42.499340" lon="-88.107292">
        <ele>-10.0</ele>
        <time>2026-04-17T01:01:32Z</time>
        <extensions>
          <dashgps:speed_kmh>70.00</dashgps:speed_kmh>
          <dashgps:heading_deg>266.8</dashgps:heading_deg>
        </extensions>
      </trkpt>
      <trkpt lat="42.499331" lon="-88.107529">
        <ele>-9.0</ele>
        <time>2026-04-17T01:01:33Z</time>
        <extensions>
          <dashgps:speed_kmh>70.00</dashgps:speed_kmh>
          <dashgps:heading_deg>267.0</dashgps:heading_deg>
        </extensions>
      </trkpt>
      <trkpt lat="42.499322" lon="-88.107766">
        <ele>-8.0</ele>
        <time>2026-04-17T01:01:34Z</time>
        <extensions>
          <dashgps:speed_kmh>70.00</dashgps:speed_kmh>
          <dashgps:heading_deg>267.3</dashgps:heading_deg>
        </extensions>
      </trkpt>
      <trkpt lat="42.499315" lon="-88.108003">
        <ele>-7.0</ele>
        <time>2026-04-17T01:01:35Z</time>
        <extensions>
          <dashgps:speed_kmh>70.00</dashgps:speed_kmh>
          <dashgps:heading_deg>267.5</dashgps:heading_deg>
        </extensions>
      </trkpt>
      <trkpt lat="42.499308" lon="-88.108240">
        <ele>-6.0</ele>
        <time>2026-04-17T01:01:36Z</time>
        <extensions>
          <dashgps:speed_kmh>70.00</dashgps:speed_kmh>
          <dashgps:heading_deg>267.8</dashgps:heading_deg>
        </extensions>
      </trkpt>
      <trkpt lat="42.499302" lon="-88.108477">
        <ele>-10.0</ele>
        <time>2026-04-17T01:01:37Z</time>
        <extensions>
          <dashgps:speed_kmh>70.00</dashgps:speed_kmh>
          <dashgps:heading_deg>268.0</dashgps:heading_deg>
        </extensions>
      </trkpt>
      <trkpt lat="42.499296" lon="-88.108714">
        <ele>-9.0</ele>
        <time>2026-04-17T01:01:38Z</time>
        <extensions>
          <dashgps:speed_kmh>70.00</dashgps:speed_kmh>
          <dashgps:heading_deg>268.3</dashgps:heading_deg>
        </extensions>
      </trkpt>
      <trkpt lat="42.499292" lon="-88.108951">
        <ele>-8.0</ele>
        <time>2026-04-17T01:01:39Z</time>
        <extensions>
          <dashgps:speed_kmh>70.00</dashgps:speed_kmh>
          <dashgps:heading_deg>268.5</dashgps:heading_deg>
        </extensions>
      </trkpt>
      <trkpt lat="42.499288" lon="-88.109188">
        <ele>-7.0</ele>
        <time>2026-04-17T01:01:40Z</time>
        <extensions>
          <dashgps:speed_kmh>70.00</dashgps:speed_kmh>
          <dashgps:heading_deg>268.8</dashgps:heading_deg>
        </extensions>
      </trkpt>
      <trkpt lat="42.499285" lon="-88.109425">
        <ele>-6.0</ele>
        <time>2026-04-17T01:01:41Z</time>
        <extensions>
          <dashgps:speed_kmh>70.00</dashgps:speed_kmh>
          <dashgps:heading_deg>269.0</dashgps:heading_deg>
        </extensions>
      </trkpt>
      <trkpt lat="42.499283" lon="-88.109663">
        <ele>-10.0</ele>
        <time>2026-04-17T01:01:42Z</time>
        <extensions>
          <dashgps:speed_kmh>70.00</dashgps:speed_kmh>
          <dashgps:heading_deg>269.3</dashgps:heading_deg>
        </extensions>
      </trkpt>
      <trkpt lat="42.499281" lon="-88.109900">
        <ele>-9.0</ele>
        <time>2026-04-17T01:01:43Z</time>
        <extensions>
          <dashgps:speed_kmh>70.00</dashgps:speed_kmh>
          <dashgps:heading_deg>269.5</dashgps:heading_deg>
        </extensions>
      </trkpt>
      <trkpt lat="42.499280" lon="-88.110137">
        <ele>-8.0</ele>
        <time>2026-04-17T01:01:44Z</time>
        <extensions>
          <dashgps:speed_kmh>70.00</dashgps:speed_kmh>
          <dashgps:heading_deg>269.8</dashgps:heading_deg>
        </extensions>
      </trkpt>
      <trkpt lat="42.499280" lon="-88.110374">
        <ele>-7.0</ele>
        <time>2026-04-17T01:01:45Z</time>
        <extensions>
          <dashgps:speed_kmh>70.00</dashgps:speed_kmh>
          <dashgps:heading_deg>270.0</dashgps:heading_deg>
        </extensions>
      </trkpt>
      <trkpt lat="42.499281" lon="-88.110611">
        <ele>-6.0</ele>
        <time>2026-04-17T01:01:46Z</time>
        <extensions>
          <dashgps:speed_kmh>70.00</dashgps:speed_kmh>
          <dashgps:heading_deg>270.3</dashgps:heading_deg>
        </extensions>
      </trkpt>
      <trkpt lat="42.499283" lon="-88.110848">
        <ele>-10.0</ele>
        <time>2026-04-17T01:01:47Z</time>
        <extensions>
          <dashgps:speed_kmh>70.00</dashgps:speed_kmh>
          <dashgps:heading_deg>270.5</dashgps:heading_deg>
        </extensions>
      </trkpt>
      <trkpt lat="42.499285" lon="-88.111086">
        <ele>-9.0</ele>
        <time>2026-04-17T01:01:48Z</time>
        <extensions>
          <dashgps:speed_kmh>70.00</dashgps:speed_kmh>
          <dashgps:heading_deg>270.8</dashgps:heading_deg>
        </extensions>
      </trkpt>
      <trkpt lat="42.499288" lon="-88.111323">
        <ele>-8.0</ele>
        <time>2026-04-17T01:01:49Z</time>
        <extensions>
          <dashgps:speed_kmh>70.00</dashgps:speed_kmh>
          <dashgps:heading_deg>271.0</dashgps:heading_deg>
        </extensions>
      </trkpt>
      <trkpt lat="42.499292" lon="-88.111560">
        <ele>-7.0</ele>
        <time>2026-04-17T01:01:50Z</time>
        <extensions>
          <dashgps:speed_kmh>70.00</dashgps:speed_kmh>
          <dashgps:heading_deg>271.3</dashgps:heading_deg>
        </extensions>
      </trkpt>
      <trkpt lat="42.499296" lon="-88.111797">
        <ele>-6.0</ele>
        <time>2026-04-17T01:01:51Z</time>
        <extensions>
          <dashgps:speed_kmh>70.00</dashgps:speed_kmh>
          <dashgps:heading_deg>271.5</dashgps:heading_deg>
        </extensions>
      </trkpt>
      <trkpt lat="42.499302" lon="-88.112034">
        <ele>-10.0</ele>
        <time>2026-04-17T01:01:52Z</time>
        <extensions>
          <dashgps:speed_kmh>70.00</dashgps:speed_kmh>
          <dashgps:heading_deg>271.8</dashgps:heading_deg>
        </extensions>
      </trkpt>
      <trkpt lat="42.499308" lon="-88.112271">
        <ele>-9.0</ele>
        <time>2026-04-17T01:01:53Z</time>
        <extensions>
          <dashgps:speed_kmh>70.00</dashgps:speed_kmh>
          <dashgps:heading_deg>272.0</dashgps:heading_deg>
        </extensions>
      </trkpt>
      <trkpt lat="42.499315" lon="-88.112508">
        <ele>-8.0</ele>
        <time>2026-04-17T01:01:54Z</time>
        <extensions>
          <dashgps:speed_kmh>70.00</dashgps:speed_kmh>
          <dashgps:heading_deg>272.3</dashgps:heading_deg>
        </extensions>
      </trkpt>
      <trkpt lat="42.499322" lon="-88.112745">
        <ele>-7.0</ele>
        <time>2026-04-17T01:01:55Z</time>
        <extensions>
          <dashgps:speed_kmh>70.00</dashgps:speed_kmh>
          <dashgps:heading_deg>272.5</dashgps:heading_deg>
        </extensions>
      </trkpt>
      <trkpt lat="42.499331" lon="-88.112982">
        <ele>-6.0</ele>
        <time>2026-04-17T01:01:56Z</time>
        <extensions>
          <dashgps:speed_kmh>70.00</dashgps:speed_kmh>
          <dashgps:heading_deg>272.8</dashgps:heading_deg>
        </extensions>
      </trkpt>
      <trkpt lat="42.499340" lon="-88.113219">
        <ele>-10.0</ele>
        <time>2026-04-17T01:01:57Z</time>
        <extensions>
          <dashgps:speed_kmh>70.00</dashgps:speed_kmh>
          <dashgps:heading_deg>273.0</dashgps:heading_deg>
        </extensions>
      </trkpt>
      <trkpt lat="42.499350" lon="-88.113456">
        <ele>-9.0</ele>
        <time>2026-04-17T01:01:58Z</time>
        <extensions>
          <dashgps:speed_kmh>70.00</dashgps:speed_kmh>
          <dashgps:heading_deg>273.3</dashgps:heading_deg>
        </extensions>
      </trkpt>
      <trkpt lat="42.499360" lon="-88.113692">
        <ele>-8.0</ele>
        <time>2026-04-17T01:01:59Z</time>
        <extensions>
          <dashgps:speed_kmh>70.00</dashgps:speed_kmh>
          <dashgps:heading_deg>273.5</dashgps:heading_deg>
        </extensions>
      </trkpt>
      <trkpt lat="42.499372" lon="-88.113929">
        <ele>-7.0</ele>
        <time>2026-04-17T01:02:00Z</time>
        <extensions>
          <dashgps:speed_kmh>70.00</dashgps:speed_kmh>
          <dashgps:heading_deg>273.8</dashgps:heading_deg>
        </extensions>
      </trkpt>
      <trkpt lat="42.499384" lon="-88.114166">
        <ele>-6.0</ele>
        <time>2026-04-17T01:02:01Z</time>
        <extensions>
          <dashgps:speed_kmh>70.00</dashgps:speed_kmh>
          <dashgps:heading_deg>274.0</dashgps:heading_deg>
        </extensions>
      </trkpt>
    </trkseg>
  </trk>
</gpx>
