{
  "type": "FeatureCollection",
  "properties": {
    "group": "all",
    "generator": "dashgps 0.1.0",
    "time_is_naive": true
  },
  "features": [
    {
      "type": "Feature",
      "properties": {
        "run": 0,
        "points": 60,
        "distance_km": 1.147,
        "outlier": false,
        "start": "2026-04-17T01:01:02",
        "end": "2026-04-17T01:02:01"
      },
      "geometry": {
        "type": "LineString",
        "coordinates": [
          [-88.100233, 42.499967, -10.0],
          [-88.100466, 42.499936, -9.0],
          [-88.100700, 42.499904, -8.0],
          [-88.100933, 42.499874, -7.0],
          [-88.101167, 42.499844, -6.0],
          [-88.101401, 42.499816, -10.0],
          [-88.101635, 42.499787, -9.0],
          [-88.101869, 42.499760, -8.0],
          [-88.102104, 42.499733, -7.0],
          [-88.102338, 42.499708, -6.0],
          [-88.102573, 42.499683, -10.0],
          [-88.102808, 42.499658, -9.0],
          [-88.103043, 42.499635, -8.0],
          [-88.103278, 42.499612, -7.0],
          [-88.103513, 42.499590, -6.0],
          [-88.103749, 42.499568, -10.0],
          [-88.103984, 42.499548, -9.0],
          [-88.104220, 42.499528, -8.0],
          [-88.104456, 42.499509, -7.0],
          [-88.104692, 42.499491, -6.0],
          [-88.104928, 42.499473, -10.0],
          [-88.105164, 42.499456, -9.0],
          [-88.105400, 42.499440, -8.0],
          [-88.105636, 42.499425, -7.0],
          [-88.105872, 42.499411, -6.0],
          [-88.106109, 42.499397, -10.0],
          [-88.106345, 42.499384, -9.0],
          [-88.106582, 42.499372, -8.0],
          [-88.106819, 42.499360, -7.0],
          [-88.107055, 42.499350, -6.0],
          [-88.107292, 42.499340, -10.0],
          [-88.107529, 42.499331, -9.0],
          [-88.107766, 42.499322, -8.0],
          [-88.108003, 42.499315, -7.0],
          [-88.108240, 42.499308, -6.0],
          [-88.108477, 42.499302, -10.0],
          [-88.108714, 42.499296, -9.0],
          [-88.108951, 42.499292, -8.0],
          [-88.109188, 42.499288, -7.0],
          [-88.109425, 42.499285, -6.0],
          [-88.109663, 42.499283, -10.0],
          [-88.109900, 42.499281, -9.0],
          [-88.110137, 42.499280, -8.0],
          [-88.110374, 42.499280, -7.0],
          [-88.110611, 42.499281, -6.0],
          [-88.110848, 42.499283, -10.0],
          [-88.111086, 42.499285, -9.0],
          [-88.111323, 42.499288, -8.0],
          [-88.111560, 42.499292, -7.0],
          [-88.111797, 42.499296, -6.0],
          [-88.112034, 42.499302, -10.0],
          [-88.112271, 42.499308, -9.0],
          [-88.112508, 42.499315, -8.0],
          [-88.112745, 42.499322, -7.0],
          [-88.112982, 42.499331, -6.0],
          [-88.113219, 42.499340, -10.0],
          [-88.113456, 42.499350, -9.0],
          [-88.113692, 42.499360, -8.0],
          [-88.113929, 42.499372, -7.0],
          [-88.114166, 42.499384, -6.0]
        ]
      }
    },
    {
      "type": "Feature",
      "properties": {
        "timestamp": "2026-04-17T01:01:02",
        "speed_kmh": 70.00,
        "heading_deg": 259.3,
        "accel": [0.000, 0.000, 0.010],
        "run": 0,
        "outlier": false
      },
      "geometry": { "type": "Point", "coordinates": [-88.100233, 42.499967, -10.0] }
    },
    {
      "type": "Feature",
      "properties": {
        "timestamp": "2026-04-17T01:01:03",
        "speed_kmh": 70.00,
        "heading_deg": 259.5,
        "accel": [0.010, 0.000, 0.000],
        "run": 0,
        "outlier": false
      },
      "geometry": { "type": "Point", "coordinates": [-88.100466, 42.499936, -9.0] }
    },
    {
      "type": "Feature",
      "properties": {
        "timestamp": "2026-04-17T01:01:04",
        "speed_kmh": 70.00,
        "heading_deg": 259.8,
        "accel": [0.020, 0.000, 0.010],
        "run": 0,
        "outlier": false
      },
      "geometry": { "type": "Point", "coordinates": [-88.100700, 42.499904, -8.0] }
    },
    {
      "type": "Feature",
      "properties": {
        "timestamp": "2026-04-17T01:01:05",
        "speed_kmh": 70.00,
        "heading_deg": 260.0,
        "accel": [0.000, 0.000, 0.000],
        "run": 0,
        "outlier": false
      },
      "geometry": { "type": "Point", "coordinates": [-88.100933, 42.499874, -7.0] }
    },
    {
      "type": "Feature",
      "properties": {
        "timestamp": "2026-04-17T01:01:06",
        "speed_kmh": 70.00,
        "heading_deg": 260.3,
        "accel": [0.010, 0.000, 0.010],
        "run": 0,
        "outlier": false
      },
      "geometry": { "type": "Point", "coordinates": [-88.101167, 42.499844, -6.0] }
    },
    {
      "type": "Feature",
      "properties": {
        "timestamp": "2026-04-17T01:01:07",
        "speed_kmh": 70.00,
        "heading_deg": 260.5,
        "accel": [0.020, 0.000, 0.000],
        "run": 0,
        "outlier": false
      },
      "geometry": { "type": "Point", "coordinates": [-88.101401, 42.499816, -10.0] }
    },
    {
      "type": "Feature",
      "properties": {
        "timestamp": "2026-04-17T01:01:08",
        "speed_kmh": 70.00,
        "heading_deg": 260.8,
        "accel": [0.000, 0.000, 0.010],
        "run": 0,
        "outlier": false
      },
      "geometry": { "type": "Point", "coordinates": [-88.101635, 42.499787, -9.0] }
    },
    {
      "type": "Feature",
      "properties": {
        "timestamp": "2026-04-17T01:01:09",
        "speed_kmh": 70.00,
        "heading_deg": 261.0,
        "accel": [0.010, 0.000, 0.000],
        "run": 0,
        "outlier": false
      },
      "geometry": { "type": "Point", "coordinates": [-88.101869, 42.499760, -8.0] }
    },
    {
      "type": "Feature",
      "properties": {
        "timestamp": "2026-04-17T01:01:10",
        "speed_kmh": 70.00,
        "heading_deg": 261.3,
        "accel": [0.020, 0.000, 0.010],
        "run": 0,
        "outlier": false
      },
      "geometry": { "type": "Point", "coordinates": [-88.102104, 42.499733, -7.0] }
    },
    {
      "type": "Feature",
      "properties": {
        "timestamp": "2026-04-17T01:01:11",
        "speed_kmh": 70.00,
        "heading_deg": 261.5,
        "accel": [0.000, 0.000, 0.000],
        "run": 0,
        "outlier": false
      },
      "geometry": { "type": "Point", "coordinates": [-88.102338, 42.499708, -6.0] }
    },
    {
      "type": "Feature",
      "properties": {
        "timestamp": "2026-04-17T01:01:12",
        "speed_kmh": 70.00,
        "heading_deg": 261.8,
        "accel": [0.010, 0.000, 0.010],
        "run": 0,
        "outlier": false
      },
      "geometry": { "type": "Point", "coordinates": [-88.102573, 42.499683, -10.0] }
    },
    {
      "type": "Feature",
      "properties": {
        "timestamp": "2026-04-17T01:01:13",
        "speed_kmh": 70.00,
        "heading_deg": 262.0,
        "accel": [0.020, 0.000, 0.000],
        "run": 0,
        "outlier": false
      },
      "geometry": { "type": "Point", "coordinates": [-88.102808, 42.499658, -9.0] }
    },
    {
      "type": "Feature",
      "properties": {
        "timestamp": "2026-04-17T01:01:14",
        "speed_kmh": 70.00,
        "heading_deg": 262.3,
        "accel": [0.000, 0.000, 0.010],
        "run": 0,
        "outlier": false
      },
      "geometry": { "type": "Point", "coordinates": [-88.103043, 42.499635, -8.0] }
    },
    {
      "type": "Feature",
      "properties": {
        "timestamp": "2026-04-17T01:01:15",
        "speed_kmh": 70.00,
        "heading_deg": 262.5,
        "accel": [0.010, 0.000, 0.000],
        "run": 0,
        "outlier": false
      },
      "geometry": { "type": "Point", "coordinates": [-88.103278, 42.499612, -7.0] }
    },
    {
      "type": "Feature",
      "properties": {
        "timestamp": "2026-04-17T01:01:16",
        "speed_kmh": 70.00,
        "heading_deg": 262.8,
        "accel": [0.020, 0.000, 0.010],
        "run": 0,
        "outlier": false
      },
      "geometry": { "type": "Point", "coordinates": [-88.103513, 42.499590, -6.0] }
    },
    {
      "type": "Feature",
      "properties": {
        "timestamp": "2026-04-17T01:01:17",
        "speed_kmh": 70.00,
        "heading_deg": 263.0,
        "accel": [0.000, 0.000, 0.000],
        "run": 0,
        "outlier": false
      },
      "geometry": { "type": "Point", "coordinates": [-88.103749, 42.499568, -10.0] }
    },
    {
      "type": "Feature",
      "properties": {
        "timestamp": "2026-04-17T01:01:18",
        "speed_kmh": 70.00,
        "heading_deg": 263.3,
        "accel": [0.010, 0.000, 0.010],
        "run": 0,
        "outlier": false
      },
      "geometry": { "type": "Point", "coordinates": [-88.103984, 42.499548, -9.0] }
    },
    {
      "type": "Feature",
      "properties": {
        "timestamp": "2026-04-17T01:01:19",
        "speed_kmh": 70.00,
        "heading_deg": 263.5,
        "accel": [0.020, 0.000, 0.000],
        "run": 0,
        "outlier": false
      },
      "geometry": { "type": "Point", "coordinates": [-88.104220, 42.499528, -8.0] }
    },
    {
      "type": "Feature",
      "properties": {
        "timestamp": "2026-04-17T01:01:20",
        "speed_kmh": 70.00,
        "heading_deg": 263.8,
        "accel": [0.000, 0.000, 0.010],
        "run": 0,
        "outlier": false
      },
      "geometry": { "type": "Point", "coordinates": [-88.104456, 42.499509, -7.0] }
    },
    {
      "type": "Feature",
      "properties": {
        "timestamp": "2026-04-17T01:01:21",
        "speed_kmh": 70.00,
        "heading_deg": 264.0,
        "accel": [0.010, 0.000, 0.000],
        "run": 0,
        "outlier": false
      },
      "geometry": { "type": "Point", "coordinates": [-88.104692, 42.499491, -6.0] }
    },
    {
      "type": "Feature",
      "properties": {
        "timestamp": "2026-04-17T01:01:22",
        "speed_kmh": 70.00,
        "heading_deg": 264.3,
        "accel": [0.020, 0.000, 0.010],
        "run": 0,
        "outlier": false
      },
      "geometry": { "type": "Point", "coordinates": [-88.104928, 42.499473, -10.0] }
    },
    {
      "type": "Feature",
      "properties": {
        "timestamp": "2026-04-17T01:01:23",
        "speed_kmh": 70.00,
        "heading_deg": 264.5,
        "accel": [0.000, 0.000, 0.000],
        "run": 0,
        "outlier": false
      },
      "geometry": { "type": "Point", "coordinates": [-88.105164, 42.499456, -9.0] }
    },
    {
      "type": "Feature",
      "properties": {
        "timestamp": "2026-04-17T01:01:24",
        "speed_kmh": 70.00,
        "heading_deg": 264.8,
        "accel": [0.010, 0.000, 0.010],
        "run": 0,
        "outlier": false
      },
      "geometry": { "type": "Point", "coordinates": [-88.105400, 42.499440, -8.0] }
    },
    {
      "type": "Feature",
      "properties": {
        "timestamp": "2026-04-17T01:01:25",
        "speed_kmh": 70.00,
        "heading_deg": 265.0,
        "accel": [0.020, 0.000, 0.000],
        "run": 0,
        "outlier": false
      },
      "geometry": { "type": "Point", "coordinates": [-88.105636, 42.499425, -7.0] }
    },
    {
      "type": "Feature",
      "properties": {
        "timestamp": "2026-04-17T01:01:26",
        "speed_kmh": 70.00,
        "heading_deg": 265.3,
        "accel": [0.000, 0.000, 0.010],
        "run": 0,
        "outlier": false
      },
      "geometry": { "type": "Point", "coordinates": [-88.105872, 42.499411, -6.0] }
    },
    {
      "type": "Feature",
      "properties": {
        "timestamp": "2026-04-17T01:01:27",
        "speed_kmh": 70.00,
        "heading_deg": 265.5,
        "accel": [0.010, 0.000, 0.000],
        "run": 0,
        "outlier": false
      },
      "geometry": { "type": "Point", "coordinates": [-88.106109, 42.499397, -10.0] }
    },
    {
      "type": "Feature",
      "properties": {
        "timestamp": "2026-04-17T01:01:28",
        "speed_kmh": 70.00,
        "heading_deg": 265.8,
        "accel": [0.020, 0.000, 0.010],
        "run": 0,
        "outlier": false
      },
      "geometry": { "type": "Point", "coordinates": [-88.106345, 42.499384, -9.0] }
    },
    {
      "type": "Feature",
      "properties": {
        "timestamp": "2026-04-17T01:01:29",
        "speed_kmh": 70.00,
        "heading_deg": 266.0,
        "accel": [0.000, 0.000, 0.000],
        "run": 0,
        "outlier": false
      },
      "geometry": { "type": "Point", "coordinates": [-88.106582, 42.499372, -8.0] }
    },
    {
      "type": "Feature",
      "properties": {
        "timestamp": "2026-04-17T01:01:30",
        "speed_kmh": 70.00,
        "heading_deg": 266.3,
        "accel": [0.010, 0.000, 0.010],
        "run": 0,
        "outlier": false
      },
      "geometry": { "type": "Point", "coordinates": [-88.106819, 42.499360, -7.0] }
    },
    {
      "type": "Feature",
      "properties": {
        "timestamp": "2026-04-17T01:01:31",
        "speed_kmh": 70.00,
        "heading_deg": 266.5,
        "accel": [0.020, 0.000, 0.000],
        "run": 0,
        "outlier": false
      },
      "geometry": { "type": "Point", "coordinates": [-88.107055, 42.499350, -6.0] }
    },
    {
      "type": "Feature",
      "properties": {
        "timestamp": "2026-04-17T01:01:32",
        "speed_kmh": 70.00,
        "heading_deg": 266.8,
        "accel": [0.000, 0.000, 0.010],
        "run": 0,
        "outlier": false
      },
      "geometry": { "type": "Point", "coordinates": [-88.107292, 42.499340, -10.0] }
    },
    {
      "type": "Feature",
      "properties": {
        "timestamp": "2026-04-17T01:01:33",
        "speed_kmh": 70.00,
        "heading_deg": 267.0,
        "accel": [0.010, 0.000, 0.000],
        "run": 0,
        "outlier": false
      },
      "geometry": { "type": "Point", "coordinates": [-88.107529, 42.499331, -9.0] }
    },
    {
      "type": "Feature",
      "properties": {
        "timestamp": "2026-04-17T01:01:34",
        "speed_kmh": 70.00,
        "heading_deg": 267.3,
        "accel": [0.020, 0.000, 0.010],
        "run": 0,
        "outlier": false
      },
      "geometry": { "type": "Point", "coordinates": [-88.107766, 42.499322, -8.0] }
    },
    {
      "type": "Feature",
      "properties": {
        "timestamp": "2026-04-17T01:01:35",
        "speed_kmh": 70.00,
        "heading_deg": 267.5,
        "accel": [0.000, 0.000, 0.000],
        "run": 0,
        "outlier": false
      },
      "geometry": { "type": "Point", "coordinates": [-88.108003, 42.499315, -7.0] }
    },
    {
      "type": "Feature",
      "properties": {
        "timestamp": "2026-04-17T01:01:36",
        "speed_kmh": 70.00,
        "heading_deg": 267.8,
        "accel": [0.010, 0.000, 0.010],
        "run": 0,
        "outlier": false
      },
      "geometry": { "type": "Point", "coordinates": [-88.108240, 42.499308, -6.0] }
    },
    {
      "type": "Feature",
      "properties": {
        "timestamp": "2026-04-17T01:01:37",
        "speed_kmh": 70.00,
        "heading_deg": 268.0,
        "accel": [0.020, 0.000, 0.000],
        "run": 0,
        "outlier": false
      },
      "geometry": { "type": "Point", "coordinates": [-88.108477, 42.499302, -10.0] }
    },
    {
      "type": "Feature",
      "properties": {
        "timestamp": "2026-04-17T01:01:38",
        "speed_kmh": 70.00,
        "heading_deg": 268.3,
        "accel": [0.000, 0.000, 0.010],
        "run": 0,
        "outlier": false
      },
      "geometry": { "type": "Point", "coordinates": [-88.108714, 42.499296, -9.0] }
    },
    {
      "type": "Feature",
      "properties": {
        "timestamp": "2026-04-17T01:01:39",
        "speed_kmh": 70.00,
        "heading_deg": 268.5,
        "accel": [0.010, 0.000, 0.000],
        "run": 0,
        "outlier": false
      },
      "geometry": { "type": "Point", "coordinates": [-88.108951, 42.499292, -8.0] }
    },
    {
      "type": "Feature",
      "properties": {
        "timestamp": "2026-04-17T01:01:40",
        "speed_kmh": 70.00,
        "heading_deg": 268.8,
        "accel": [0.020, 0.000, 0.010],
        "run": 0,
        "outlier": false
      },
      "geometry": { "type": "Point", "coordinates": [-88.109188, 42.499288, -7.0] }
    },
    {
      "type": "Feature",
      "properties": {
        "timestamp": "2026-04-17T01:01:41",
        "speed_kmh": 70.00,
        "heading_deg": 269.0,
        "accel": [0.000, 0.000, 0.000],
        "run": 0,
        "outlier": false
      },
      "geometry": { "type": "Point", "coordinates": [-88.109425, 42.499285, -6.0] }
    },
    {
      "type": "Feature",
      "properties": {
        "timestamp": "2026-04-17T01:01:42",
        "speed_kmh": 70.00,
        "heading_deg": 269.3,
        "accel": [0.010, 0.000, 0.010],
        "run": 0,
        "outlier": false
      },
      "geometry": { "type": "Point", "coordinates": [-88.109663, 42.499283, -10.0] }
    },
    {
      "type": "Feature",
      "properties": {
        "timestamp": "2026-04-17T01:01:43",
        "speed_kmh": 70.00,
        "heading_deg": 269.5,
        "accel": [0.020, 0.000, 0.000],
        "run": 0,
        "outlier": false
      },
      "geometry": { "type": "Point", "coordinates": [-88.109900, 42.499281, -9.0] }
    },
    {
      "type": "Feature",
      "properties": {
        "timestamp": "2026-04-17T01:01:44",
        "speed_kmh": 70.00,
        "heading_deg": 269.8,
        "accel": [0.000, 0.000, 0.010],
        "run": 0,
        "outlier": false
      },
      "geometry": { "type": "Point", "coordinates": [-88.110137, 42.499280, -8.0] }
    },
    {
      "type": "Feature",
      "properties": {
        "timestamp": "2026-04-17T01:01:45",
        "speed_kmh": 70.00,
        "heading_deg": 270.0,
        "accel": [0.010, 0.000, 0.000],
        "run": 0,
        "outlier": false
      },
      "geometry": { "type": "Point", "coordinates": [-88.110374, 42.499280, -7.0] }
    },
    {
      "type": "Feature",
      "properties": {
        "timestamp": "2026-04-17T01:01:46",
        "speed_kmh": 70.00,
        "heading_deg": 270.3,
        "accel": [0.020, 0.000, 0.010],
        "run": 0,
        "outlier": false
      },
      "geometry": { "type": "Point", "coordinates": [-88.110611, 42.499281, -6.0] }
    },
    {
      "type": "Feature",
      "properties": {
        "timestamp": "2026-04-17T01:01:47",
        "speed_kmh": 70.00,
        "heading_deg": 270.5,
        "accel": [0.000, 0.000, 0.000],
        "run": 0,
        "outlier": false
      },
      "geometry": { "type": "Point", "coordinates": [-88.110848, 42.499283, -10.0] }
    },
    {
      "type": "Feature",
      "properties": {
        "timestamp": "2026-04-17T01:01:48",
        "speed_kmh": 70.00,
        "heading_deg": 270.8,
        "accel": [0.010, 0.000, 0.010],
        "run": 0,
        "outlier": false
      },
      "geometry": { "type": "Point", "coordinates": [-88.111086, 42.499285, -9.0] }
    },
    {
      "type": "Feature",
      "properties": {
        "timestamp": "2026-04-17T01:01:49",
        "speed_kmh": 70.00,
        "heading_deg": 271.0,
        "accel": [0.020, 0.000, 0.000],
        "run": 0,
        "outlier": false
      },
      "geometry": { "type": "Point", "coordinates": [-88.111323, 42.499288, -8.0] }
    },
    {
      "type": "Feature",
      "properties": {
        "timestamp": "2026-04-17T01:01:50",
        "speed_kmh": 70.00,
        "heading_deg": 271.3,
        "accel": [0.000, 0.000, 0.010],
        "run": 0,
        "outlier": false
      },
      "geometry": { "type": "Point", "coordinates": [-88.111560, 42.499292, -7.0] }
    },
    {
      "type": "Feature",
      "properties": {
        "timestamp": "2026-04-17T01:01:51",
        "speed_kmh": 70.00,
        "heading_deg": 271.5,
        "accel": [0.010, 0.000, 0.000],
        "run": 0,
        "outlier": false
      },
      "geometry": { "type": "Point", "coordinates": [-88.111797, 42.499296, -6.0] }
    },
    {
      "type": "Feature",
      "properties": {
        "timestamp": "2026-04-17T01:01:52",
        "speed_kmh": 70.00,
        "heading_deg": 271.8,
        "accel": [0.020, 0.000, 0.010],
        "run": 0,
        "outlier": false
      },
      "geometry": { "type": "Point", "coordinates": [-88.112034, 42.499302, -10.0] }
    },
    {
      "type": "Feature",
      "properties": {
        "timestamp": "2026-04-17T01:01:53",
        "speed_kmh": 70.00,
        "heading_deg": 272.0,
        "accel": [0.000, 0.000, 0.000],
        "run": 0,
        "outlier": false
      },
      "geometry": { "type": "Point", "coordinates": [-88.112271, 42.499308, -9.0] }
    },
    {
      "type": "Feature",
      "properties": {
        "timestamp": "2026-04-17T01:01:54",
        "speed_kmh": 70.00,
        "heading_deg": 272.3,
        "accel": [0.010, 0.000, 0.010],
        "run": 0,
        "outlier": false
      },
      "geometry": { "type": "Point", "coordinates": [-88.112508, 42.499315, -8.0] }
    },
    {
      "type": "Feature",
      "properties": {
        "timestamp": "2026-04-17T01:01:55",
        "speed_kmh": 70.00,
        "heading_deg": 272.5,
        "accel": [0.020, 0.000, 0.000],
        "run": 0,
        "outlier": false
      },
      "geometry": { "type": "Point", "coordinates": [-88.112745, 42.499322, -7.0] }
    },
    {
      "type": "Feature",
      "properties": {
        "timestamp": "2026-04-17T01:01:56",
        "speed_kmh": 70.00,
        "heading_deg": 272.8,
        "accel": [0.000, 0.000, 0.010],
        "run": 0,
        "outlier": false
      },
      "geometry": { "type": "Point", "coordinates": [-88.112982, 42.499331, -6.0] }
    },
    {
      "type": "Feature",
      "properties": {
        "timestamp": "2026-04-17T01:01:57",
        "speed_kmh": 70.00,
        "heading_deg": 273.0,
        "accel": [0.010, 0.000, 0.000],
        "run": 0,
        "outlier": false
      },
      "geometry": { "type": "Point", "coordinates": [-88.113219, 42.499340, -10.0] }
    },
    {
      "type": "Feature",
      "properties": {
        "timestamp": "2026-04-17T01:01:58",
        "speed_kmh": 70.00,
        "heading_deg": 273.3,
        "accel": [0.020, 0.000, 0.010],
        "run": 0,
        "outlier": false
      },
      "geometry": { "type": "Point", "coordinates": [-88.113456, 42.499350, -9.0] }
    },
    {
      "type": "Feature",
      "properties": {
        "timestamp": "2026-04-17T01:01:59",
        "speed_kmh": 70.00,
        "heading_deg": 273.5,
        "accel": [0.000, 0.000, 0.000],
        "run": 0,
        "outlier": false
      },
      "geometry": { "type": "Point", "coordinates": [-88.113692, 42.499360, -8.0] }
    },
    {
      "type": "Feature",
      "properties": {
        "timestamp": "2026-04-17T01:02:00",
        "speed_kmh": 70.00,
        "heading_deg": 273.8,
        "accel": [0.010, 0.000, 0.010],
        "run": 0,
        "outlier": false
      },
      "geometry": { "type": "Point", "coordinates": [-88.113929, 42.499372, -7.0] }
    },
    {
      "type": "Feature",
      "properties": {
        "timestamp": "2026-04-17T01:02:01",
        "speed_kmh": 70.00,
        "heading_deg": 274.0,
        "accel": [0.020, 0.000, 0.000],
        "run": 0,
        "outlier": false
      },
      "geometry": { "type": "Point", "coordinates": [-88.114166, 42.499384, -6.0] }
    }
  ]
}
