{
  "type": "FeatureCollection",
  "properties": {
    "group": "all",
    "generator": "dashgps 0.1.0",
    "time_is_naive": true
  },
  "features": [
    {
      "type": "Feature",
      "properties": {
        "run": 0,
        "points": 100,
        "distance_km": 1.320,
        "outlier": false,
        "start": "2026-08-19T11:00:00",
        "end": "2026-08-19T11:01:39"
      },
      "geometry": {
        "type": "LineString",
        "coordinates": [
          [-80.137971, 25.774408, -10.0],
          [-80.138102, 25.774386, -9.0],
          [-80.138233, 25.774364, -8.0],
          [-80.138364, 25.774344, -7.0],
          [-80.138495, 25.774323, -6.0],
          [-80.138626, 25.774304, -10.0],
          [-80.138758, 25.774284, -9.0],
          [-80.138889, 25.774265, -8.0],
          [-80.139021, 25.774247, -7.0],
          [-80.139153, 25.774230, -6.0],
          [-80.139284, 25.774212, -10.0],
          [-80.139416, 25.774196, -9.0],
          [-80.139548, 25.774179, -8.0],
          [-80.139680, 25.774164, -7.0],
          [-80.139812, 25.774149, -6.0],
          [-80.139945, 25.774134, -10.0],
          [-80.140077, 25.774120, -9.0],
          [-80.140209, 25.774106, -8.0],
          [-80.140341, 25.774093, -7.0],
          [-80.140474, 25.774081, -6.0],
          [-80.140606, 25.774069, -10.0],
          [-80.140739, 25.774057, -9.0],
          [-80.140872, 25.774046, -8.0],
          [-80.141004, 25.774036, -7.0],
          [-80.141137, 25.774026, -6.0],
          [-80.141270, 25.774017, -10.0],
          [-80.141402, 25.774008, -9.0],
          [-80.141535, 25.773999, -8.0],
          [-80.141668, 25.773991, -7.0],
          [-80.141801, 25.773984, -6.0],
          [-80.141934, 25.773977, -10.0],
          [-80.142067, 25.773971, -9.0],
          [-80.142200, 25.773965, -8.0],
          [-80.142333, 25.773960, -7.0],
          [-80.142466, 25.773955, -6.0],
          [-80.142599, 25.773951, -10.0],
          [-80.142732, 25.773948, -9.0],
          [-80.142865, 25.773944, -8.0],
          [-80.142998, 25.773942, -7.0],
          [-80.143132, 25.773940, -6.0],
          [-80.143265, 25.773938, -10.0],
          [-80.143398, 25.773937, -9.0],
          [-80.143531, 25.773937, -8.0],
          [-80.143664, 25.773937, -7.0],
          [-80.143797, 25.773937, -6.0],
          [-80.143930, 25.773938, -10.0],
          [-80.144064, 25.773940, -9.0],
          [-80.144197, 25.773942, -8.0],
          [-80.144330, 25.773944, -7.0],
          [-80.144463, 25.773948, -6.0],
          [-80.144596, 25.773951, -10.0],
          [-80.144729, 25.773955, -9.0],
          [-80.144862, 25.773960, -8.0],
          [-80.144995, 25.773965, -7.0],
          [-80.145128, 25.773971, -6.0],
          [-80.145261, 25.773977, -10.0],
          [-80.145394, 25.773984, -9.0],
          [-80.145527, 25.773991, -8.0],
          [-80.145660, 25.773999, -7.0],
          [-80.145793, 25.774008, -6.0],
          [-80.145926, 25.774017, -10.0],
          [-80.146058, 25.774026, -9.0],
          [-80.146191, 25.774036, -8.0],
          [-80.146324, 25.774046, -7.0],
          [-80.146456, 25.774057, -6.0],
          [-80.146589, 25.774069, -10.0],
          [-80.146721, 25.774081, -9.0],
          [-80.146854, 25.774093, -8.0],
          [-80.146986, 25.774106, -7.0],
          [-80.147118, 25.774120, -6.0],
          [-80.147251, 25.774134, -10.0],
          [-80.147383, 25.774149, -9.0],
          [-80.147515, 25.774164, -8.0],
          [-80.147647, 25.774179, -7.0],
          [-80.147779, 25.774196, -6.0],
          [-80.147911, 25.774212, -10.0],
          [-80.148042, 25.774230, -9.0],
          [-80.148174, 25.774247, -8.0],
          [-80.148306, 25.774265, -7.0],
          [-80.148437, 25.774284, -6.0],
          [-80.148569, 25.774304, -10.0],
          [-80.148700, 25.774323, -9.0],
          [-80.148831, 25.774344, -8.0],
          [-80.148962, 25.774364, -7.0],
          [-80.149093, 25.774386, -6.0],
          [-80.149224, 25.774408, -10.0],
          [-80.149355, 25.774430, -9.0],
          [-80.149486, 25.774453, -8.0],
          [-80.149616, 25.774476, -7.0],
          [-80.149747, 25.774500, -6.0],
          [-80.149877, 25.774525, -10.0],
          [-80.150008, 25.774550, -9.0],
          [-80.150138, 25.774575, -8.0],
          [-80.150268, 25.774601, -7.0],
          [-80.150398, 25.774627, -6.0],
          [-80.150527, 25.774654, -10.0],
          [-80.150657, 25.774682, -9.0],
          [-80.150786, 25.774710, -8.0],
          [-80.150916, 25.774738, -7.0],
          [-80.151045, 25.774767, -6.0]
        ]
      }
    },
    {
      "type": "Feature",
      "properties": {
        "run": 2,
        "points": 88,
        "distance_km": 1.160,
        "outlier": false,
        "start": "2026-08-19T11:01:52",
        "end": "2026-08-19T11:03:19"
      },
      "geometry": {
        "type": "LineString",
        "coordinates": [
          [-80.152711, 25.775190, -8.0],
          [-80.152838, 25.775226, -7.0],
          [-80.152965, 25.775263, -6.0],
          [-80.153091, 25.775300, -10.0],
          [-80.153218, 25.775338, -9.0],
          [-80.153344, 25.775376, -8.0],
          [-80.153470, 25.775414, -7.0],
          [-80.153596, 25.775453, -6.0],
          [-80.153722, 25.775493, -10.0],
          [-80.153847, 25.775533, -9.0],
          [-80.153973, 25.775573, -8.0],
          [-80.154098, 25.775614, -7.0],
          [-80.154223, 25.775656, -6.0],
          [-80.154347, 25.775698, -10.0],
          [-80.154472, 25.775740, -9.0],
          [-80.154596, 25.775783, -8.0],
          [-80.154720, 25.775827, -7.0],
          [-80.154844, 25.775871, -6.0],
          [-80.154968, 25.775915, -10.0],
          [-80.155091, 25.775960, -9.0],
          [-80.155215, 25.776005, -8.0],
          [-80.155338, 25.776051, -7.0],
          [-80.155460, 25.776098, -6.0],
          [-80.155583, 25.776145, -10.0],
          [-80.155705, 25.776192, -9.0],
          [-80.155827, 25.776240, -8.0],
          [-80.155949, 25.776288, -7.0],
          [-80.156071, 25.776337, -6.0],
          [-80.156192, 25.776386, -10.0],
          [-80.156314, 25.776436, -9.0],
          [-80.156434, 25.776486, -8.0],
          [-80.156555, 25.776537, -7.0],
          [-80.156676, 25.776588, -6.0],
          [-80.156796, 25.776639, -10.0],
          [-80.156916, 25.776692, -9.0],
          [-80.157035, 25.776744, -8.0],
          [-80.157155, 25.776797, -7.0],
          [-80.157274, 25.776851, -6.0],
          [-80.157393, 25.776905, -10.0],
          [-80.157512, 25.776959, -9.0],
          [-80.157630, 25.777014, -8.0],
          [-80.157748, 25.777069, -7.0],
          [-80.157866, 25.777125, -6.0],
          [-80.157983, 25.777181, -10.0],
          [-80.158101, 25.777238, -9.0],
          [-80.158218, 25.777295, -8.0],
          [-80.158334, 25.777353, -7.0],
          [-80.158451, 25.777411, -6.0],
          [-80.158567, 25.777470, -10.0],
          [-80.158683, 25.777529, -9.0],
          [-80.158799, 25.777588, -8.0],
          [-80.158914, 25.777648, -7.0],
          [-80.159029, 25.777709, -6.0],
          [-80.159144, 25.777770, -10.0],
          [-80.159258, 25.777831, -9.0],
          [-80.159372, 25.777893, -8.0],
          [-80.159486, 25.777955, -7.0],
          [-80.159600, 25.778017, -6.0],
          [-80.159713, 25.778081, -10.0],
          [-80.159826, 25.778144, -9.0],
          [-80.159938, 25.778208, -8.0],
          [-80.160051, 25.778273, -7.0],
          [-80.160163, 25.778337, -6.0],
          [-80.160274, 25.778403, -10.0],
          [-80.160386, 25.778468, -9.0],
          [-80.160497, 25.778535, -8.0],
          [-80.160608, 25.778601, -7.0],
          [-80.160718, 25.778668, -6.0],
          [-80.160828, 25.778736, -10.0],
          [-80.160938, 25.778804, -9.0],
          [-80.161047, 25.778872, -8.0],
          [-80.161156, 25.778941, -7.0],
          [-80.161265, 25.779010, -6.0],
          [-80.161373, 25.779080, -10.0],
          [-80.161481, 25.779150, -9.0],
          [-80.161589, 25.779220, -8.0],
          [-80.161697, 25.779291, -7.0],
          [-80.161804, 25.779362, -6.0],
          [-80.161910, 25.779434, -10.0],
          [-80.162017, 25.779506, -9.0],
          [-80.162123, 25.779579, -8.0],
          [-80.162228, 25.779652, -7.0],
          [-80.162334, 25.779725, -6.0],
          [-80.162439, 25.779799, -10.0],
          [-80.162543, 25.779873, -9.0],
          [-80.162647, 25.779948, -8.0],
          [-80.162751, 25.780023, -7.0],
          [-80.162855, 25.780099, -6.0]
        ]
      }
    },
    {
      "type": "Feature",
      "properties": {
        "timestamp": "2026-08-19T11:00:00",
        "speed_kmh": 48.00,
        "heading_deg": 259.2,
        "accel": [0.000, 0.000, 0.010],
        "run": 0,
        "outlier": false
      },
      "geometry": { "type": "Point", "coordinates": [-80.137971, 25.774408, -10.0] }
    },
    {
      "type": "Feature",
      "properties": {
        "timestamp": "2026-08-19T11:00:01",
        "speed_kmh": 48.00,
        "heading_deg": 259.5,
        "accel": [0.010, 0.000, 0.000],
        "run": 0,
        "outlier": false
      },
      "geometry": { "type": "Point", "coordinates": [-80.138102, 25.774386, -9.0] }
    },
    {
      "type": "Feature",
      "properties": {
        "timestamp": "2026-08-19T11:00:02",
        "speed_kmh": 48.00,
        "heading_deg": 259.8,
        "accel": [0.020, 0.000, 0.010],
        "run": 0,
        "outlier": false
      },
      "geometry": { "type": "Point", "coordinates": [-80.138233, 25.774364, -8.0] }
    },
    {
      "type": "Feature",
      "properties": {
        "timestamp": "2026-08-19T11:00:03",
        "speed_kmh": 48.00,
        "heading_deg": 260.0,
        "accel": [0.000, 0.000, 0.000],
        "run": 0,
        "outlier": false
      },
      "geometry": { "type": "Point", "coordinates": [-80.138364, 25.774344, -7.0] }
    },
    {
      "type": "Feature",
      "properties": {
        "timestamp": "2026-08-19T11:00:04",
        "speed_kmh": 48.00,
        "heading_deg": 260.2,
        "accel": [0.010, 0.000, 0.010],
        "run": 0,
        "outlier": false
      },
      "geometry": { "type": "Point", "coordinates": [-80.138495, 25.774323, -6.0] }
    },
    {
      "type": "Feature",
      "properties": {
        "timestamp": "2026-08-19T11:00:05",
        "speed_kmh": 48.00,
        "heading_deg": 260.5,
        "accel": [0.020, 0.000, 0.000],
        "run": 0,
        "outlier": false
      },
      "geometry": { "type": "Point", "coordinates": [-80.138626, 25.774304, -10.0] }
    },
    {
      "type": "Feature",
      "properties": {
        "timestamp": "2026-08-19T11:00:06",
        "speed_kmh": 48.00,
        "heading_deg": 260.8,
        "accel": [0.000, 0.000, 0.010],
        "run": 0,
        "outlier": false
      },
      "geometry": { "type": "Point", "coordinates": [-80.138758, 25.774284, -9.0] }
    },
    {
      "type": "Feature",
      "properties": {
        "timestamp": "2026-08-19T11:00:07",
        "speed_kmh": 48.00,
        "heading_deg": 261.0,
        "accel": [0.010, 0.000, 0.000],
        "run": 0,
        "outlier": false
      },
      "geometry": { "type": "Point", "coordinates": [-80.138889, 25.774265, -8.0] }
    },
    {
      "type": "Feature",
      "properties": {
        "timestamp": "2026-08-19T11:00:08",
        "speed_kmh": 48.00,
        "heading_deg": 261.2,
        "accel": [0.020, 0.000, 0.010],
        "run": 0,
        "outlier": false
      },
      "geometry": { "type": "Point", "coordinates": [-80.139021, 25.774247, -7.0] }
    },
    {
      "type": "Feature",
      "properties": {
        "timestamp": "2026-08-19T11:00:09",
        "speed_kmh": 48.00,
        "heading_deg": 261.5,
        "accel": [0.000, 0.000, 0.000],
        "run": 0,
        "outlier": false
      },
      "geometry": { "type": "Point", "coordinates": [-80.139153, 25.774230, -6.0] }
    },
    {
      "type": "Feature",
      "properties": {
        "timestamp": "2026-08-19T11:00:10",
        "speed_kmh": 48.00,
        "heading_deg": 261.8,
        "accel": [0.010, 0.000, 0.010],
        "run": 0,
        "outlier": false
      },
      "geometry": { "type": "Point", "coordinates": [-80.139284, 25.774212, -10.0] }
    },
    {
      "type": "Feature",
      "properties": {
        "timestamp": "2026-08-19T11:00:11",
        "speed_kmh": 48.00,
        "heading_deg": 262.0,
        "accel": [0.020, 0.000, 0.000],
        "run": 0,
        "outlier": false
      },
      "geometry": { "type": "Point", "coordinates": [-80.139416, 25.774196, -9.0] }
    },
    {
      "type": "Feature",
      "properties": {
        "timestamp": "2026-08-19T11:00:12",
        "speed_kmh": 48.00,
        "heading_deg": 262.2,
        "accel": [0.000, 0.000, 0.010],
        "run": 0,
        "outlier": false
      },
      "geometry": { "type": "Point", "coordinates": [-80.139548, 25.774179, -8.0] }
    },
    {
      "type": "Feature",
      "properties": {
        "timestamp": "2026-08-19T11:00:13",
        "speed_kmh": 48.00,
        "heading_deg": 262.5,
        "accel": [0.010, 0.000, 0.000],
        "run": 0,
        "outlier": false
      },
      "geometry": { "type": "Point", "coordinates": [-80.139680, 25.774164, -7.0] }
    },
    {
      "type": "Feature",
      "properties": {
        "timestamp": "2026-08-19T11:00:14",
        "speed_kmh": 48.00,
        "heading_deg": 262.8,
        "accel": [0.020, 0.000, 0.010],
        "run": 0,
        "outlier": false
      },
      "geometry": { "type": "Point", "coordinates": [-80.139812, 25.774149, -6.0] }
    },
    {
      "type": "Feature",
      "properties": {
        "timestamp": "2026-08-19T11:00:15",
        "speed_kmh": 48.00,
        "heading_deg": 263.0,
        "accel": [0.000, 0.000, 0.000],
        "run": 0,
        "outlier": false
      },
      "geometry": { "type": "Point", "coordinates": [-80.139945, 25.774134, -10.0] }
    },
    {
      "type": "Feature",
      "properties": {
        "timestamp": "2026-08-19T11:00:16",
        "speed_kmh": 48.00,
        "heading_deg": 263.2,
        "accel": [0.010, 0.000, 0.010],
        "run": 0,
        "outlier": false
      },
      "geometry": { "type": "Point", "coordinates": [-80.140077, 25.774120, -9.0] }
    },
    {
      "type": "Feature",
      "properties": {
        "timestamp": "2026-08-19T11:00:17",
        "speed_kmh": 48.00,
        "heading_deg": 263.5,
        "accel": [0.020, 0.000, 0.000],
        "run": 0,
        "outlier": false
      },
      "geometry": { "type": "Point", "coordinates": [-80.140209, 25.774106, -8.0] }
    },
    {
      "type": "Feature",
      "properties": {
        "timestamp": "2026-08-19T11:00:18",
        "speed_kmh": 48.00,
        "heading_deg": 263.8,
        "accel": [0.000, 0.000, 0.010],
        "run": 0,
        "outlier": false
      },
      "geometry": { "type": "Point", "coordinates": [-80.140341, 25.774093, -7.0] }
    },
    {
      "type": "Feature",
      "properties": {
        "timestamp": "2026-08-19T11:00:19",
        "speed_kmh": 48.00,
        "heading_deg": 264.0,
        "accel": [0.010, 0.000, 0.000],
        "run": 0,
        "outlier": false
      },
      "geometry": { "type": "Point", "coordinates": [-80.140474, 25.774081, -6.0] }
    },
    {
      "type": "Feature",
      "properties": {
        "timestamp": "2026-08-19T11:00:20",
        "speed_kmh": 48.00,
        "heading_deg": 264.2,
        "accel": [0.020, 0.000, 0.010],
        "run": 0,
        "outlier": false
      },
      "geometry": { "type": "Point", "coordinates": [-80.140606, 25.774069, -10.0] }
    },
    {
      "type": "Feature",
      "properties": {
        "timestamp": "2026-08-19T11:00:21",
        "speed_kmh": 48.00,
        "heading_deg": 264.5,
        "accel": [0.000, 0.000, 0.000],
        "run": 0,
        "outlier": false
      },
      "geometry": { "type": "Point", "coordinates": [-80.140739, 25.774057, -9.0] }
    },
    {
      "type": "Feature",
      "properties": {
        "timestamp": "2026-08-19T11:00:22",
        "speed_kmh": 48.00,
        "heading_deg": 264.8,
        "accel": [0.010, 0.000, 0.010],
        "run": 0,
        "outlier": false
      },
      "geometry": { "type": "Point", "coordinates": [-80.140872, 25.774046, -8.0] }
    },
    {
      "type": "Feature",
      "properties": {
        "timestamp": "2026-08-19T11:00:23",
        "speed_kmh": 48.00,
        "heading_deg": 265.0,
        "accel": [0.020, 0.000, 0.000],
        "run": 0,
        "outlier": false
      },
      "geometry": { "type": "Point", "coordinates": [-80.141004, 25.774036, -7.0] }
    },
    {
      "type": "Feature",
      "properties": {
        "timestamp": "2026-08-19T11:00:24",
        "speed_kmh": 48.00,
        "heading_deg": 265.2,
        "accel": [0.000, 0.000, 0.010],
        "run": 0,
        "outlier": false
      },
      "geometry": { "type": "Point", "coordinates": [-80.141137, 25.774026, -6.0] }
    },
    {
      "type": "Feature",
      "properties": {
        "timestamp": "2026-08-19T11:00:25",
        "speed_kmh": 48.00,
        "heading_deg": 265.5,
        "accel": [0.010, 0.000, 0.000],
        "run": 0,
        "outlier": false
      },
      "geometry": { "type": "Point", "coordinates": [-80.141270, 25.774017, -10.0] }
    },
    {
      "type": "Feature",
      "properties": {
        "timestamp": "2026-08-19T11:00:26",
        "speed_kmh": 48.00,
        "heading_deg": 265.8,
        "accel": [0.020, 0.000, 0.010],
        "run": 0,
        "outlier": false
      },
      "geometry": { "type": "Point", "coordinates": [-80.141402, 25.774008, -9.0] }
    },
    {
      "type": "Feature",
      "properties": {
        "timestamp": "2026-08-19T11:00:27",
        "speed_kmh": 48.00,
        "heading_deg": 266.0,
        "accel": [0.000, 0.000, 0.000],
        "run": 0,
        "outlier": false
      },
      "geometry": { "type": "Point", "coordinates": [-80.141535, 25.773999, -8.0] }
    },
    {
      "type": "Feature",
      "properties": {
        "timestamp": "2026-08-19T11:00:28",
        "speed_kmh": 48.00,
        "heading_deg": 266.2,
        "accel": [0.010, 0.000, 0.010],
        "run": 0,
        "outlier": false
      },
      "geometry": { "type": "Point", "coordinates": [-80.141668, 25.773991, -7.0] }
    },
    {
      "type": "Feature",
      "properties": {
        "timestamp": "2026-08-19T11:00:29",
        "speed_kmh": 48.00,
        "heading_deg": 266.5,
        "accel": [0.020, 0.000, 0.000],
        "run": 0,
        "outlier": false
      },
      "geometry": { "type": "Point", "coordinates": [-80.141801, 25.773984, -6.0] }
    },
    {
      "type": "Feature",
      "properties": {
        "timestamp": "2026-08-19T11:00:30",
        "speed_kmh": 48.00,
        "heading_deg": 266.8,
        "accel": [0.000, 0.000, 0.010],
        "run": 0,
        "outlier": false
      },
      "geometry": { "type": "Point", "coordinates": [-80.141934, 25.773977, -10.0] }
    },
    {
      "type": "Feature",
      "properties": {
        "timestamp": "2026-08-19T11:00:31",
        "speed_kmh": 48.00,
        "heading_deg": 267.0,
        "accel": [0.010, 0.000, 0.000],
        "run": 0,
        "outlier": false
      },
      "geometry": { "type": "Point", "coordinates": [-80.142067, 25.773971, -9.0] }
    },
    {
      "type": "Feature",
      "properties": {
        "timestamp": "2026-08-19T11:00:32",
        "speed_kmh": 48.00,
        "heading_deg": 267.2,
        "accel": [0.020, 0.000, 0.010],
        "run": 0,
        "outlier": false
      },
      "geometry": { "type": "Point", "coordinates": [-80.142200, 25.773965, -8.0] }
    },
    {
      "type": "Feature",
      "properties": {
        "timestamp": "2026-08-19T11:00:33",
        "speed_kmh": 48.00,
        "heading_deg": 267.5,
        "accel": [0.000, 0.000, 0.000],
        "run": 0,
        "outlier": false
      },
      "geometry": { "type": "Point", "coordinates": [-80.142333, 25.773960, -7.0] }
    },
    {
      "type": "Feature",
      "properties": {
        "timestamp": "2026-08-19T11:00:34",
        "speed_kmh": 48.00,
        "heading_deg": 267.8,
        "accel": [0.010, 0.000, 0.010],
        "run": 0,
        "outlier": false
      },
      "geometry": { "type": "Point", "coordinates": [-80.142466, 25.773955, -6.0] }
    },
    {
      "type": "Feature",
      "properties": {
        "timestamp": "2026-08-19T11:00:35",
        "speed_kmh": 48.00,
        "heading_deg": 268.0,
        "accel": [0.020, 0.000, 0.000],
        "run": 0,
        "outlier": false
      },
      "geometry": { "type": "Point", "coordinates": [-80.142599, 25.773951, -10.0] }
    },
    {
      "type": "Feature",
      "properties": {
        "timestamp": "2026-08-19T11:00:36",
        "speed_kmh": 48.00,
        "heading_deg": 268.2,
        "accel": [0.000, 0.000, 0.010],
        "run": 0,
        "outlier": false
      },
      "geometry": { "type": "Point", "coordinates": [-80.142732, 25.773948, -9.0] }
    },
    {
      "type": "Feature",
      "properties": {
        "timestamp": "2026-08-19T11:00:37",
        "speed_kmh": 48.00,
        "heading_deg": 268.5,
        "accel": [0.010, 0.000, 0.000],
        "run": 0,
        "outlier": false
      },
      "geometry": { "type": "Point", "coordinates": [-80.142865, 25.773944, -8.0] }
    },
    {
      "type": "Feature",
      "properties": {
        "timestamp": "2026-08-19T11:00:38",
        "speed_kmh": 48.00,
        "heading_deg": 268.8,
        "accel": [0.020, 0.000, 0.010],
        "run": 0,
        "outlier": false
      },
      "geometry": { "type": "Point", "coordinates": [-80.142998, 25.773942, -7.0] }
    },
    {
      "type": "Feature",
      "properties": {
        "timestamp": "2026-08-19T11:00:39",
        "speed_kmh": 48.00,
        "heading_deg": 269.0,
        "accel": [0.000, 0.000, 0.000],
        "run": 0,
        "outlier": false
      },
      "geometry": { "type": "Point", "coordinates": [-80.143132, 25.773940, -6.0] }
    },
    {
      "type": "Feature",
      "properties": {
        "timestamp": "2026-08-19T11:00:40",
        "speed_kmh": 48.00,
        "heading_deg": 269.2,
        "accel": [0.010, 0.000, 0.010],
        "run": 0,
        "outlier": false
      },
      "geometry": { "type": "Point", "coordinates": [-80.143265, 25.773938, -10.0] }
    },
    {
      "type": "Feature",
      "properties": {
        "timestamp": "2026-08-19T11:00:41",
        "speed_kmh": 48.00,
        "heading_deg": 269.5,
        "accel": [0.020, 0.000, 0.000],
        "run": 0,
        "outlier": false
      },
      "geometry": { "type": "Point", "coordinates": [-80.143398, 25.773937, -9.0] }
    },
    {
      "type": "Feature",
      "properties": {
        "timestamp": "2026-08-19T11:00:42",
        "speed_kmh": 48.00,
        "heading_deg": 269.8,
        "accel": [0.000, 0.000, 0.010],
        "run": 0,
        "outlier": false
      },
      "geometry": { "type": "Point", "coordinates": [-80.143531, 25.773937, -8.0] }
    },
    {
      "type": "Feature",
      "properties": {
        "timestamp": "2026-08-19T11:00:43",
        "speed_kmh": 48.00,
        "heading_deg": 270.0,
        "accel": [0.010, 0.000, 0.000],
        "run": 0,
        "outlier": false
      },
      "geometry": { "type": "Point", "coordinates": [-80.143664, 25.773937, -7.0] }
    },
    {
      "type": "Feature",
      "properties": {
        "timestamp": "2026-08-19T11:00:44",
        "speed_kmh": 48.00,
        "heading_deg": 270.2,
        "accel": [0.020, 0.000, 0.010],
        "run": 0,
        "outlier": false
      },
      "geometry": { "type": "Point", "coordinates": [-80.143797, 25.773937, -6.0] }
    },
    {
      "type": "Feature",
      "properties": {
        "timestamp": "2026-08-19T11:00:45",
        "speed_kmh": 48.00,
        "heading_deg": 270.5,
        "accel": [0.000, 0.000, 0.000],
        "run": 0,
        "outlier": false
      },
      "geometry": { "type": "Point", "coordinates": [-80.143930, 25.773938, -10.0] }
    },
    {
      "type": "Feature",
      "properties": {
        "timestamp": "2026-08-19T11:00:46",
        "speed_kmh": 48.00,
        "heading_deg": 270.8,
        "accel": [0.010, 0.000, 0.010],
        "run": 0,
        "outlier": false
      },
      "geometry": { "type": "Point", "coordinates": [-80.144064, 25.773940, -9.0] }
    },
    {
      "type": "Feature",
      "properties": {
        "timestamp": "2026-08-19T11:00:47",
        "speed_kmh": 48.00,
        "heading_deg": 271.0,
        "accel": [0.020, 0.000, 0.000],
        "run": 0,
        "outlier": false
      },
      "geometry": { "type": "Point", "coordinates": [-80.144197, 25.773942, -8.0] }
    },
    {
      "type": "Feature",
      "properties": {
        "timestamp": "2026-08-19T11:00:48",
        "speed_kmh": 48.00,
        "heading_deg": 271.2,
        "accel": [0.000, 0.000, 0.010],
        "run": 0,
        "outlier": false
      },
      "geometry": { "type": "Point", "coordinates": [-80.144330, 25.773944, -7.0] }
    },
    {
      "type": "Feature",
      "properties": {
        "timestamp": "2026-08-19T11:00:49",
        "speed_kmh": 48.00,
        "heading_deg": 271.5,
        "accel": [0.010, 0.000, 0.000],
        "run": 0,
        "outlier": false
      },
      "geometry": { "type": "Point", "coordinates": [-80.144463, 25.773948, -6.0] }
    },
    {
      "type": "Feature",
      "properties": {
        "timestamp": "2026-08-19T11:00:50",
        "speed_kmh": 48.00,
        "heading_deg": 271.8,
        "accel": [0.020, 0.000, 0.010],
        "run": 0,
        "outlier": false
      },
      "geometry": { "type": "Point", "coordinates": [-80.144596, 25.773951, -10.0] }
    },
    {
      "type": "Feature",
      "properties": {
        "timestamp": "2026-08-19T11:00:51",
        "speed_kmh": 48.00,
        "heading_deg": 272.0,
        "accel": [0.000, 0.000, 0.000],
        "run": 0,
        "outlier": false
      },
      "geometry": { "type": "Point", "coordinates": [-80.144729, 25.773955, -9.0] }
    },
    {
      "type": "Feature",
      "properties": {
        "timestamp": "2026-08-19T11:00:52",
        "speed_kmh": 48.00,
        "heading_deg": 272.2,
        "accel": [0.010, 0.000, 0.010],
        "run": 0,
        "outlier": false
      },
      "geometry": { "type": "Point", "coordinates": [-80.144862, 25.773960, -8.0] }
    },
    {
      "type": "Feature",
      "properties": {
        "timestamp": "2026-08-19T11:00:53",
        "speed_kmh": 48.00,
        "heading_deg": 272.5,
        "accel": [0.020, 0.000, 0.000],
        "run": 0,
        "outlier": false
      },
      "geometry": { "type": "Point", "coordinates": [-80.144995, 25.773965, -7.0] }
    },
    {
      "type": "Feature",
      "properties": {
        "timestamp": "2026-08-19T11:00:54",
        "speed_kmh": 48.00,
        "heading_deg": 272.8,
        "accel": [0.000, 0.000, 0.010],
        "run": 0,
        "outlier": false
      },
      "geometry": { "type": "Point", "coordinates": [-80.145128, 25.773971, -6.0] }
    },
    {
      "type": "Feature",
      "properties": {
        "timestamp": "2026-08-19T11:00:55",
        "speed_kmh": 48.00,
        "heading_deg": 273.0,
        "accel": [0.010, 0.000, 0.000],
        "run": 0,
        "outlier": false
      },
      "geometry": { "type": "Point", "coordinates": [-80.145261, 25.773977, -10.0] }
    },
    {
      "type": "Feature",
      "properties": {
        "timestamp": "2026-08-19T11:00:56",
        "speed_kmh": 48.00,
        "heading_deg": 273.2,
        "accel": [0.020, 0.000, 0.010],
        "run": 0,
        "outlier": false
      },
      "geometry": { "type": "Point", "coordinates": [-80.145394, 25.773984, -9.0] }
    },
    {
      "type": "Feature",
      "properties": {
        "timestamp": "2026-08-19T11:00:57",
        "speed_kmh": 48.00,
        "heading_deg": 273.5,
        "accel": [0.000, 0.000, 0.000],
        "run": 0,
        "outlier": false
      },
      "geometry": { "type": "Point", "coordinates": [-80.145527, 25.773991, -8.0] }
    },
    {
      "type": "Feature",
      "properties": {
        "timestamp": "2026-08-19T11:00:58",
        "speed_kmh": 48.00,
        "heading_deg": 273.8,
        "accel": [0.010, 0.000, 0.010],
        "run": 0,
        "outlier": false
      },
      "geometry": { "type": "Point", "coordinates": [-80.145660, 25.773999, -7.0] }
    },
    {
      "type": "Feature",
      "properties": {
        "timestamp": "2026-08-19T11:00:59",
        "speed_kmh": 48.00,
        "heading_deg": 274.0,
        "accel": [0.020, 0.000, 0.000],
        "run": 0,
        "outlier": false
      },
      "geometry": { "type": "Point", "coordinates": [-80.145793, 25.774008, -6.0] }
    },
    {
      "type": "Feature",
      "properties": {
        "timestamp": "2026-08-19T11:01:00",
        "speed_kmh": 48.00,
        "heading_deg": 274.2,
        "accel": [0.000, 0.000, 0.010],
        "run": 0,
        "outlier": false
      },
      "geometry": { "type": "Point", "coordinates": [-80.145926, 25.774017, -10.0] }
    },
    {
      "type": "Feature",
      "properties": {
        "timestamp": "2026-08-19T11:01:01",
        "speed_kmh": 48.00,
        "heading_deg": 274.5,
        "accel": [0.010, 0.000, 0.000],
        "run": 0,
        "outlier": false
      },
      "geometry": { "type": "Point", "coordinates": [-80.146058, 25.774026, -9.0] }
    },
    {
      "type": "Feature",
      "properties": {
        "timestamp": "2026-08-19T11:01:02",
        "speed_kmh": 48.00,
        "heading_deg": 274.8,
        "accel": [0.020, 0.000, 0.010],
        "run": 0,
        "outlier": false
      },
      "geometry": { "type": "Point", "coordinates": [-80.146191, 25.774036, -8.0] }
    },
    {
      "type": "Feature",
      "properties": {
        "timestamp": "2026-08-19T11:01:03",
        "speed_kmh": 48.00,
        "heading_deg": 275.0,
        "accel": [0.000, 0.000, 0.000],
        "run": 0,
        "outlier": false
      },
      "geometry": { "type": "Point", "coordinates": [-80.146324, 25.774046, -7.0] }
    },
    {
      "type": "Feature",
      "properties": {
        "timestamp": "2026-08-19T11:01:04",
        "speed_kmh": 48.00,
        "heading_deg": 275.2,
        "accel": [0.010, 0.000, 0.010],
        "run": 0,
        "outlier": false
      },
      "geometry": { "type": "Point", "coordinates": [-80.146456, 25.774057, -6.0] }
    },
    {
      "type": "Feature",
      "properties": {
        "timestamp": "2026-08-19T11:01:05",
        "speed_kmh": 48.00,
        "heading_deg": 275.5,
        "accel": [0.020, 0.000, 0.000],
        "run": 0,
        "outlier": false
      },
      "geometry": { "type": "Point", "coordinates": [-80.146589, 25.774069, -10.0] }
    },
    {
      "type": "Feature",
      "properties": {
        "timestamp": "2026-08-19T11:01:06",
        "speed_kmh": 48.00,
        "heading_deg": 275.8,
        "accel": [0.000, 0.000, 0.010],
        "run": 0,
        "outlier": false
      },
      "geometry": { "type": "Point", "coordinates": [-80.146721, 25.774081, -9.0] }
    },
    {
      "type": "Feature",
      "properties": {
        "timestamp": "2026-08-19T11:01:07",
        "speed_kmh": 48.00,
        "heading_deg": 276.0,
        "accel": [0.010, 0.000, 0.000],
        "run": 0,
        "outlier": false
      },
      "geometry": { "type": "Point", "coordinates": [-80.146854, 25.774093, -8.0] }
    },
    {
      "type": "Feature",
      "properties": {
        "timestamp": "2026-08-19T11:01:08",
        "speed_kmh": 48.00,
        "heading_deg": 276.2,
        "accel": [0.020, 0.000, 0.010],
        "run": 0,
        "outlier": false
      },
      "geometry": { "type": "Point", "coordinates": [-80.146986, 25.774106, -7.0] }
    },
    {
      "type": "Feature",
      "properties": {
        "timestamp": "2026-08-19T11:01:09",
        "speed_kmh": 48.00,
        "heading_deg": 276.5,
        "accel": [0.000, 0.000, 0.000],
        "run": 0,
        "outlier": false
      },
      "geometry": { "type": "Point", "coordinates": [-80.147118, 25.774120, -6.0] }
    },
    {
      "type": "Feature",
      "properties": {
        "timestamp": "2026-08-19T11:01:10",
        "speed_kmh": 48.00,
        "heading_deg": 276.8,
        "accel": [0.010, 0.000, 0.010],
        "run": 0,
        "outlier": false
      },
      "geometry": { "type": "Point", "coordinates": [-80.147251, 25.774134, -10.0] }
    },
    {
      "type": "Feature",
      "properties": {
        "timestamp": "2026-08-19T11:01:11",
        "speed_kmh": 48.00,
        "heading_deg": 277.0,
        "accel": [0.020, 0.000, 0.000],
        "run": 0,
        "outlier": false
      },
      "geometry": { "type": "Point", "coordinates": [-80.147383, 25.774149, -9.0] }
    },
    {
      "type": "Feature",
      "properties": {
        "timestamp": "2026-08-19T11:01:12",
        "speed_kmh": 48.00,
        "heading_deg": 277.2,
        "accel": [0.000, 0.000, 0.010],
        "run": 0,
        "outlier": false
      },
      "geometry": { "type": "Point", "coordinates": [-80.147515, 25.774164, -8.0] }
    },
    {
      "type": "Feature",
      "properties": {
        "timestamp": "2026-08-19T11:01:13",
        "speed_kmh": 48.00,
        "heading_deg": 277.5,
        "accel": [0.010, 0.000, 0.000],
        "run": 0,
        "outlier": false
      },
      "geometry": { "type": "Point", "coordinates": [-80.147647, 25.774179, -7.0] }
    },
    {
      "type": "Feature",
      "properties": {
        "timestamp": "2026-08-19T11:01:14",
        "speed_kmh": 48.00,
        "heading_deg": 277.8,
        "accel": [0.020, 0.000, 0.010],
        "run": 0,
        "outlier": false
      },
      "geometry": { "type": "Point", "coordinates": [-80.147779, 25.774196, -6.0] }
    },
    {
      "type": "Feature",
      "properties": {
        "timestamp": "2026-08-19T11:01:15",
        "speed_kmh": 48.00,
        "heading_deg": 278.0,
        "accel": [0.000, 0.000, 0.000],
        "run": 0,
        "outlier": false
      },
      "geometry": { "type": "Point", "coordinates": [-80.147911, 25.774212, -10.0] }
    },
    {
      "type": "Feature",
      "properties": {
        "timestamp": "2026-08-19T11:01:16",
        "speed_kmh": 48.00,
        "heading_deg": 278.2,
        "accel": [0.010, 0.000, 0.010],
        "run": 0,
        "outlier": false
      },
      "geometry": { "type": "Point", "coordinates": [-80.148042, 25.774230, -9.0] }
    },
    {
      "type": "Feature",
      "properties": {
        "timestamp": "2026-08-19T11:01:17",
        "speed_kmh": 48.00,
        "heading_deg": 278.5,
        "accel": [0.020, 0.000, 0.000],
        "run": 0,
        "outlier": false
      },
      "geometry": { "type": "Point", "coordinates": [-80.148174, 25.774247, -8.0] }
    },
    {
      "type": "Feature",
      "properties": {
        "timestamp": "2026-08-19T11:01:18",
        "speed_kmh": 48.00,
        "heading_deg": 278.8,
        "accel": [0.000, 0.000, 0.010],
        "run": 0,
        "outlier": false
      },
      "geometry": { "type": "Point", "coordinates": [-80.148306, 25.774265, -7.0] }
    },
    {
      "type": "Feature",
      "properties": {
        "timestamp": "2026-08-19T11:01:19",
        "speed_kmh": 48.00,
        "heading_deg": 279.0,
        "accel": [0.010, 0.000, 0.000],
        "run": 0,
        "outlier": false
      },
      "geometry": { "type": "Point", "coordinates": [-80.148437, 25.774284, -6.0] }
    },
    {
      "type": "Feature",
      "properties": {
        "timestamp": "2026-08-19T11:01:20",
        "speed_kmh": 48.00,
        "heading_deg": 279.2,
        "accel": [0.020, 0.000, 0.010],
        "run": 0,
        "outlier": false
      },
      "geometry": { "type": "Point", "coordinates": [-80.148569, 25.774304, -10.0] }
    },
    {
      "type": "Feature",
      "properties": {
        "timestamp": "2026-08-19T11:01:21",
        "speed_kmh": 48.00,
        "heading_deg": 279.5,
        "accel": [0.000, 0.000, 0.000],
        "run": 0,
        "outlier": false
      },
      "geometry": { "type": "Point", "coordinates": [-80.148700, 25.774323, -9.0] }
    },
    {
      "type": "Feature",
      "properties": {
        "timestamp": "2026-08-19T11:01:22",
        "speed_kmh": 48.00,
        "heading_deg": 279.8,
        "accel": [0.010, 0.000, 0.010],
        "run": 0,
        "outlier": false
      },
      "geometry": { "type": "Point", "coordinates": [-80.148831, 25.774344, -8.0] }
    },
    {
      "type": "Feature",
      "properties": {
        "timestamp": "2026-08-19T11:01:23",
        "speed_kmh": 48.00,
        "heading_deg": 280.0,
        "accel": [0.020, 0.000, 0.000],
        "run": 0,
        "outlier": false
      },
      "geometry": { "type": "Point", "coordinates": [-80.148962, 25.774364, -7.0] }
    },
    {
      "type": "Feature",
      "properties": {
        "timestamp": "2026-08-19T11:01:24",
        "speed_kmh": 48.00,
        "heading_deg": 280.2,
        "accel": [0.000, 0.000, 0.010],
        "run": 0,
        "outlier": false
      },
      "geometry": { "type": "Point", "coordinates": [-80.149093, 25.774386, -6.0] }
    },
    {
      "type": "Feature",
      "properties": {
        "timestamp": "2026-08-19T11:01:25",
        "speed_kmh": 48.00,
        "heading_deg": 280.5,
        "accel": [0.010, 0.000, 0.000],
        "run": 0,
        "outlier": false
      },
      "geometry": { "type": "Point", "coordinates": [-80.149224, 25.774408, -10.0] }
    },
    {
      "type": "Feature",
      "properties": {
        "timestamp": "2026-08-19T11:01:26",
        "speed_kmh": 48.00,
        "heading_deg": 280.8,
        "accel": [0.020, 0.000, 0.010],
        "run": 0,
        "outlier": false
      },
      "geometry": { "type": "Point", "coordinates": [-80.149355, 25.774430, -9.0] }
    },
    {
      "type": "Feature",
      "properties": {
        "timestamp": "2026-08-19T11:01:27",
        "speed_kmh": 48.00,
        "heading_deg": 281.0,
        "accel": [0.000, 0.000, 0.000],
        "run": 0,
        "outlier": false
      },
      "geometry": { "type": "Point", "coordinates": [-80.149486, 25.774453, -8.0] }
    },
    {
      "type": "Feature",
      "properties": {
        "timestamp": "2026-08-19T11:01:28",
        "speed_kmh": 48.00,
        "heading_deg": 281.2,
        "accel": [0.010, 0.000, 0.010],
        "run": 0,
        "outlier": false
      },
      "geometry": { "type": "Point", "coordinates": [-80.149616, 25.774476, -7.0] }
    },
    {
      "type": "Feature",
      "properties": {
        "timestamp": "2026-08-19T11:01:29",
        "speed_kmh": 48.00,
        "heading_deg": 281.5,
        "accel": [0.020, 0.000, 0.000],
        "run": 0,
        "outlier": false
      },
      "geometry": { "type": "Point", "coordinates": [-80.149747, 25.774500, -6.0] }
    },
    {
      "type": "Feature",
      "properties": {
        "timestamp": "2026-08-19T11:01:30",
        "speed_kmh": 48.00,
        "heading_deg": 281.8,
        "accel": [0.000, 0.000, 0.010],
        "run": 0,
        "outlier": false
      },
      "geometry": { "type": "Point", "coordinates": [-80.149877, 25.774525, -10.0] }
    },
    {
      "type": "Feature",
      "properties": {
        "timestamp": "2026-08-19T11:01:31",
        "speed_kmh": 48.00,
        "heading_deg": 282.0,
        "accel": [0.010, 0.000, 0.000],
        "run": 0,
        "outlier": false
      },
      "geometry": { "type": "Point", "coordinates": [-80.150008, 25.774550, -9.0] }
    },
    {
      "type": "Feature",
      "properties": {
        "timestamp": "2026-08-19T11:01:32",
        "speed_kmh": 48.00,
        "heading_deg": 282.2,
        "accel": [0.020, 0.000, 0.010],
        "run": 0,
        "outlier": false
      },
      "geometry": { "type": "Point", "coordinates": [-80.150138, 25.774575, -8.0] }
    },
    {
      "type": "Feature",
      "properties": {
        "timestamp": "2026-08-19T11:01:33",
        "speed_kmh": 48.00,
        "heading_deg": 282.5,
        "accel": [0.000, 0.000, 0.000],
        "run": 0,
        "outlier": false
      },
      "geometry": { "type": "Point", "coordinates": [-80.150268, 25.774601, -7.0] }
    },
    {
      "type": "Feature",
      "properties": {
        "timestamp": "2026-08-19T11:01:34",
        "speed_kmh": 48.00,
        "heading_deg": 282.8,
        "accel": [0.010, 0.000, 0.010],
        "run": 0,
        "outlier": false
      },
      "geometry": { "type": "Point", "coordinates": [-80.150398, 25.774627, -6.0] }
    },
    {
      "type": "Feature",
      "properties": {
        "timestamp": "2026-08-19T11:01:35",
        "speed_kmh": 48.00,
        "heading_deg": 283.0,
        "accel": [0.020, 0.000, 0.000],
        "run": 0,
        "outlier": false
      },
      "geometry": { "type": "Point", "coordinates": [-80.150527, 25.774654, -10.0] }
    },
    {
      "type": "Feature",
      "properties": {
        "timestamp": "2026-08-19T11:01:36",
        "speed_kmh": 48.00,
        "heading_deg": 283.2,
        "accel": [0.000, 0.000, 0.010],
        "run": 0,
        "outlier": false
      },
      "geometry": { "type": "Point", "coordinates": [-80.150657, 25.774682, -9.0] }
    },
    {
      "type": "Feature",
      "properties": {
        "timestamp": "2026-08-19T11:01:37",
        "speed_kmh": 48.00,
        "heading_deg": 283.5,
        "accel": [0.010, 0.000, 0.000],
        "run": 0,
        "outlier": false
      },
      "geometry": { "type": "Point", "coordinates": [-80.150786, 25.774710, -8.0] }
    },
    {
      "type": "Feature",
      "properties": {
        "timestamp": "2026-08-19T11:01:38",
        "speed_kmh": 48.00,
        "heading_deg": 283.8,
        "accel": [0.020, 0.000, 0.010],
        "run": 0,
        "outlier": false
      },
      "geometry": { "type": "Point", "coordinates": [-80.150916, 25.774738, -7.0] }
    },
    {
      "type": "Feature",
      "properties": {
        "timestamp": "2026-08-19T11:01:39",
        "speed_kmh": 48.00,
        "heading_deg": 284.0,
        "accel": [0.000, 0.000, 0.000],
        "run": 0,
        "outlier": false
      },
      "geometry": { "type": "Point", "coordinates": [-80.151045, 25.774767, -6.0] }
    },
    {
      "type": "Feature",
      "properties": {
        "timestamp": "2026-08-19T11:01:52",
        "speed_kmh": 48.00,
        "heading_deg": 287.2,
        "accel": [0.010, 0.000, 0.010],
        "run": 2,
        "outlier": false
      },
      "geometry": { "type": "Point", "coordinates": [-80.152711, 25.775190, -8.0] }
    },
    {
      "type": "Feature",
      "properties": {
        "timestamp": "2026-08-19T11:01:53",
        "speed_kmh": 48.00,
        "heading_deg": 287.5,
        "accel": [0.020, 0.000, 0.000],
        "run": 2,
        "outlier": false
      },
      "geometry": { "type": "Point", "coordinates": [-80.152838, 25.775226, -7.0] }
    },
    {
      "type": "Feature",
      "properties": {
        "timestamp": "2026-08-19T11:01:54",
        "speed_kmh": 48.00,
        "heading_deg": 287.8,
        "accel": [0.000, 0.000, 0.010],
        "run": 2,
        "outlier": false
      },
      "geometry": { "type": "Point", "coordinates": [-80.152965, 25.775263, -6.0] }
    },
    {
      "type": "Feature",
      "properties": {
        "timestamp": "2026-08-19T11:01:55",
        "speed_kmh": 48.00,
        "heading_deg": 288.0,
        "accel": [0.010, 0.000, 0.000],
        "run": 2,
        "outlier": false
      },
      "geometry": { "type": "Point", "coordinates": [-80.153091, 25.775300, -10.0] }
    },
    {
      "type": "Feature",
      "properties": {
        "timestamp": "2026-08-19T11:01:56",
        "speed_kmh": 48.00,
        "heading_deg": 288.2,
        "accel": [0.020, 0.000, 0.010],
        "run": 2,
        "outlier": false
      },
      "geometry": { "type": "Point", "coordinates": [-80.153218, 25.775338, -9.0] }
    },
    {
      "type": "Feature",
      "properties": {
        "timestamp": "2026-08-19T11:01:57",
        "speed_kmh": 48.00,
        "heading_deg": 288.5,
        "accel": [0.000, 0.000, 0.000],
        "run": 2,
        "outlier": false
      },
      "geometry": { "type": "Point", "coordinates": [-80.153344, 25.775376, -8.0] }
    },
    {
      "type": "Feature",
      "properties": {
        "timestamp": "2026-08-19T11:01:58",
        "speed_kmh": 48.00,
        "heading_deg": 288.8,
        "accel": [0.010, 0.000, 0.010],
        "run": 2,
        "outlier": false
      },
      "geometry": { "type": "Point", "coordinates": [-80.153470, 25.775414, -7.0] }
    },
    {
      "type": "Feature",
      "properties": {
        "timestamp": "2026-08-19T11:01:59",
        "speed_kmh": 48.00,
        "heading_deg": 289.0,
        "accel": [0.020, 0.000, 0.000],
        "run": 2,
        "outlier": false
      },
      "geometry": { "type": "Point", "coordinates": [-80.153596, 25.775453, -6.0] }
    },
    {
      "type": "Feature",
      "properties": {
        "timestamp": "2026-08-19T11:02:00",
        "speed_kmh": 48.00,
        "heading_deg": 289.2,
        "accel": [0.000, 0.000, 0.010],
        "run": 2,
        "outlier": false
      },
      "geometry": { "type": "Point", "coordinates": [-80.153722, 25.775493, -10.0] }
    },
    {
      "type": "Feature",
      "properties": {
        "timestamp": "2026-08-19T11:02:01",
        "speed_kmh": 48.00,
        "heading_deg": 289.5,
        "accel": [0.010, 0.000, 0.000],
        "run": 2,
        "outlier": false
      },
      "geometry": { "type": "Point", "coordinates": [-80.153847, 25.775533, -9.0] }
    },
    {
      "type": "Feature",
      "properties": {
        "timestamp": "2026-08-19T11:02:02",
        "speed_kmh": 48.00,
        "heading_deg": 289.8,
        "accel": [0.020, 0.000, 0.010],
        "run": 2,
        "outlier": false
      },
      "geometry": { "type": "Point", "coordinates": [-80.153973, 25.775573, -8.0] }
    },
    {
      "type": "Feature",
      "properties": {
        "timestamp": "2026-08-19T11:02:03",
        "speed_kmh": 48.00,
        "heading_deg": 290.0,
        "accel": [0.000, 0.000, 0.000],
        "run": 2,
        "outlier": false
      },
      "geometry": { "type": "Point", "coordinates": [-80.154098, 25.775614, -7.0] }
    },
    {
      "type": "Feature",
      "properties": {
        "timestamp": "2026-08-19T11:02:04",
        "speed_kmh": 48.00,
        "heading_deg": 290.2,
        "accel": [0.010, 0.000, 0.010],
        "run": 2,
        "outlier": false
      },
      "geometry": { "type": "Point", "coordinates": [-80.154223, 25.775656, -6.0] }
    },
    {
      "type": "Feature",
      "properties": {
        "timestamp": "2026-08-19T11:02:05",
        "speed_kmh": 48.00,
        "heading_deg": 290.5,
        "accel": [0.020, 0.000, 0.000],
        "run": 2,
        "outlier": false
      },
      "geometry": { "type": "Point", "coordinates": [-80.154347, 25.775698, -10.0] }
    },
    {
      "type": "Feature",
      "properties": {
        "timestamp": "2026-08-19T11:02:06",
        "speed_kmh": 48.00,
        "heading_deg": 290.8,
        "accel": [0.000, 0.000, 0.010],
        "run": 2,
        "outlier": false
      },
      "geometry": { "type": "Point", "coordinates": [-80.154472, 25.775740, -9.0] }
    },
    {
      "type": "Feature",
      "properties": {
        "timestamp": "2026-08-19T11:02:07",
        "speed_kmh": 48.00,
        "heading_deg": 291.0,
        "accel": [0.010, 0.000, 0.000],
        "run": 2,
        "outlier": false
      },
      "geometry": { "type": "Point", "coordinates": [-80.154596, 25.775783, -8.0] }
    },
    {
      "type": "Feature",
      "properties": {
        "timestamp": "2026-08-19T11:02:08",
        "speed_kmh": 48.00,
        "heading_deg": 291.2,
        "accel": [0.020, 0.000, 0.010],
        "run": 2,
        "outlier": false
      },
      "geometry": { "type": "Point", "coordinates": [-80.154720, 25.775827, -7.0] }
    },
    {
      "type": "Feature",
      "properties": {
        "timestamp": "2026-08-19T11:02:09",
        "speed_kmh": 48.00,
        "heading_deg": 291.5,
        "accel": [0.000, 0.000, 0.000],
        "run": 2,
        "outlier": false
      },
      "geometry": { "type": "Point", "coordinates": [-80.154844, 25.775871, -6.0] }
    },
    {
      "type": "Feature",
      "properties": {
        "timestamp": "2026-08-19T11:02:10",
        "speed_kmh": 48.00,
        "heading_deg": 291.8,
        "accel": [0.010, 0.000, 0.010],
        "run": 2,
        "outlier": false
      },
      "geometry": { "type": "Point", "coordinates": [-80.154968, 25.775915, -10.0] }
    },
    {
      "type": "Feature",
      "properties": {
        "timestamp": "2026-08-19T11:02:11",
        "speed_kmh": 48.00,
        "heading_deg": 292.0,
        "accel": [0.020, 0.000, 0.000],
        "run": 2,
        "outlier": false
      },
      "geometry": { "type": "Point", "coordinates": [-80.155091, 25.775960, -9.0] }
    },
    {
      "type": "Feature",
      "properties": {
        "timestamp": "2026-08-19T11:02:12",
        "speed_kmh": 48.00,
        "heading_deg": 292.2,
        "accel": [0.000, 0.000, 0.010],
        "run": 2,
        "outlier": false
      },
      "geometry": { "type": "Point", "coordinates": [-80.155215, 25.776005, -8.0] }
    },
    {
      "type": "Feature",
      "properties": {
        "timestamp": "2026-08-19T11:02:13",
        "speed_kmh": 48.00,
        "heading_deg": 292.5,
        "accel": [0.010, 0.000, 0.000],
        "run": 2,
        "outlier": false
      },
      "geometry": { "type": "Point", "coordinates": [-80.155338, 25.776051, -7.0] }
    },
    {
      "type": "Feature",
      "properties": {
        "timestamp": "2026-08-19T11:02:14",
        "speed_kmh": 48.00,
        "heading_deg": 292.8,
        "accel": [0.020, 0.000, 0.010],
        "run": 2,
        "outlier": false
      },
      "geometry": { "type": "Point", "coordinates": [-80.155460, 25.776098, -6.0] }
    },
    {
      "type": "Feature",
      "properties": {
        "timestamp": "2026-08-19T11:02:15",
        "speed_kmh": 48.00,
        "heading_deg": 293.0,
        "accel": [0.000, 0.000, 0.000],
        "run": 2,
        "outlier": false
      },
      "geometry": { "type": "Point", "coordinates": [-80.155583, 25.776145, -10.0] }
    },
    {
      "type": "Feature",
      "properties": {
        "timestamp": "2026-08-19T11:02:16",
        "speed_kmh": 48.00,
        "heading_deg": 293.2,
        "accel": [0.010, 0.000, 0.010],
        "run": 2,
        "outlier": false
      },
      "geometry": { "type": "Point", "coordinates": [-80.155705, 25.776192, -9.0] }
    },
    {
      "type": "Feature",
      "properties": {
        "timestamp": "2026-08-19T11:02:17",
        "speed_kmh": 48.00,
        "heading_deg": 293.5,
        "accel": [0.020, 0.000, 0.000],
        "run": 2,
        "outlier": false
      },
      "geometry": { "type": "Point", "coordinates": [-80.155827, 25.776240, -8.0] }
    },
    {
      "type": "Feature",
      "properties": {
        "timestamp": "2026-08-19T11:02:18",
        "speed_kmh": 48.00,
        "heading_deg": 293.8,
        "accel": [0.000, 0.000, 0.010],
        "run": 2,
        "outlier": false
      },
      "geometry": { "type": "Point", "coordinates": [-80.155949, 25.776288, -7.0] }
    },
    {
      "type": "Feature",
      "properties": {
        "timestamp": "2026-08-19T11:02:19",
        "speed_kmh": 48.00,
        "heading_deg": 294.0,
        "accel": [0.010, 0.000, 0.000],
        "run": 2,
        "outlier": false
      },
      "geometry": { "type": "Point", "coordinates": [-80.156071, 25.776337, -6.0] }
    },
    {
      "type": "Feature",
      "properties": {
        "timestamp": "2026-08-19T11:02:20",
        "speed_kmh": 48.00,
        "heading_deg": 294.2,
        "accel": [0.020, 0.000, 0.010],
        "run": 2,
        "outlier": false
      },
      "geometry": { "type": "Point", "coordinates": [-80.156192, 25.776386, -10.0] }
    },
    {
      "type": "Feature",
      "properties": {
        "timestamp": "2026-08-19T11:02:21",
        "speed_kmh": 48.00,
        "heading_deg": 294.5,
        "accel": [0.000, 0.000, 0.000],
        "run": 2,
        "outlier": false
      },
      "geometry": { "type": "Point", "coordinates": [-80.156314, 25.776436, -9.0] }
    },
    {
      "type": "Feature",
      "properties": {
        "timestamp": "2026-08-19T11:02:22",
        "speed_kmh": 48.00,
        "heading_deg": 294.8,
        "accel": [0.010, 0.000, 0.010],
        "run": 2,
        "outlier": false
      },
      "geometry": { "type": "Point", "coordinates": [-80.156434, 25.776486, -8.0] }
    },
    {
      "type": "Feature",
      "properties": {
        "timestamp": "2026-08-19T11:02:23",
        "speed_kmh": 48.00,
        "heading_deg": 295.0,
        "accel": [0.020, 0.000, 0.000],
        "run": 2,
        "outlier": false
      },
      "geometry": { "type": "Point", "coordinates": [-80.156555, 25.776537, -7.0] }
    },
    {
      "type": "Feature",
      "properties": {
        "timestamp": "2026-08-19T11:02:24",
        "speed_kmh": 48.00,
        "heading_deg": 295.2,
        "accel": [0.000, 0.000, 0.010],
        "run": 2,
        "outlier": false
      },
      "geometry": { "type": "Point", "coordinates": [-80.156676, 25.776588, -6.0] }
    },
    {
      "type": "Feature",
      "properties": {
        "timestamp": "2026-08-19T11:02:25",
        "speed_kmh": 48.00,
        "heading_deg": 295.5,
        "accel": [0.010, 0.000, 0.000],
        "run": 2,
        "outlier": false
      },
      "geometry": { "type": "Point", "coordinates": [-80.156796, 25.776639, -10.0] }
    },
    {
      "type": "Feature",
      "properties": {
        "timestamp": "2026-08-19T11:02:26",
        "speed_kmh": 48.00,
        "heading_deg": 295.8,
        "accel": [0.020, 0.000, 0.010],
        "run": 2,
        "outlier": false
      },
      "geometry": { "type": "Point", "coordinates": [-80.156916, 25.776692, -9.0] }
    },
    {
      "type": "Feature",
      "properties": {
        "timestamp": "2026-08-19T11:02:27",
        "speed_kmh": 48.00,
        "heading_deg": 296.0,
        "accel": [0.000, 0.000, 0.000],
        "run": 2,
        "outlier": false
      },
      "geometry": { "type": "Point", "coordinates": [-80.157035, 25.776744, -8.0] }
    },
    {
      "type": "Feature",
      "properties": {
        "timestamp": "2026-08-19T11:02:28",
        "speed_kmh": 48.00,
        "heading_deg": 296.2,
        "accel": [0.010, 0.000, 0.010],
        "run": 2,
        "outlier": false
      },
      "geometry": { "type": "Point", "coordinates": [-80.157155, 25.776797, -7.0] }
    },
    {
      "type": "Feature",
      "properties": {
        "timestamp": "2026-08-19T11:02:29",
        "speed_kmh": 48.00,
        "heading_deg": 296.5,
        "accel": [0.020, 0.000, 0.000],
        "run": 2,
        "outlier": false
      },
      "geometry": { "type": "Point", "coordinates": [-80.157274, 25.776851, -6.0] }
    },
    {
      "type": "Feature",
      "properties": {
        "timestamp": "2026-08-19T11:02:30",
        "speed_kmh": 48.00,
        "heading_deg": 296.8,
        "accel": [0.000, 0.000, 0.010],
        "run": 2,
        "outlier": false
      },
      "geometry": { "type": "Point", "coordinates": [-80.157393, 25.776905, -10.0] }
    },
    {
      "type": "Feature",
      "properties": {
        "timestamp": "2026-08-19T11:02:31",
        "speed_kmh": 48.00,
        "heading_deg": 297.0,
        "accel": [0.010, 0.000, 0.000],
        "run": 2,
        "outlier": false
      },
      "geometry": { "type": "Point", "coordinates": [-80.157512, 25.776959, -9.0] }
    },
    {
      "type": "Feature",
      "properties": {
        "timestamp": "2026-08-19T11:02:32",
        "speed_kmh": 48.00,
        "heading_deg": 297.2,
        "accel": [0.020, 0.000, 0.010],
        "run": 2,
        "outlier": false
      },
      "geometry": { "type": "Point", "coordinates": [-80.157630, 25.777014, -8.0] }
    },
    {
      "type": "Feature",
      "properties": {
        "timestamp": "2026-08-19T11:02:33",
        "speed_kmh": 48.00,
        "heading_deg": 297.5,
        "accel": [0.000, 0.000, 0.000],
        "run": 2,
        "outlier": false
      },
      "geometry": { "type": "Point", "coordinates": [-80.157748, 25.777069, -7.0] }
    },
    {
      "type": "Feature",
      "properties": {
        "timestamp": "2026-08-19T11:02:34",
        "speed_kmh": 48.00,
        "heading_deg": 297.8,
        "accel": [0.010, 0.000, 0.010],
        "run": 2,
        "outlier": false
      },
      "geometry": { "type": "Point", "coordinates": [-80.157866, 25.777125, -6.0] }
    },
    {
      "type": "Feature",
      "properties": {
        "timestamp": "2026-08-19T11:02:35",
        "speed_kmh": 48.00,
        "heading_deg": 298.0,
        "accel": [0.020, 0.000, 0.000],
        "run": 2,
        "outlier": false
      },
      "geometry": { "type": "Point", "coordinates": [-80.157983, 25.777181, -10.0] }
    },
    {
      "type": "Feature",
      "properties": {
        "timestamp": "2026-08-19T11:02:36",
        "speed_kmh": 48.00,
        "heading_deg": 298.2,
        "accel": [0.000, 0.000, 0.010],
        "run": 2,
        "outlier": false
      },
      "geometry": { "type": "Point", "coordinates": [-80.158101, 25.777238, -9.0] }
    },
    {
      "type": "Feature",
      "properties": {
        "timestamp": "2026-08-19T11:02:37",
        "speed_kmh": 48.00,
        "heading_deg": 298.5,
        "accel": [0.010, 0.000, 0.000],
        "run": 2,
        "outlier": false
      },
      "geometry": { "type": "Point", "coordinates": [-80.158218, 25.777295, -8.0] }
    },
    {
      "type": "Feature",
      "properties": {
        "timestamp": "2026-08-19T11:02:38",
        "speed_kmh": 48.00,
        "heading_deg": 298.8,
        "accel": [0.020, 0.000, 0.010],
        "run": 2,
        "outlier": false
      },
      "geometry": { "type": "Point", "coordinates": [-80.158334, 25.777353, -7.0] }
    },
    {
      "type": "Feature",
      "properties": {
        "timestamp": "2026-08-19T11:02:39",
        "speed_kmh": 48.00,
        "heading_deg": 299.0,
        "accel": [0.000, 0.000, 0.000],
        "run": 2,
        "outlier": false
      },
      "geometry": { "type": "Point", "coordinates": [-80.158451, 25.777411, -6.0] }
    },
    {
      "type": "Feature",
      "properties": {
        "timestamp": "2026-08-19T11:02:40",
        "speed_kmh": 48.00,
        "heading_deg": 299.2,
        "accel": [0.010, 0.000, 0.010],
        "run": 2,
        "outlier": false
      },
      "geometry": { "type": "Point", "coordinates": [-80.158567, 25.777470, -10.0] }
    },
    {
      "type": "Feature",
      "properties": {
        "timestamp": "2026-08-19T11:02:41",
        "speed_kmh": 48.00,
        "heading_deg": 299.5,
        "accel": [0.020, 0.000, 0.000],
        "run": 2,
        "outlier": false
      },
      "geometry": { "type": "Point", "coordinates": [-80.158683, 25.777529, -9.0] }
    },
    {
      "type": "Feature",
      "properties": {
        "timestamp": "2026-08-19T11:02:42",
        "speed_kmh": 48.00,
        "heading_deg": 299.8,
        "accel": [0.000, 0.000, 0.010],
        "run": 2,
        "outlier": false
      },
      "geometry": { "type": "Point", "coordinates": [-80.158799, 25.777588, -8.0] }
    },
    {
      "type": "Feature",
      "properties": {
        "timestamp": "2026-08-19T11:02:43",
        "speed_kmh": 48.00,
        "heading_deg": 300.0,
        "accel": [0.010, 0.000, 0.000],
        "run": 2,
        "outlier": false
      },
      "geometry": { "type": "Point", "coordinates": [-80.158914, 25.777648, -7.0] }
    },
    {
      "type": "Feature",
      "properties": {
        "timestamp": "2026-08-19T11:02:44",
        "speed_kmh": 48.00,
        "heading_deg": 300.2,
        "accel": [0.020, 0.000, 0.010],
        "run": 2,
        "outlier": false
      },
      "geometry": { "type": "Point", "coordinates": [-80.159029, 25.777709, -6.0] }
    },
    {
      "type": "Feature",
      "properties": {
        "timestamp": "2026-08-19T11:02:45",
        "speed_kmh": 48.00,
        "heading_deg": 300.5,
        "accel": [0.000, 0.000, 0.000],
        "run": 2,
        "outlier": false
      },
      "geometry": { "type": "Point", "coordinates": [-80.159144, 25.777770, -10.0] }
    },
    {
      "type": "Feature",
      "properties": {
        "timestamp": "2026-08-19T11:02:46",
        "speed_kmh": 48.00,
        "heading_deg": 300.8,
        "accel": [0.010, 0.000, 0.010],
        "run": 2,
        "outlier": false
      },
      "geometry": { "type": "Point", "coordinates": [-80.159258, 25.777831, -9.0] }
    },
    {
      "type": "Feature",
      "properties": {
        "timestamp": "2026-08-19T11:02:47",
        "speed_kmh": 48.00,
        "heading_deg": 301.0,
        "accel": [0.020, 0.000, 0.000],
        "run": 2,
        "outlier": false
      },
      "geometry": { "type": "Point", "coordinates": [-80.159372, 25.777893, -8.0] }
    },
    {
      "type": "Feature",
      "properties": {
        "timestamp": "2026-08-19T11:02:48",
        "speed_kmh": 48.00,
        "heading_deg": 301.2,
        "accel": [0.000, 0.000, 0.010],
        "run": 2,
        "outlier": false
      },
      "geometry": { "type": "Point", "coordinates": [-80.159486, 25.777955, -7.0] }
    },
    {
      "type": "Feature",
      "properties": {
        "timestamp": "2026-08-19T11:02:49",
        "speed_kmh": 48.00,
        "heading_deg": 301.5,
        "accel": [0.010, 0.000, 0.000],
        "run": 2,
        "outlier": false
      },
      "geometry": { "type": "Point", "coordinates": [-80.159600, 25.778017, -6.0] }
    },
    {
      "type": "Feature",
      "properties": {
        "timestamp": "2026-08-19T11:02:50",
        "speed_kmh": 48.00,
        "heading_deg": 301.8,
        "accel": [0.020, 0.000, 0.010],
        "run": 2,
        "outlier": false
      },
      "geometry": { "type": "Point", "coordinates": [-80.159713, 25.778081, -10.0] }
    },
    {
      "type": "Feature",
      "properties": {
        "timestamp": "2026-08-19T11:02:51",
        "speed_kmh": 48.00,
        "heading_deg": 302.0,
        "accel": [0.000, 0.000, 0.000],
        "run": 2,
        "outlier": false
      },
      "geometry": { "type": "Point", "coordinates": [-80.159826, 25.778144, -9.0] }
    },
    {
      "type": "Feature",
      "properties": {
        "timestamp": "2026-08-19T11:02:52",
        "speed_kmh": 48.00,
        "heading_deg": 302.2,
        "accel": [0.010, 0.000, 0.010],
        "run": 2,
        "outlier": false
      },
      "geometry": { "type": "Point", "coordinates": [-80.159938, 25.778208, -8.0] }
    },
    {
      "type": "Feature",
      "properties": {
        "timestamp": "2026-08-19T11:02:53",
        "speed_kmh": 48.00,
        "heading_deg": 302.5,
        "accel": [0.020, 0.000, 0.000],
        "run": 2,
        "outlier": false
      },
      "geometry": { "type": "Point", "coordinates": [-80.160051, 25.778273, -7.0] }
    },
    {
      "type": "Feature",
      "properties": {
        "timestamp": "2026-08-19T11:02:54",
        "speed_kmh": 48.00,
        "heading_deg": 302.8,
        "accel": [0.000, 0.000, 0.010],
        "run": 2,
        "outlier": false
      },
      "geometry": { "type": "Point", "coordinates": [-80.160163, 25.778337, -6.0] }
    },
    {
      "type": "Feature",
      "properties": {
        "timestamp": "2026-08-19T11:02:55",
        "speed_kmh": 48.00,
        "heading_deg": 303.0,
        "accel": [0.010, 0.000, 0.000],
        "run": 2,
        "outlier": false
      },
      "geometry": { "type": "Point", "coordinates": [-80.160274, 25.778403, -10.0] }
    },
    {
      "type": "Feature",
      "properties": {
        "timestamp": "2026-08-19T11:02:56",
        "speed_kmh": 48.00,
        "heading_deg": 303.2,
        "accel": [0.020, 0.000, 0.010],
        "run": 2,
        "outlier": false
      },
      "geometry": { "type": "Point", "coordinates": [-80.160386, 25.778468, -9.0] }
    },
    {
      "type": "Feature",
      "properties": {
        "timestamp": "2026-08-19T11:02:57",
        "speed_kmh": 48.00,
        "heading_deg": 303.5,
        "accel": [0.000, 0.000, 0.000],
        "run": 2,
        "outlier": false
      },
      "geometry": { "type": "Point", "coordinates": [-80.160497, 25.778535, -8.0] }
    },
    {
      "type": "Feature",
      "properties": {
        "timestamp": "2026-08-19T11:02:58",
        "speed_kmh": 48.00,
        "heading_deg": 303.8,
        "accel": [0.010, 0.000, 0.010],
        "run": 2,
        "outlier": false
      },
      "geometry": { "type": "Point", "coordinates": [-80.160608, 25.778601, -7.0] }
    },
    {
      "type": "Feature",
      "properties": {
        "timestamp": "2026-08-19T11:02:59",
        "speed_kmh": 48.00,
        "heading_deg": 304.0,
        "accel": [0.020, 0.000, 0.000],
        "run": 2,
        "outlier": false
      },
      "geometry": { "type": "Point", "coordinates": [-80.160718, 25.778668, -6.0] }
    },
    {
      "type": "Feature",
      "properties": {
        "timestamp": "2026-08-19T11:03:00",
        "speed_kmh": 48.00,
        "heading_deg": 304.2,
        "accel": [0.000, 0.000, 0.010],
        "run": 2,
        "outlier": false
      },
      "geometry": { "type": "Point", "coordinates": [-80.160828, 25.778736, -10.0] }
    },
    {
      "type": "Feature",
      "properties": {
        "timestamp": "2026-08-19T11:03:01",
        "speed_kmh": 48.00,
        "heading_deg": 304.5,
        "accel": [0.010, 0.000, 0.000],
        "run": 2,
        "outlier": false
      },
      "geometry": { "type": "Point", "coordinates": [-80.160938, 25.778804, -9.0] }
    },
    {
      "type": "Feature",
      "properties": {
        "timestamp": "2026-08-19T11:03:02",
        "speed_kmh": 48.00,
        "heading_deg": 304.8,
        "accel": [0.020, 0.000, 0.010],
        "run": 2,
        "outlier": false
      },
      "geometry": { "type": "Point", "coordinates": [-80.161047, 25.778872, -8.0] }
    },
    {
      "type": "Feature",
      "properties": {
        "timestamp": "2026-08-19T11:03:03",
        "speed_kmh": 48.00,
        "heading_deg": 305.0,
        "accel": [0.000, 0.000, 0.000],
        "run": 2,
        "outlier": false
      },
      "geometry": { "type": "Point", "coordinates": [-80.161156, 25.778941, -7.0] }
    },
    {
      "type": "Feature",
      "properties": {
        "timestamp": "2026-08-19T11:03:04",
        "speed_kmh": 48.00,
        "heading_deg": 305.2,
        "accel": [0.010, 0.000, 0.010],
        "run": 2,
        "outlier": false
      },
      "geometry": { "type": "Point", "coordinates": [-80.161265, 25.779010, -6.0] }
    },
    {
      "type": "Feature",
      "properties": {
        "timestamp": "2026-08-19T11:03:05",
        "speed_kmh": 48.00,
        "heading_deg": 305.5,
        "accel": [0.020, 0.000, 0.000],
        "run": 2,
        "outlier": false
      },
      "geometry": { "type": "Point", "coordinates": [-80.161373, 25.779080, -10.0] }
    },
    {
      "type": "Feature",
      "properties": {
        "timestamp": "2026-08-19T11:03:06",
        "speed_kmh": 48.00,
        "heading_deg": 305.8,
        "accel": [0.000, 0.000, 0.010],
        "run": 2,
        "outlier": false
      },
      "geometry": { "type": "Point", "coordinates": [-80.161481, 25.779150, -9.0] }
    },
    {
      "type": "Feature",
      "properties": {
        "timestamp": "2026-08-19T11:03:07",
        "speed_kmh": 48.00,
        "heading_deg": 306.0,
        "accel": [0.010, 0.000, 0.000],
        "run": 2,
        "outlier": false
      },
      "geometry": { "type": "Point", "coordinates": [-80.161589, 25.779220, -8.0] }
    },
    {
      "type": "Feature",
      "properties": {
        "timestamp": "2026-08-19T11:03:08",
        "speed_kmh": 48.00,
        "heading_deg": 306.2,
        "accel": [0.020, 0.000, 0.010],
        "run": 2,
        "outlier": false
      },
      "geometry": { "type": "Point", "coordinates": [-80.161697, 25.779291, -7.0] }
    },
    {
      "type": "Feature",
      "properties": {
        "timestamp": "2026-08-19T11:03:09",
        "speed_kmh": 48.00,
        "heading_deg": 306.5,
        "accel": [0.000, 0.000, 0.000],
        "run": 2,
        "outlier": false
      },
      "geometry": { "type": "Point", "coordinates": [-80.161804, 25.779362, -6.0] }
    },
    {
      "type": "Feature",
      "properties": {
        "timestamp": "2026-08-19T11:03:10",
        "speed_kmh": 48.00,
        "heading_deg": 306.8,
        "accel": [0.010, 0.000, 0.010],
        "run": 2,
        "outlier": false
      },
      "geometry": { "type": "Point", "coordinates": [-80.161910, 25.779434, -10.0] }
    },
    {
      "type": "Feature",
      "properties": {
        "timestamp": "2026-08-19T11:03:11",
        "speed_kmh": 48.00,
        "heading_deg": 307.0,
        "accel": [0.020, 0.000, 0.000],
        "run": 2,
        "outlier": false
      },
      "geometry": { "type": "Point", "coordinates": [-80.162017, 25.779506, -9.0] }
    },
    {
      "type": "Feature",
      "properties": {
        "timestamp": "2026-08-19T11:03:12",
        "speed_kmh": 48.00,
        "heading_deg": 307.2,
        "accel": [0.000, 0.000, 0.010],
        "run": 2,
        "outlier": false
      },
      "geometry": { "type": "Point", "coordinates": [-80.162123, 25.779579, -8.0] }
    },
    {
      "type": "Feature",
      "properties": {
        "timestamp": "2026-08-19T11:03:13",
        "speed_kmh": 48.00,
        "heading_deg": 307.5,
        "accel": [0.010, 0.000, 0.000],
        "run": 2,
        "outlier": false
      },
      "geometry": { "type": "Point", "coordinates": [-80.162228, 25.779652, -7.0] }
    },
    {
      "type": "Feature",
      "properties": {
        "timestamp": "2026-08-19T11:03:14",
        "speed_kmh": 48.00,
        "heading_deg": 307.8,
        "accel": [0.020, 0.000, 0.010],
        "run": 2,
        "outlier": false
      },
      "geometry": { "type": "Point", "coordinates": [-80.162334, 25.779725, -6.0] }
    },
    {
      "type": "Feature",
      "properties": {
        "timestamp": "2026-08-19T11:03:15",
        "speed_kmh": 48.00,
        "heading_deg": 308.0,
        "accel": [0.000, 0.000, 0.000],
        "run": 2,
        "outlier": false
      },
      "geometry": { "type": "Point", "coordinates": [-80.162439, 25.779799, -10.0] }
    },
    {
      "type": "Feature",
      "properties": {
        "timestamp": "2026-08-19T11:03:16",
        "speed_kmh": 48.00,
        "heading_deg": 308.2,
        "accel": [0.010, 0.000, 0.010],
        "run": 2,
        "outlier": false
      },
      "geometry": { "type": "Point", "coordinates": [-80.162543, 25.779873, -9.0] }
    },
    {
      "type": "Feature",
      "properties": {
        "timestamp": "2026-08-19T11:03:17",
        "speed_kmh": 48.00,
        "heading_deg": 308.5,
        "accel": [0.020, 0.000, 0.000],
        "run": 2,
        "outlier": false
      },
      "geometry": { "type": "Point", "coordinates": [-80.162647, 25.779948, -8.0] }
    },
    {
      "type": "Feature",
      "properties": {
        "timestamp": "2026-08-19T11:03:18",
        "speed_kmh": 48.00,
        "heading_deg": 308.8,
        "accel": [0.000, 0.000, 0.010],
        "run": 2,
        "outlier": false
      },
      "geometry": { "type": "Point", "coordinates": [-80.162751, 25.780023, -7.0] }
    },
    {
      "type": "Feature",
      "properties": {
        "timestamp": "2026-08-19T11:03:19",
        "speed_kmh": 48.00,
        "heading_deg": 309.0,
        "accel": [0.010, 0.000, 0.000],
        "run": 2,
        "outlier": false
      },
      "geometry": { "type": "Point", "coordinates": [-80.162855, 25.780099, -6.0] }
    }
  ]
}
