<?xml version="1.0" encoding="UTF-8"?>
<gpx version="1.1" creator="dashgps 0.1.0" xmlns="http://www.topografix.com/GPX/1/1" xmlns:dashgps="urn:dashgps:gpx:1">
  <!-- Times are the camera's own clock, which carries no timezone. They are
       written with a Z suffix because GPX requires one, but they are NOT UTC
       unless dashgps was run with --tz-offset. -->
  <metadata>
    <name>all</name>
    <time>2026-08-05T07:30:00Z</time>
  </metadata>
  <trk>
    <name>all</name>
    <trkseg>
      <trkpt lat="25.774408" lon="-80.137971">
        <ele>-10.0</ele>
        <time>2026-08-05T07:30:00Z</time>
        <extensions>
          <dashgps:speed_kmh>48.00</dashgps:speed_kmh>
          <dashgps:heading_deg>259.2</dashgps:heading_deg>
        </extensions>
      </trkpt>
      <trkpt lat="25.774386" lon="-80.138102">
        <ele>-9.0</ele>
        <time>2026-08-05T07:30:01Z</time>
        <extensions>
          <dashgps:speed_kmh>48.00</dashgps:speed_kmh>
          <dashgps:heading_deg>259.5</dashgps:heading_deg>
        </extensions>
      </trkpt>
      <trkpt lat="25.774364" lon="-80.138233">
        <ele>-8.0</ele>
        <time>2026-08-05T07:30:02Z</time>
        <extensions>
          <dashgps:speed_kmh>48.00</dashgps:speed_kmh>
          <dashgps:heading_deg>259.8</dashgps:heading_deg>
        </extensions>
      </trkpt>
      <trkpt lat="25.774344" lon="-80.138364">
        <ele>-7.0</ele>
        <time>2026-08-05T07:30:03Z</time>
        <extensions>
          <dashgps:speed_kmh>48.00</dashgps:speed_kmh>
          <dashgps:heading_deg>260.0</dashgps:heading_deg>
        </extensions>
      </trkpt>
      <trkpt lat="25.774323" lon="-80.138495">
        <ele>-6.0</ele>
        <time>2026-08-05T07:30:04Z</time>
        <extensions>
          <dashgps:speed_kmh>48.00</dashgps:speed_kmh>
          <dashgps:heading_deg>260.2</dashgps:heading_deg>
        </extensions>
      </trkpt>
      <trkpt lat="25.774304" lon="-80.138626">
        <ele>-10.0</ele>
        <time>2026-08-05T07:30:05Z</time>
        <extensions>
          <dashgps:speed_kmh>48.00</dashgps:speed_kmh>
          <dashgps:heading_deg>260.5</dashgps:heading_deg>
        </extensions>
      </trkpt>
      <trkpt lat="25.774284" lon="-80.138758">
        <ele>-9.0</ele>
        <time>2026-08-05T07:30:06Z</time>
        <extensions>
          <dashgps:speed_kmh>48.00</dashgps:speed_kmh>
          <dashgps:heading_deg>260.8</dashgps:heading_deg>
        </extensions>
      </trkpt>
      <trkpt lat="25.774265" lon="-80.138889">
        <ele>-8.0</ele>
        <time>2026-08-05T07:30:07Z</time>
        <extensions>
          <dashgps:speed_kmh>48.00</dashgps:speed_kmh>
          <dashgps:heading_deg>261.0</dashgps:heading_deg>
        </extensions>
      </trkpt>
      <trkpt lat="25.774247" lon="-80.139021">
        <ele>-7.0</ele>
        <time>2026-08-05T07:30:08Z</time>
        <extensions>
          <dashgps:speed_kmh>48.00</dashgps:speed_kmh>
          <dashgps:heading_deg>261.2</dashgps:heading_deg>
        </extensions>
      </trkpt>
      <trkpt lat="25.774230" lon="-80.139153">
        <ele>-6.0</ele>
        <time>2026-08-05T07:30:09Z</time>
        <extensions>
          <dashgps:speed_kmh>48.00</dashgps:speed_kmh>
          <dashgps:heading_deg>261.5</dashgps:heading_deg>
        </extensions>
      </trkpt>
      <trkpt lat="25.774212" lon="-80.139284">
        <ele>-10.0</ele>
        <time>2026-08-05T07:30:10Z</time>
        <extensions>
          <dashgps:speed_kmh>48.00</dashgps:speed_kmh>
          <dashgps:heading_deg>261.8</dashgps:heading_deg>
        </extensions>
      </trkpt>
      <trkpt lat="25.774196" lon="-80.139416">
        <ele>-9.0</ele>
        <time>2026-08-05T07:30:11Z</time>
        <extensions>
          <dashgps:speed_kmh>48.00</dashgps:speed_kmh>
          <dashgps:heading_deg>262.0</dashgps:heading_deg>
        </extensions>
      </trkpt>
      <trkpt lat="25.774179" lon="-80.139548">
        <ele>-8.0</ele>
        <time>2026-08-05T07:30:12Z</time>
        <extensions>
          <dashgps:speed_kmh>48.00</dashgps:speed_kmh>
          <dashgps:heading_deg>262.2</dashgps:heading_deg>
        </extensions>
      </trkpt>
      <trkpt lat="25.774164" lon="-80.139680">
        <ele>-7.0</ele>
        <time>2026-08-05T07:30:13Z</time>
        <extensions>
          <dashgps:speed_kmh>48.00</dashgps:speed_kmh>
          <dashgps:heading_deg>262.5</dashgps:heading_deg>
        </extensions>
      </trkpt>
      <trkpt lat="25.774149" lon="-80.139812">
        <ele>-6.0</ele>
        <time>2026-08-05T07:30:14Z</time>
        <extensions>
          <dashgps:speed_kmh>48.00</dashgps:speed_kmh>
          <dashgps:heading_deg>262.8</dashgps:heading_deg>
        </extensions>
      </trkpt>
      <trkpt lat="25.774134" lon="-80.139945">
        <ele>-10.0</ele>
        <time>2026-08-05T07:30:15Z</time>
        <extensions>
          <dashgps:speed_kmh>48.00</dashgps:speed_kmh>
          <dashgps:heading_deg>263.0</dashgps:heading_deg>
        </extensions>
      </trkpt>
      <trkpt lat="25.774120" lon="-80.140077">
        <ele>-9.0</ele>
        <time>2026-08-05T07:30:16Z</time>
        <extensions>
          <dashgps:speed_kmh>48.00</dashgps:speed_kmh>
          <dashgps:heading_deg>263.2</dashgps:heading_deg>
        </extensions>
      </trkpt>
      <trkpt lat="25.774106" lon="-80.140209">
        <ele>-8.0</ele>
        <time>2026-08-05T07:30:17Z</time>
        <extensions>
          <dashgps:speed_kmh>48.00</dashgps:speed_kmh>
          <dashgps:heading_deg>263.5</dashgps:heading_deg>
        </extensions>
      </trkpt>
      <trkpt lat="25.774093" lon="-80.140341">
        <ele>-7.0</ele>
        <time>2026-08-05T07:30:18Z</time>
        <extensions>
          <dashgps:speed_kmh>48.00</dashgps:speed_kmh>
          <dashgps:heading_deg>263.8</dashgps:heading_deg>
        </extensions>
      </trkpt>
      <trkpt lat="25.774081" lon="-80.140474">
        <ele>-6.0</ele>
        <time>2026-08-05T07:30:19Z</time>
        <extensions>
          <dashgps:speed_kmh>48.00</dashgps:speed_kmh>
          <dashgps:heading_deg>264.0</dashgps:heading_deg>
        </extensions>
      </trkpt>
      <trkpt lat="25.774069" lon="-80.140606">
        <ele>-10.0</ele>
        <time>2026-08-05T07:30:20Z</time>
        <extensions>
          <dashgps:speed_kmh>48.00</dashgps:speed_kmh>
          <dashgps:heading_deg>264.2</dashgps:heading_deg>
        </extensions>
      </trkpt>
      <trkpt lat="25.774057" lon="-80.140739">
        <ele>-9.0</ele>
        <time>2026-08-05T07:30:21Z</time>
        <extensions>
          <dashgps:speed_kmh>48.00</dashgps:speed_kmh>
          <dashgps:heading_deg>264.5</dashgps:heading_deg>
        </extensions>
      </trkpt>
      <trkpt lat="25.774046" lon="-80.140872">
        <ele>-8.0</ele>
        <time>2026-08-05T07:30:22Z</time>
        <extensions>
          <dashgps:speed_kmh>48.00</dashgps:speed_kmh>
          <dashgps:heading_deg>264.8</dashgps:heading_deg>
        </extensions>
      </trkpt>
      <trkpt lat="25.774036" lon="-80.141004">
        <ele>-7.0</ele>
        <time>2026-08-05T07:30:23Z</time>
        <extensions>
          <dashgps:speed_kmh>48.00</dashgps:speed_kmh>
          <dashgps:heading_deg>265.0</dashgps:heading_deg>
        </extensions>
      </trkpt>
      <trkpt lat="25.774026" lon="-80.141137">
        <ele>-6.0</ele>
        <time>2026-08-05T07:30:24Z</time>
        <extensions>
          <dashgps:speed_kmh>48.00</dashgps:speed_kmh>
          <dashgps:heading_deg>265.2</dashgps:heading_deg>
        </extensions>
      </trkpt>
      <trkpt lat="25.774017" lon="-80.141270">
        <ele>-10.0</ele>
        <time>2026-08-05T07:30:25Z</time>
        <extensions>
          <dashgps:speed_kmh>48.00</dashgps:speed_kmh>
          <dashgps:heading_deg>265.5</dashgps:heading_deg>
        </extensions>
      </trkpt>
      <trkpt lat="25.774008" lon="-80.141402">
        <ele>-9.0</ele>
        <time>2026-08-05T07:30:26Z</time>
        <extensions>
          <dashgps:speed_kmh>48.00</dashgps:speed_kmh>
          <dashgps:heading_deg>265.8</dashgps:heading_deg>
        </extensions>
      </trkpt>
      <trkpt lat="25.773999" lon="-80.141535">
        <ele>-8.0</ele>
        <time>2026-08-05T07:30:27Z</time>
        <extensions>
          <dashgps:speed_kmh>48.00</dashgps:speed_kmh>
          <dashgps:heading_deg>266.0</dashgps:heading_deg>
        </extensions>
      </trkpt>
      <trkpt lat="25.773991" lon="-80.141668">
        <ele>-7.0</ele>
        <time>2026-08-05T07:30:28Z</time>
        <extensions>
          <dashgps:speed_kmh>48.00</dashgps:speed_kmh>
          <dashgps:heading_deg>266.2</dashgps:heading_deg>
        </extensions>
      </trkpt>
      <trkpt lat="25.773984" lon="-80.141801">
        <ele>-6.0</ele>
        <time>2026-08-05T07:30:29Z</time>
        <extensions>
          <dashgps:speed_kmh>48.00</dashgps:speed_kmh>
          <dashgps:heading_deg>266.5</dashgps:heading_deg>
        </extensions>
      </trkpt>
      <trkpt lat="25.773977" lon="-80.141934">
        <ele>-10.0</ele>
        <time>2026-08-05T07:30:30Z</time>
        <extensions>
          <dashgps:speed_kmh>48.00</dashgps:speed_kmh>
          <dashgps:heading_deg>266.8</dashgps:heading_deg>
        </extensions>
      </trkpt>
      <trkpt lat="25.773971" lon="-80.142067">
        <ele>-9.0</ele>
        <time>2026-08-05T07:30:31Z</time>
        <extensions>
          <dashgps:speed_kmh>48.00</dashgps:speed_kmh>
          <dashgps:heading_deg>267.0</dashgps:heading_deg>
        </extensions>
      </trkpt>
      <trkpt lat="25.773965" lon="-80.142200">
        <ele>-8.0</ele>
        <time>2026-08-05T07:30:32Z</time>
        <extensions>
          <dashgps:speed_kmh>48.00</dashgps:speed_kmh>
          <dashgps:heading_deg>267.2</dashgps:heading_deg>
        </extensions>
      </trkpt>
      <trkpt lat="25.773960" lon="-80.142333">
        <ele>-7.0</ele>
        <time>2026-08-05T07:30:33Z</time>
        <extensions>
          <dashgps:speed_kmh>48.00</dashgps:speed_kmh>
          <dashgps:heading_deg>267.5</dashgps:heading_deg>
        </extensions>
      </trkpt>
      <trkpt lat="25.773955" lon="-80.142466">
        <ele>-6.0</ele>
        <time>2026-08-05T07:30:34Z</time>
        <extensions>
          <dashgps:speed_kmh>48.00</dashgps:speed_kmh>
          <dashgps:heading_deg>267.8</dashgps:heading_deg>
        </extensions>
      </trkpt>
      <trkpt lat="25.773951" lon="-80.142599">
        <ele>-10.0</ele>
        <time>2026-08-05T07:30:35Z</time>
        <extensions>
          <dashgps:speed_kmh>48.00</dashgps:speed_kmh>
          <dashgps:heading_deg>268.0</dashgps:heading_deg>
        </extensions>
      </trkpt>
      <trkpt lat="25.773948" lon="-80.142732">
        <ele>-9.0</ele>
        <time>2026-08-05T07:30:36Z</time>
        <extensions>
          <dashgps:speed_kmh>48.00</dashgps:speed_kmh>
          <dashgps:heading_deg>268.2</dashgps:heading_deg>
        </extensions>
      </trkpt>
      <trkpt lat="25.773944" lon="-80.142865">
        <ele>-8.0</ele>
        <time>2026-08-05T07:30:37Z</time>
        <extensions>
          <dashgps:speed_kmh>48.00</dashgps:speed_kmh>
          <dashgps:heading_deg>268.5</dashgps:heading_deg>
        </extensions>
      </trkpt>
      <trkpt lat="25.773942" lon="-80.142998">
        <ele>-7.0</ele>
        <time>2026-08-05T07:30:38Z</time>
        <extensions>
          <dashgps:speed_kmh>48.00</dashgps:speed_kmh>
          <dashgps:heading_deg>268.8</dashgps:heading_deg>
        </extensions>
      </trkpt>
      <trkpt lat="25.773940" lon="-80.143132">
        <ele>-6.0</ele>
        <time>2026-08-05T07:30:39Z</time>
        <extensions>
          <dashgps:speed_kmh>48.00</dashgps:speed_kmh>
          <dashgps:heading_deg>269.0</dashgps:heading_deg>
        </extensions>
      </trkpt>
      <trkpt lat="25.773938" lon="-80.143265">
        <ele>-10.0</ele>
        <time>2026-08-05T07:30:40Z</time>
        <extensions>
          <dashgps:speed_kmh>48.00</dashgps:speed_kmh>
          <dashgps:heading_deg>269.2</dashgps:heading_deg>
        </extensions>
      </trkpt>
      <trkpt lat="25.773937" lon="-80.143398">
        <ele>-9.0</ele>
        <time>2026-08-05T07:30:41Z</time>
        <extensions>
          <dashgps:speed_kmh>48.00</dashgps:speed_kmh>
          <dashgps:heading_deg>269.5</dashgps:heading_deg>
        </extensions>
      </trkpt>
      <trkpt lat="25.773937" lon="-80.143531">
        <ele>-8.0</ele>
        <time>2026-08-05T07:30:42Z</time>
        <extensions>
          <dashgps:speed_kmh>48.00</dashgps:speed_kmh>
          <dashgps:heading_deg>269.8</dashgps:heading_deg>
        </extensions>
      </trkpt>
      <trkpt lat="25.773937" lon="-80.143664">
        <ele>-7.0</ele>
        <time>2026-08-05T07:30:43Z</time>
        <extensions>
          <dashgps:speed_kmh>48.00</dashgps:speed_kmh>
          <dashgps:heading_deg>270.0</dashgps:heading_deg>
        </extensions>
      </trkpt>
      <trkpt lat="25.773937" lon="-80.143797">
        <ele>-6.0</ele>
        <time>2026-08-05T07:30:44Z</time>
        <extensions>
          <dashgps:speed_kmh>48.00</dashgps:speed_kmh>
          <dashgps:heading_deg>270.2</dashgps:heading_deg>
        </extensions>
      </trkpt>
      <trkpt lat="25.773938" lon="-80.143930">
        <ele>-10.0</ele>
        <time>2026-08-05T07:30:45Z</time>
        <extensions>
          <dashgps:speed_kmh>48.00</dashgps:speed_kmh>
          <dashgps:heading_deg>270.5</dashgps:heading_deg>
        </extensions>
      </trkpt>
      <trkpt lat="25.773940" lon="-80.144064">
        <ele>-9.0</ele>
        <time>2026-08-05T07:30:46Z</time>
        <extensions>
          <dashgps:speed_kmh>48.00</dashgps:speed_kmh>
          <dashgps:heading_deg>270.8</dashgps:heading_deg>
        </extensions>
      </trkpt>
      <trkpt lat="25.773942" lon="-80.144197">
        <ele>-8.0</ele>
        <time>2026-08-05T07:30:47Z</time>
        <extensions>
          <dashgps:speed_kmh>48.00</dashgps:speed_kmh>
          <dashgps:heading_deg>271.0</dashgps:heading_deg>
        </extensions>
      </trkpt>
      <trkpt lat="25.773944" lon="-80.144330">
        <ele>-7.0</ele>
        <time>2026-08-05T07:30:48Z</time>
        <extensions>
          <dashgps:speed_kmh>48.00</dashgps:speed_kmh>
          <dashgps:heading_deg>271.2</dashgps:heading_deg>
        </extensions>
      </trkpt>
      <trkpt lat="25.773948" lon="-80.144463">
        <ele>-6.0</ele>
        <time>2026-08-05T07:30:49Z</time>
        <extensions>
          <dashgps:speed_kmh>48.00</dashgps:speed_kmh>
          <dashgps:heading_deg>271.5</dashgps:heading_deg>
        </extensions>
      </trkpt>
      <trkpt lat="25.773951" lon="-80.144596">
        <ele>-10.0</ele>
        <time>2026-08-05T07:30:50Z</time>
        <extensions>
          <dashgps:speed_kmh>48.00</dashgps:speed_kmh>
          <dashgps:heading_deg>271.8</dashgps:heading_deg>
        </extensions>
      </trkpt>
      <trkpt lat="25.773955" lon="-80.144729">
        <ele>-9.0</ele>
        <time>2026-08-05T07:30:51Z</time>
        <extensions>
          <dashgps:speed_kmh>48.00</dashgps:speed_kmh>
          <dashgps:heading_deg>272.0</dashgps:heading_deg>
        </extensions>
      </trkpt>
      <trkpt lat="25.773960" lon="-80.144862">
        <ele>-8.0</ele>
        <time>2026-08-05T07:30:52Z</time>
        <extensions>
          <dashgps:speed_kmh>48.00</dashgps:speed_kmh>
          <dashgps:heading_deg>272.2</dashgps:heading_deg>
        </extensions>
      </trkpt>
      <trkpt lat="25.773965" lon="-80.144995">
        <ele>-7.0</ele>
        <time>2026-08-05T07:30:53Z</time>
        <extensions>
          <dashgps:speed_kmh>48.00</dashgps:speed_kmh>
          <dashgps:heading_deg>272.5</dashgps:heading_deg>
        </extensions>
      </trkpt>
      <trkpt lat="25.773971" lon="-80.145128">
        <ele>-6.0</ele>
        <time>2026-08-05T07:30:54Z</time>
        <extensions>
          <dashgps:speed_kmh>48.00</dashgps:speed_kmh>
          <dashgps:heading_deg>272.8</dashgps:heading_deg>
        </extensions>
      </trkpt>
      <trkpt lat="25.773977" lon="-80.145261">
        <ele>-10.0</ele>
        <time>2026-08-05T07:30:55Z</time>
        <extensions>
          <dashgps:speed_kmh>48.00</dashgps:speed_kmh>
          <dashgps:heading_deg>273.0</dashgps:heading_deg>
        </extensions>
      </trkpt>
      <trkpt lat="25.773984" lon="-80.145394">
        <ele>-9.0</ele>
        <time>2026-08-05T07:30:56Z</time>
        <extensions>
          <dashgps:speed_kmh>48.00</dashgps:speed_kmh>
          <dashgps:heading_deg>273.2</dashgps:heading_deg>
        </extensions>
      </trkpt>
      <trkpt lat="25.773991" lon="-80.145527">
        <ele>-8.0</ele>
        <time>2026-08-05T07:30:57Z</time>
        <extensions>
          <dashgps:speed_kmh>48.00</dashgps:speed_kmh>
          <dashgps:heading_deg>273.5</dashgps:heading_deg>
        </extensions>
      </trkpt>
      <trkpt lat="25.773999" lon="-80.145660">
        <ele>-7.0</ele>
        <time>2026-08-05T07:30:58Z</time>
        <extensions>
          <dashgps:speed_kmh>48.00</dashgps:speed_kmh>
          <dashgps:heading_deg>273.8</dashgps:heading_deg>
        </extensions>
      </trkpt>
      <trkpt lat="25.774008" lon="-80.145793">
        <ele>-6.0</ele>
        <time>2026-08-05T07:30:59Z</time>
        <extensions>
          <dashgps:speed_kmh>48.00</dashgps:speed_kmh>
          <dashgps:heading_deg>274.0</dashgps:heading_deg>
        </extensions>
      </trkpt>
      <trkpt lat="25.774017" lon="-80.145926">
        <ele>-10.0</ele>
        <time>2026-08-05T07:31:00Z</time>
        <extensions>
          <dashgps:speed_kmh>48.00</dashgps:speed_kmh>
          <dashgps:heading_deg>274.2</dashgps:heading_deg>
        </extensions>
      </trkpt>
      <trkpt lat="25.774026" lon="-80.146058">
        <ele>-9.0</ele>
        <time>2026-08-05T07:31:01Z</time>
        <extensions>
          <dashgps:speed_kmh>48.00</dashgps:speed_kmh>
          <dashgps:heading_deg>274.5</dashgps:heading_deg>
        </extensions>
      </trkpt>
      <trkpt lat="25.774036" lon="-80.146191">
        <ele>-8.0</ele>
        <time>2026-08-05T07:31:02Z</time>
        <extensions>
          <dashgps:speed_kmh>48.00</dashgps:speed_kmh>
          <dashgps:heading_deg>274.8</dashgps:heading_deg>
        </extensions>
      </trkpt>
      <trkpt lat="25.774046" lon="-80.146324">
        <ele>-7.0</ele>
        <time>2026-08-05T07:31:03Z</time>
        <extensions>
          <dashgps:speed_kmh>48.00</dashgps:speed_kmh>
          <dashgps:heading_deg>275.0</dashgps:heading_deg>
        </extensions>
      </trkpt>
      <trkpt lat="25.774057" lon="-80.146456">
        <ele>-6.0</ele>
        <time>2026-08-05T07:31:04Z</time>
        <extensions>
          <dashgps:speed_kmh>48.00</dashgps:speed_kmh>
          <dashgps:heading_deg>275.2</dashgps:heading_deg>
        </extensions>
      </trkpt>
      <trkpt lat="25.774069" lon="-80.146589">
        <ele>-10.0</ele>
        <time>2026-08-05T07:31:05Z</time>
        <extensions>
          <dashgps:speed_kmh>48.00</dashgps:speed_kmh>
          <dashgps:heading_deg>275.5</dashgps:heading_deg>
        </extensions>
      </trkpt>
      <trkpt lat="25.774081" lon="-80.146721">
        <ele>-9.0</ele>
        <time>2026-08-05T07:31:06Z</time>
        <extensions>
          <dashgps:speed_kmh>48.00</dashgps:speed_kmh>
          <dashgps:heading_deg>275.8</dashgps:heading_deg>
        </extensions>
      </trkpt>
      <trkpt lat="25.774093" lon="-80.146854">
        <ele>-8.0</ele>
        <time>2026-08-05T07:31:07Z</time>
        <extensions>
          <dashgps:speed_kmh>48.00</dashgps:speed_kmh>
          <dashgps:heading_deg>276.0</dashgps:heading_deg>
        </extensions>
      </trkpt>
      <trkpt lat="25.774106" lon="-80.146986">
        <ele>-7.0</ele>
        <time>2026-08-05T07:31:08Z</time>
        <extensions>
          <dashgps:speed_kmh>48.00</dashgps:speed_kmh>
          <dashgps:heading_deg>276.2</dashgps:heading_deg>
        </extensions>
      </trkpt>
      <trkpt lat="25.774120" lon="-80.147118">
        <ele>-6.0</ele>
        <time>2026-08-05T07:31:09Z</time>
        <extensions>
          <dashgps:speed_kmh>48.00</dashgps:speed_kmh>
          <dashgps:heading_deg>276.5</dashgps:heading_deg>
        </extensions>
      </trkpt>
      <trkpt lat="25.774134" lon="-80.147251">
        <ele>-10.0</ele>
        <time>2026-08-05T07:31:10Z</time>
        <extensions>
          <dashgps:speed_kmh>48.00</dashgps:speed_kmh>
          <dashgps:heading_deg>276.8</dashgps:heading_deg>
        </extensions>
      </trkpt>
      <trkpt lat="25.774149" lon="-80.147383">
        <ele>-9.0</ele>
        <time>2026-08-05T07:31:11Z</time>
        <extensions>
          <dashgps:speed_kmh>48.00</dashgps:speed_kmh>
          <dashgps:heading_deg>277.0</dashgps:heading_deg>
        </extensions>
      </trkpt>
      <trkpt lat="25.774164" lon="-80.147515">
        <ele>-8.0</ele>
        <time>2026-08-05T07:31:12Z</time>
        <extensions>
          <dashgps:speed_kmh>48.00</dashgps:speed_kmh>
          <dashgps:heading_deg>277.2</dashgps:heading_deg>
        </extensions>
      </trkpt>
      <trkpt lat="25.774179" lon="-80.147647">
        <ele>-7.0</ele>
        <time>2026-08-05T07:31:13Z</time>
        <extensions>
          <dashgps:speed_kmh>48.00</dashgps:speed_kmh>
          <dashgps:heading_deg>277.5</dashgps:heading_deg>
        </extensions>
      </trkpt>
      <trkpt lat="25.774196" lon="-80.147779">
        <ele>-6.0</ele>
        <time>2026-08-05T07:31:14Z</time>
        <extensions>
          <dashgps:speed_kmh>48.00</dashgps:speed_kmh>
          <dashgps:heading_deg>277.8</dashgps:heading_deg>
        </extensions>
      </trkpt>
      <trkpt lat="25.774212" lon="-80.147911">
        <ele>-10.0</ele>
        <time>2026-08-05T07:31:15Z</time>
        <extensions>
          <dashgps:speed_kmh>48.00</dashgps:speed_kmh>
          <dashgps:heading_deg>278.0</dashgps:heading_deg>
        </extensions>
      </trkpt>
      <trkpt lat="25.774230" lon="-80.148042">
        <ele>-9.0</ele>
        <time>2026-08-05T07:31:16Z</time>
        <extensions>
          <dashgps:speed_kmh>48.00</dashgps:speed_kmh>
          <dashgps:heading_deg>278.2</dashgps:heading_deg>
        </extensions>
      </trkpt>
      <trkpt lat="25.774247" lon="-80.148174">
        <ele>-8.0</ele>
        <time>2026-08-05T07:31:17Z</time>
        <extensions>
          <dashgps:speed_kmh>48.00</dashgps:speed_kmh>
          <dashgps:heading_deg>278.5</dashgps:heading_deg>
        </extensions>
      </trkpt>
      <trkpt lat="25.774265" lon="-80.148306">
        <ele>-7.0</ele>
        <time>2026-08-05T07:31:18Z</time>
        <extensions>
          <dashgps:speed_kmh>48.00</dashgps:speed_kmh>
          <dashgps:heading_deg>278.8</dashgps:heading_deg>
        </extensions>
      </trkpt>
      <trkpt lat="25.774284" lon="-80.148437">
        <ele>-6.0</ele>
        <time>2026-08-05T07:31:19Z</time>
        <extensions>
          <dashgps:speed_kmh>48.00</dashgps:speed_kmh>
          <dashgps:heading_deg>279.0</dashgps:heading_deg>
        </extensions>
      </trkpt>
    </trkseg>
  </trk>
</gpx>
